{
  "type": "FeatureCollection",
  "features": [
    {
      "type": "Feature",
      "id": "way/321851472",
      "properties": {
        "timestamp": "2021-02-09T06:46:37Z",
        "version": 5,
        "changeset": 98951836,
        "addr:city": "Sorocaba",
        "addr:housenumber": "2420",
        "addr:postcode": "18076-005",
        "addr:street": "Avenida Itavuvu",
        "addr:suburb": "Jardim Maria Antônia Prado",
        "amenity": "pharmacy",
        "brand": "Droga Raia",
        "brand:wikidata": "Q10357101",
        "brand:wikipedia": "pt:RaiaDrogasil",
        "building": "yes",
        "dispensing": "yes",
        "healthcare": "pharmacy",
        "name": "Droga Raia",
        "opening_hours": "24/7",
        "phone": "+55 15 3226-6416;+55 15 99685-0810",
        "website": "https://www.drogaraia.com.br/",
        "id": "way/321851472"
      },
      "geometry": {
        "type": "Polygon",
        "coordinates": [
          [
            [
              -47.4789823,
              -23.4636045
            ],
            [
              -47.4788706,
              -23.4635427
            ],
            [
              -47.4789452,
              -23.463431
            ],
            [
              -47.4789605,
              -23.4634393
            ],
            [
              -47.4789795,
              -23.4634087
            ],
            [
              -47.4790634,
              -23.4634528
            ],
            [
              -47.4790515,
              -23.4636209
            ],
            [
              -47.4789814,
              -23.4636167
            ],
            [
              -47.4789823,
              -23.4636045
            ]
          ]
        ]
      }
    },
    {
      "type": "Feature",
      "id": "way/563751223",
      "properties": {
        "timestamp": "2020-09-28T17:04:23Z",
        "version": 2,
        "changeset": 91657555,
        "addr:city": "Sorocaba",
        "addr:housenumber": "303",
        "addr:postcode": "18075-042",
        "addr:street": "Avenida Itavuvu",
        "addr:suburb": "Vila Olimpia",
        "amenity": "pharmacy",
        "building": "yes",
        "dispensing": "yes",
        "drive_through": "no",
        "healthcare": "pharmacy",
        "name": "Phito Fórmulas",
        "opening_hours": "Mo-Fr 09:00-18:00; Sa 08:00-13:00",
        "phone": "+55 15 3211-2020",
        "id": "way/563751223"
      },
      "geometry": {
        "type": "Polygon",
        "coordinates": [
          [
            [
              -47.4731103,
              -23.4818421
            ],
            [
              -47.4734972,
              -23.482058
            ],
            [
              -47.4734339,
              -23.4821607
            ],
            [
              -47.4733454,
              -23.482114
            ],
            [
              -47.4733295,
              -23.4821171
            ],
            [
              -47.4733136,
              -23.4821168
            ],
            [
              -47.473294,
              -23.4821143
            ],
            [
              -47.4732749,
              -23.4821127
            ],
            [
              -47.4732481,
              -23.4821039
            ],
            [
              -47.4732148,
              -23.4820863
            ],
            [
              -47.473176,
              -23.482061
            ],
            [
              -47.4731453,
              -23.4820398
            ],
            [
              -47.4731194,
              -23.4820187
            ],
            [
              -47.473097,
              -23.4820015
            ],
            [
              -47.4730788,
              -23.4819841
            ],
            [
              -47.4730663,
              -23.481967
            ],
            [
              -47.4730555,
              -23.4819528
            ],
            [
              -47.4730447,
              -23.4819386
            ],
            [
              -47.4731103,
              -23.4818421
            ]
          ]
        ]
      }
    },
    {
      "type": "Feature",
      "id": "way/618357346",
      "properties": {
        "timestamp": "2019-06-07T23:07:47Z",
        "version": 3,
        "changeset": 71040516,
        "addr:city": "Sorocaba",
        "addr:housenumber": "530",
        "addr:street": "Avenida Izoraida Marques Peres",
        "amenity": "pharmacy",
        "brand": "Drogaria São Paulo",
        "brand:wikidata": "Q5308184",
        "brand:wikipedia": "en:Grupo DPSP",
        "building": "yes",
        "dispensing": "yes",
        "healthcare": "pharmacy",
        "name": "Drogaria São Paulo",
        "id": "way/618357346"
      },
      "geometry": {
        "type": "Polygon",
        "coordinates": [
          [
            [
              -47.4654556,
              -23.5348099
            ],
            [
              -47.4655023,
              -23.5347521
            ],
            [
              -47.4656507,
              -23.5346943
            ],
            [
              -47.4656955,
              -23.5348155
            ],
            [
              -47.4654942,
              -23.5348788
            ],
            [
              -47.4654556,
              -23.5348099
            ]
          ]
        ]
      }
    },
    {
      "type": "Feature",
      "id": "way/618608300",
      "properties": {
        "timestamp": "2020-03-14T16:01:37Z",
        "version": 3,
        "changeset": 82197034,
        "addr:city": "Sorocaba",
        "addr:housenumber": "226",
        "addr:street": "Rua Duque de Caxias",
        "amenity": "pharmacy",
        "brand": "Drogasil",
        "brand:wikidata": "Q5308185",
        "brand:wikipedia": "pt:Drogasil",
        "building": "yes",
        "dispensing": "yes",
        "healthcare": "pharmacy",
        "name": "Drogasil",
        "wheelchair": "yes",
        "id": "way/618608300"
      },
      "geometry": {
        "type": "Polygon",
        "coordinates": [
          [
            [
              -47.4660649,
              -23.5040891
            ],
            [
              -47.4661849,
              -23.5040052
            ],
            [
              -47.466278,
              -23.504121
            ],
            [
              -47.4663962,
              -23.5040473
            ],
            [
              -47.4664217,
              -23.5040751
            ],
            [
              -47.4661889,
              -23.5042438
            ],
            [
              -47.4660649,
              -23.5040891
            ]
          ]
        ]
      }
    },
    {
      "type": "Feature",
      "id": "way/618608301",
      "properties": {
        "timestamp": "2020-02-02T16:06:45Z",
        "version": 2,
        "changeset": 80439795,
        "addr:city": "Sorocaba",
        "addr:street": "Avenida Moreira César",
        "amenity": "pharmacy",
        "building": "yes",
        "dispensing": "yes",
        "healthcare": "pharmacy",
        "name": "Farmaponte",
        "id": "way/618608301"
      },
      "geometry": {
        "type": "Polygon",
        "coordinates": [
          [
            [
              -47.466182,
              -23.5039689
            ],
            [
              -47.4663002,
              -23.5038952
            ],
            [
              -47.4663962,
              -23.5040473
            ],
            [
              -47.466278,
              -23.504121
            ],
            [
              -47.466182,
              -23.5039689
            ]
          ]
        ]
      }
    },
    {
      "type": "Feature",
      "id": "way/886891382",
      "properties": {
        "timestamp": "2023-08-19T08:55:31Z",
        "version": 2,
        "changeset": 140085881,
        "addr:city": "Sorocaba",
        "addr:housenumber": "1422",
        "addr:postcode": "18090-520",
        "addr:street": "Rua Ubirajara",
        "addr:suburb": "Vila Progresso",
        "amenity": "pharmacy",
        "building": "yes",
        "dispensing": "yes",
        "healthcare": "pharmacy",
        "name": "Farma Ponte",
        "opening_hours": "Mo-Sa 07:00-22:00; Su 08:00-22:00",
        "id": "way/886891382"
      },
      "geometry": {
        "type": "Polygon",
        "coordinates": [
          [
            [
              -47.4428206,
              -23.4769141
            ],
            [
              -47.4428884,
              -23.4767758
            ],
            [
              -47.4430237,
              -23.4768283
            ],
            [
              -47.4429563,
              -23.4769688
            ],
            [
              -47.4428206,
              -23.4769141
            ]
          ]
        ]
      }
    },
    {
      "type": "Feature",
      "id": "way/895172857",
      "properties": {
        "timestamp": "2023-10-21T09:13:37Z",
        "version": 4,
        "changeset": 142914509,
        "addr:city": "Sorocaba",
        "addr:housenumber": "1273",
        "addr:postcode": "18076-320",
        "addr:street": "Rua Luiz Ricardo Maffei",
        "addr:suburb": "Jardim São Lourenzo",
        "amenity": "pharmacy",
        "building": "yes",
        "dispensing": "yes",
        "drive_through": "no",
        "healthcare": "pharmacy",
        "name": "Farmácias Bigfort",
        "opening_hours": "Mo-Sa 08:00-20:00",
        "phone": "+55 15 3226-5175",
        "website": "https://www.farmaciasbigfort.com.br/",
        "id": "way/895172857"
      },
      "geometry": {
        "type": "Polygon",
        "coordinates": [
          [
            [
              -47.4682901,
              -23.4626072
            ],
            [
              -47.4683521,
              -23.4626649
            ],
            [
              -47.4682192,
              -23.4627849
            ],
            [
              -47.4681642,
              -23.4627842
            ],
            [
              -47.4681297,
              -23.4627521
            ],
            [
              -47.4682901,
              -23.4626072
            ]
          ]
        ]
      }
    },
    {
      "type": "Feature",
      "id": "way/895172859",
      "properties": {
        "timestamp": "2021-01-14T10:10:24Z",
        "version": 1,
        "changeset": 97488557,
        "addr:city": "Sorocaba",
        "addr:housenumber": "355",
        "addr:postcode": "18076-520",
        "addr:street": "Rua Pedro Lombardi",
        "addr:suburb": "Vila Mineirão",
        "amenity": "pharmacy",
        "building": "yes",
        "dispensing": "yes",
        "healthcare": "pharmacy",
        "name": "Drogaria Mineirão",
        "id": "way/895172859"
      },
      "geometry": {
        "type": "Polygon",
        "coordinates": [
          [
            [
              -47.4639165,
              -23.4693997
            ],
            [
              -47.4638474,
              -23.4694552
            ],
            [
              -47.4637947,
              -23.4694001
            ],
            [
              -47.4638639,
              -23.4693445
            ],
            [
              -47.4639165,
              -23.4693997
            ]
          ]
        ]
      }
    },
    {
      "type": "Feature",
      "id": "way/896831735",
      "properties": {
        "timestamp": "2023-06-27T01:36:21Z",
        "version": 3,
        "changeset": 137813357,
        "addr:city": "Sorocaba",
        "addr:housenumber": "12",
        "addr:postcode": "18075-042",
        "addr:street": "Avenida Itavuvu",
        "addr:suburb": "Jardim Ana Maria",
        "amenity": "pharmacy",
        "building": "yes",
        "check_date": "2023-05-18",
        "dispensing": "yes",
        "healthcare": "pharmacy",
        "name": "Farmamed",
        "opening_hours": "24/7",
        "phone": "+55 15 3232-7966",
        "website": "https://www.farmamed.com.br/",
        "wheelchair": "yes",
        "id": "way/896831735"
      },
      "geometry": {
        "type": "Polygon",
        "coordinates": [
          [
            [
              -47.4713888,
              -23.483798
            ],
            [
              -47.4712751,
              -23.483925
            ],
            [
              -47.4711236,
              -23.4837513
            ],
            [
              -47.4712088,
              -23.4836724
            ],
            [
              -47.4713888,
              -23.483798
            ]
          ]
        ]
      }
    },
    {
      "type": "Feature",
      "id": "way/896831737",
      "properties": {
        "timestamp": "2021-02-15T07:01:29Z",
        "version": 2,
        "changeset": 99286244,
        "addr:city": "Sorocaba",
        "addr:housenumber": "440",
        "addr:postcode": "18075-042",
        "addr:street": "Avenida Itavuvu",
        "addr:suburb": "Vila Olimpia",
        "amenity": "pharmacy",
        "brand": "Drogasil",
        "brand:wikidata": "Q5308185",
        "brand:wikipedia": "pt:Drogasil",
        "building": "yes",
        "dispensing": "yes",
        "healthcare": "pharmacy",
        "name": "Drogasil",
        "opening_hours": "Mo-Su 07:00-23:00",
        "phone": "+55 15 3211-1208;+55 15 3211-0039",
        "website": "https://www.drogasil.com.br/",
        "wheelchair": "yes",
        "id": "way/896831737"
      },
      "geometry": {
        "type": "Polygon",
        "coordinates": [
          [
            [
              -47.4735166,
              -23.4805373
            ],
            [
              -47.4734298,
              -23.4806832
            ],
            [
              -47.4732195,
              -23.480578
            ],
            [
              -47.4733086,
              -23.4804337
            ],
            [
              -47.473321,
              -23.4804399
            ],
            [
              -47.4735166,
              -23.4805373
            ]
          ]
        ]
      }
    },
    {
      "type": "Feature",
      "id": "way/897731848",
      "properties": {
        "timestamp": "2021-01-20T21:49:27Z",
        "version": 1,
        "changeset": 97862378,
        "addr:city": "Sorocaba",
        "addr:housenumber": "35",
        "addr:postcode": "18090-000",
        "addr:street": "Avenida Roberto Simonsen",
        "addr:suburb": "Jardim Santa Rosália",
        "amenity": "pharmacy",
        "building": "yes",
        "dispensing": "yes",
        "healthcare": "pharmacy",
        "name": "Farma Ponte",
        "opening_hours": "Mo-Su 07:00-23:00",
        "id": "way/897731848"
      },
      "geometry": {
        "type": "Polygon",
        "coordinates": [
          [
            [
              -47.4508835,
              -23.4860614
            ],
            [
              -47.4509342,
              -23.4861406
            ],
            [
              -47.4509234,
              -23.4861821
            ],
            [
              -47.4508449,
              -23.4862342
            ],
            [
              -47.4508527,
              -23.4862525
            ],
            [
              -47.4507766,
              -23.4862968
            ],
            [
              -47.4507509,
              -23.4862575
            ],
            [
              -47.4506925,
              -23.4861692
            ],
            [
              -47.4508835,
              -23.4860614
            ]
          ]
        ]
      }
    },
    {
      "type": "Feature",
      "id": "way/898176587",
      "properties": {
        "timestamp": "2023-08-25T16:40:45Z",
        "version": 3,
        "changeset": 140381071,
        "addr:city": "Sorocaba",
        "addr:housenumber": "28",
        "addr:postcode": "18090-450",
        "addr:street": "Avenida São Francisco",
        "addr:suburb": "Jardim Santa Rosália",
        "amenity": "pharmacy",
        "brand": "Droga Raia",
        "brand:wikidata": "Q10357101",
        "brand:wikipedia": "pt:RaiaDrogasil",
        "building": "yes",
        "building:levels": "3",
        "dispensing": "yes",
        "healthcare": "pharmacy",
        "name": "Droga Raia",
        "opening_hours": "Mo-Su 07:00-23:00",
        "phone": "+55 15 3233-7426;+55 15 99871-0073",
        "website": "https://www.drogaraia.com.br/",
        "id": "way/898176587"
      },
      "geometry": {
        "type": "Polygon",
        "coordinates": [
          [
            [
              -47.4430481,
              -23.4866264
            ],
            [
              -47.4431771,
              -23.4867455
            ],
            [
              -47.4431803,
              -23.4867513
            ],
            [
              -47.4430787,
              -23.4868417
            ],
            [
              -47.4429465,
              -23.4867167
            ],
            [
              -47.4430481,
              -23.4866264
            ]
          ]
        ]
      }
    },
    {
      "type": "Feature",
      "id": "way/905933605",
      "properties": {
        "timestamp": "2021-05-24T01:46:43Z",
        "version": 2,
        "changeset": 105189075,
        "addr:city": "Sorocaba",
        "addr:housenumber": "1530",
        "addr:postcode": "18075-630",
        "addr:street": "Rua Paes de Linhares",
        "addr:suburb": "Jardim Brasilândia",
        "amenity": "pharmacy",
        "healthcare": "pharmacy",
        "name": "Drogaria Muraro",
        "opening_hours": "Mo-Fr 08:00-20:00; Sa 08:00-19:00",
        "phone": "+55 15 3231-0533",
        "id": "way/905933605"
      },
      "geometry": {
        "type": "Polygon",
        "coordinates": [
          [
            [
              -47.4571039,
              -23.4744105
            ],
            [
              -47.4570241,
              -23.4743289
            ],
            [
              -47.4571012,
              -23.4742709
            ],
            [
              -47.4571142,
              -23.4742673
            ],
            [
              -47.4571302,
              -23.4742662
            ],
            [
              -47.4571433,
              -23.4742694
            ],
            [
              -47.4572053,
              -23.4743299
            ],
            [
              -47.4571039,
              -23.4744105
            ]
          ]
        ]
      }
    },
    {
      "type": "Feature",
      "id": "way/907258259",
      "properties": {
        "timestamp": "2023-10-25T15:31:22Z",
        "version": 2,
        "changeset": 143121786,
        "addr:city": "Sorocaba",
        "addr:housenumber": "936",
        "addr:postcode": "18081-000",
        "addr:street": "Avenida Doutor Artur Bernardes",
        "addr:suburb": "Vila Gabriel",
        "amenity": "pharmacy",
        "building": "yes",
        "dispensing": "yes",
        "healthcare": "pharmacy",
        "name": "Farmácias Bigfort",
        "opening_hours": "Mo-Fr 08:00-20:00; Sa 08:00-18:00; Su 08:00-12:00",
        "phone": "+55 15 3232-9830;+55 15 98138-0138",
        "website": "https://www.farmaciasbigfort.com.br/",
        "id": "way/907258259"
      },
      "geometry": {
        "type": "Polygon",
        "coordinates": [
          [
            [
              -47.4460748,
              -23.4752063
            ],
            [
              -47.445875,
              -23.4753284
            ],
            [
              -47.4458206,
              -23.4752536
            ],
            [
              -47.4460204,
              -23.4751314
            ],
            [
              -47.4460748,
              -23.4752063
            ]
          ]
        ]
      }
    },
    {
      "type": "Feature",
      "id": "way/907258283",
      "properties": {
        "timestamp": "2022-07-24T03:10:21Z",
        "version": 2,
        "changeset": 123995048,
        "addr:city": "Sorocaba",
        "addr:housenumber": "360",
        "addr:postcode": "18080-430",
        "addr:street": "Rua Fernandes Camacho",
        "addr:suburb": "Jardim Alvorada",
        "amenity": "pharmacy",
        "building": "yes",
        "dispensing": "yes",
        "healthcare": "pharmacy",
        "name": "Drogaria Leão II",
        "opening_hours": "Mo-Fr 08:00-20:00; Sa 08:00-13:00",
        "phone": "+55 15 3233-1981",
        "id": "way/907258283"
      },
      "geometry": {
        "type": "Polygon",
        "coordinates": [
          [
            [
              -47.4679608,
              -23.4816949
            ],
            [
              -47.4676835,
              -23.4816806
            ],
            [
              -47.4676871,
              -23.4816208
            ],
            [
              -47.4679645,
              -23.481635
            ],
            [
              -47.4679627,
              -23.4816637
            ],
            [
              -47.4679608,
              -23.4816949
            ]
          ]
        ]
      }
    },
    {
      "type": "Feature",
      "id": "way/907258286",
      "properties": {
        "timestamp": "2021-02-24T02:47:24Z",
        "version": 2,
        "changeset": 99863150,
        "addr:city": "Sorocaba",
        "addr:housenumber": "408",
        "addr:postcode": "18075-630",
        "addr:street": "Rua Paes de Linhares",
        "addr:suburb": "Vila Fiori",
        "amenity": "pharmacy",
        "building": "yes",
        "dispensing": "yes",
        "healthcare": "pharmacy",
        "name": "Farma Fiori",
        "opening_hours": "Mo-Fr 09:00-19:30; Sa 09:00-18:00",
        "phone": "+55 15 3233-0100",
        "id": "way/907258286"
      },
      "geometry": {
        "type": "Polygon",
        "coordinates": [
          [
            [
              -47.4660836,
              -23.4796689
            ],
            [
              -47.4659949,
              -23.4796288
            ],
            [
              -47.4660531,
              -23.4795206
            ],
            [
              -47.4660592,
              -23.4795093
            ],
            [
              -47.4661343,
              -23.4795433
            ],
            [
              -47.4661398,
              -23.4795644
            ],
            [
              -47.4660836,
              -23.4796689
            ]
          ]
        ]
      }
    },
    {
      "type": "Feature",
      "id": "way/907795772",
      "properties": {
        "timestamp": "2021-02-16T16:51:22Z",
        "version": 1,
        "changeset": 99395642,
        "amenity": "pharmacy",
        "brand": "Droga Raia",
        "brand:wikidata": "Q10357101",
        "brand:wikipedia": "pt:RaiaDrogasil",
        "building": "yes",
        "dispensing": "yes",
        "healthcare": "pharmacy",
        "name": "Droga Raia",
        "id": "way/907795772"
      },
      "geometry": {
        "type": "Polygon",
        "coordinates": [
          [
            [
              -47.4590845,
              -23.4982954
            ],
            [
              -47.4591741,
              -23.4983298
            ],
            [
              -47.4590535,
              -23.4985953
            ],
            [
              -47.4589594,
              -23.4985601
            ],
            [
              -47.4590845,
              -23.4982954
            ]
          ]
        ]
      }
    },
    {
      "type": "Feature",
      "id": "way/907795773",
      "properties": {
        "timestamp": "2021-02-16T16:51:22Z",
        "version": 1,
        "changeset": 99395642,
        "amenity": "pharmacy",
        "building": "yes",
        "dispensing": "yes",
        "healthcare": "pharmacy",
        "name": "Farma Ponte",
        "id": "way/907795773"
      },
      "geometry": {
        "type": "Polygon",
        "coordinates": [
          [
            [
              -47.4591385,
              -23.4981674
            ],
            [
              -47.4590219,
              -23.4981189
            ],
            [
              -47.4590555,
              -23.4980523
            ],
            [
              -47.4590708,
              -23.498021
            ],
            [
              -47.4591863,
              -23.4980684
            ],
            [
              -47.4591385,
              -23.4981674
            ]
          ]
        ]
      }
    },
    {
      "type": "Feature",
      "id": "way/908536777",
      "properties": {
        "timestamp": "2023-10-21T09:14:08Z",
        "version": 2,
        "changeset": 142914540,
        "addr:city": "Sorocaba",
        "addr:housenumber": "2600",
        "addr:postcode": "18078-005",
        "addr:street": "Avenida Itavuvu",
        "addr:suburb": "Jardim Maria Antônia Prado",
        "amenity": "pharmacy",
        "building": "yes",
        "dispensing": "yes",
        "healthcare": "pharmacy",
        "name": "Farma Ponte",
        "opening_hours": "Mo-Su 07:00-23:00",
        "phone": "+55 15 3239-7270",
        "website": "https://www.farmaponte.com.br/",
        "id": "way/908536777"
      },
      "geometry": {
        "type": "Polygon",
        "coordinates": [
          [
            [
              -47.4793706,
              -23.4619526
            ],
            [
              -47.4793232,
              -23.4620746
            ],
            [
              -47.4791421,
              -23.4619886
            ],
            [
              -47.4791424,
              -23.4619879
            ],
            [
              -47.4791821,
              -23.4618883
            ],
            [
              -47.4793706,
              -23.4619526
            ]
          ]
        ]
      }
    },
    {
      "type": "Feature",
      "id": "way/908623892",
      "properties": {
        "timestamp": "2021-02-19T06:39:30Z",
        "version": 1,
        "changeset": 99568587,
        "addr:city": "Sorocaba",
        "addr:housenumber": "1426",
        "addr:postcode": "18076-005",
        "addr:street": "Avenida Itavuvu",
        "addr:suburb": "Jardim Parana",
        "amenity": "pharmacy",
        "building": "yes",
        "dispensing": "yes",
        "healthcare": "pharmacy",
        "name": "Drogamyl",
        "opening_hours": "Mo-Sa 08:00-22:00; Su 08:00-15:00",
        "phone": "+55 15 3226-1545",
        "id": "way/908623892"
      },
      "geometry": {
        "type": "Polygon",
        "coordinates": [
          [
            [
              -47.47657,
              -23.4722642
            ],
            [
              -47.4765964,
              -23.4721862
            ],
            [
              -47.4766765,
              -23.4722084
            ],
            [
              -47.4766512,
              -23.4722869
            ],
            [
              -47.47657,
              -23.4722642
            ]
          ]
        ]
      }
    },
    {
      "type": "Feature",
      "id": "way/908623903",
      "properties": {
        "timestamp": "2021-02-19T06:39:30Z",
        "version": 1,
        "changeset": 99568587,
        "addr:city": "Sorocaba",
        "addr:housenumber": "136",
        "addr:postcode": "18075-042",
        "addr:street": "Avenida Itavuvu",
        "addr:suburb": "Vila Olimpia",
        "amenity": "pharmacy",
        "building": "yes",
        "dispensing": "yes",
        "healthcare": "pharmacy",
        "name": "Farmácias Poup Mais",
        "opening_hours": "Mo-Fr 08:00-20:00; Sa 08:00-13:00",
        "phone": "+55 15 3226-4105",
        "website": "http://www.poupmais.com.br/",
        "id": "way/908623903"
      },
      "geometry": {
        "type": "Polygon",
        "coordinates": [
          [
            [
              -47.4719746,
              -23.4828727
            ],
            [
              -47.4717984,
              -23.4827997
            ],
            [
              -47.471839,
              -23.4827173
            ],
            [
              -47.4720151,
              -23.4827901
            ],
            [
              -47.4719746,
              -23.4828727
            ]
          ]
        ]
      }
    },
    {
      "type": "Feature",
      "id": "way/908623905",
      "properties": {
        "timestamp": "2021-04-16T15:14:31Z",
        "version": 2,
        "changeset": 103068387,
        "addr:city": "Sorocaba",
        "addr:housenumber": "154",
        "addr:postcode": "18075-042",
        "addr:street": "Avenida Itavuvu",
        "addr:suburb": "Vila Olimpia",
        "amenity": "pharmacy",
        "brand": "Drogaria São Paulo",
        "brand:wikidata": "Q5308184",
        "brand:wikipedia": "en:Grupo DPSP",
        "building": "yes",
        "dispensing": "yes",
        "healthcare": "pharmacy",
        "name": "Drogaria São Paulo",
        "opening_hours": "Mo-Su 07:00-23:00",
        "phone": "+55 15 3234-8069",
        "website": "https://www.drogariasaopaulo.com.br/",
        "id": "way/908623905"
      },
      "geometry": {
        "type": "Polygon",
        "coordinates": [
          [
            [
              -47.4720828,
              -23.4826333
            ],
            [
              -47.4720439,
              -23.4826991
            ],
            [
              -47.4718679,
              -23.4826114
            ],
            [
              -47.4719068,
              -23.4825457
            ],
            [
              -47.4720828,
              -23.4826333
            ]
          ]
        ]
      }
    },
    {
      "type": "Feature",
      "id": "way/908623909",
      "properties": {
        "timestamp": "2021-02-19T06:39:30Z",
        "version": 1,
        "changeset": 99568587,
        "addr:city": "Sorocaba",
        "addr:housenumber": "151",
        "addr:postcode": "18075-042",
        "addr:street": "Avenida Itavuvu",
        "addr:suburb": "Jardim Santa Cecília",
        "amenity": "pharmacy",
        "building": "yes",
        "dispensing": "yes",
        "healthcare": "pharmacy",
        "name": "Efrata Farmácia de Manipulação",
        "opening_hours": "Mo-Fr 08:00-18:00; Sa 08:00-12:00",
        "phone": "+55 15 3232-6116;+55 15 98812-4205",
        "id": "way/908623909"
      },
      "geometry": {
        "type": "Polygon",
        "coordinates": [
          [
            [
              -47.472436,
              -23.482918
            ],
            [
              -47.4725598,
              -23.4829834
            ],
            [
              -47.4725252,
              -23.4830384
            ],
            [
              -47.4724014,
              -23.4829731
            ],
            [
              -47.472436,
              -23.482918
            ]
          ]
        ]
      }
    },
    {
      "type": "Feature",
      "id": "way/908639334",
      "properties": {
        "timestamp": "2021-02-19T07:47:57Z",
        "version": 1,
        "changeset": 99573457,
        "addr:city": "Sorocaba",
        "addr:housenumber": "96",
        "addr:postcode": "18010-080",
        "addr:street": "Rua Quinze de Novembro",
        "addr:suburb": "Centro",
        "amenity": "pharmacy",
        "brand": "Droga Raia",
        "brand:wikidata": "Q10357101",
        "brand:wikipedia": "pt:RaiaDrogasil",
        "building": "yes",
        "dispensing": "yes",
        "healthcare": "pharmacy",
        "name": "Droga Raia",
        "opening_hours": "Mo-Fr 07:00-22:00; Sa 07:00-20:00",
        "id": "way/908639334"
      },
      "geometry": {
        "type": "Polygon",
        "coordinates": [
          [
            [
              -47.4559527,
              -23.5000519
            ],
            [
              -47.4560118,
              -23.5000465
            ],
            [
              -47.4560272,
              -23.5002272
            ],
            [
              -47.4559695,
              -23.5002292
            ],
            [
              -47.4559527,
              -23.5000519
            ]
          ]
        ]
      }
    },
    {
      "type": "Feature",
      "id": "way/908639335",
      "properties": {
        "timestamp": "2023-10-25T15:31:42Z",
        "version": 2,
        "changeset": 143121801,
        "addr:city": "Sorocaba",
        "addr:housenumber": "48",
        "addr:postcode": "18010-170",
        "addr:street": "Rua Quinze de Novembro",
        "addr:suburb": "Centro",
        "amenity": "pharmacy",
        "building": "yes",
        "dispensing": "yes",
        "healthcare": "pharmacy",
        "name": "Farma Ponte",
        "opening_hours": "Mo-Fr 07:30-19:30; Sa 08:00-14:00",
        "phone": "+55 15 3233-8338",
        "website": "https://www.farmaponte.com.br/",
        "id": "way/908639335"
      },
      "geometry": {
        "type": "Polygon",
        "coordinates": [
          [
            [
              -47.4564802,
              -23.4999871
            ],
            [
              -47.4564997,
              -23.5002789
            ],
            [
              -47.4564228,
              -23.5002832
            ],
            [
              -47.4564032,
              -23.4999914
            ],
            [
              -47.4564802,
              -23.4999871
            ]
          ]
        ]
      }
    },
    {
      "type": "Feature",
      "id": "way/908639336",
      "properties": {
        "timestamp": "2021-04-16T15:14:01Z",
        "version": 2,
        "changeset": 103068356,
        "addr:city": "Sorocaba",
        "addr:housenumber": "40",
        "addr:postcode": "18010-080",
        "addr:street": "Rua Quinze de Novembro",
        "addr:suburb": "Centro",
        "amenity": "pharmacy",
        "brand": "Pague Menos",
        "brand:wikidata": "Q7124466",
        "brand:wikipedia": "pt:Pague Menos",
        "building": "yes",
        "dispensing": "yes",
        "healthcare": "pharmacy",
        "name": "Pague Menos",
        "opening_hours": "Mo-Sa 07:00-20:00",
        "phone": "+55 15 3233-4449",
        "website": "https://www.paguemenos.com.br/",
        "id": "way/908639336"
      },
      "geometry": {
        "type": "Polygon",
        "coordinates": [
          [
            [
              -47.4565514,
              -23.4999774
            ],
            [
              -47.4566251,
              -23.4999773
            ],
            [
              -47.4566255,
              -23.5001968
            ],
            [
              -47.4565519,
              -23.5001969
            ],
            [
              -47.4565514,
              -23.4999774
            ]
          ]
        ]
      }
    },
    {
      "type": "Feature",
      "id": "way/910504376",
      "properties": {
        "timestamp": "2021-02-24T14:39:48Z",
        "version": 1,
        "changeset": 99912660,
        "addr:city": "Sorocaba",
        "addr:housenumber": "1224",
        "addr:postcode": "18043-003",
        "addr:street": "Avenida General Carneiro",
        "addr:suburb": "Vila Lucy",
        "amenity": "pharmacy",
        "brand": "Drogasil",
        "brand:wikidata": "Q5308185",
        "brand:wikipedia": "pt:Drogasil",
        "building": "yes",
        "dispensing": "yes",
        "healthcare": "pharmacy",
        "name": "Drogasil",
        "opening_hours": "24/7",
        "phone": "+55 15 99818-2109",
        "website": "https://www.drogasil.com.br/",
        "wheelchair": "yes",
        "id": "way/910504376"
      },
      "geometry": {
        "type": "Polygon",
        "coordinates": [
          [
            [
              -47.4803097,
              -23.5045283
            ],
            [
              -47.4802539,
              -23.5046853
            ],
            [
              -47.4801307,
              -23.5046485
            ],
            [
              -47.4801865,
              -23.5044915
            ],
            [
              -47.4803097,
              -23.5045283
            ]
          ]
        ]
      }
    },
    {
      "type": "Feature",
      "id": "way/911871674",
      "properties": {
        "timestamp": "2023-09-11T12:09:09Z",
        "version": 2,
        "changeset": 141109289,
        "addr:housenumber": "270",
        "addr:street": "Rua Luzerne Proença Arruda",
        "amenity": "pharmacy",
        "brand": "Drogasil",
        "brand:wikidata": "Q5308185",
        "brand:wikipedia": "pt:Drogasil",
        "building": "yes",
        "dispensing": "yes",
        "healthcare": "pharmacy",
        "name": "Drogasil",
        "opening_hours": "Mo-Su 07:00-23:00",
        "wheelchair": "yes",
        "id": "way/911871674"
      },
      "geometry": {
        "type": "Polygon",
        "coordinates": [
          [
            [
              -47.4562006,
              -23.4783195
            ],
            [
              -47.4561341,
              -23.4783863
            ],
            [
              -47.455947,
              -23.4782295
            ],
            [
              -47.4560135,
              -23.4781627
            ],
            [
              -47.4562006,
              -23.4783195
            ]
          ]
        ]
      }
    },
    {
      "type": "Feature",
      "id": "way/990426227",
      "properties": {
        "timestamp": "2023-08-19T09:00:13Z",
        "version": 2,
        "changeset": 140085881,
        "addr:city": "Sorocaba",
        "addr:housenumber": "93",
        "addr:postcode": "18010-080",
        "addr:street": "Rua de São Bento",
        "addr:suburb": "Centro",
        "amenity": "pharmacy",
        "brand": "Farma Conde",
        "brand:wikidata": "Q100492677",
        "building": "yes",
        "dispensing": "yes",
        "healthcare": "pharmacy",
        "name": "Farma Conde",
        "opening_hours": "Mo-Su 08:00-18:00",
        "id": "way/990426227"
      },
      "geometry": {
        "type": "Polygon",
        "coordinates": [
          [
            [
              -47.4573765,
              -23.5003697
            ],
            [
              -47.4574249,
              -23.5004065
            ],
            [
              -47.4572659,
              -23.5005824
            ],
            [
              -47.4572175,
              -23.5005456
            ],
            [
              -47.4573765,
              -23.5003697
            ]
          ]
        ]
      }
    },
    {
      "type": "Feature",
      "id": "way/991014220",
      "properties": {
        "timestamp": "2021-10-08T00:26:36Z",
        "version": 1,
        "changeset": 112239179,
        "amenity": "pharmacy",
        "building": "yes",
        "dispensing": "yes",
        "healthcare": "pharmacy",
        "id": "way/991014220"
      },
      "geometry": {
        "type": "Polygon",
        "coordinates": [
          [
            [
              -47.4577826,
              -23.5026905
            ],
            [
              -47.4575771,
              -23.5025982
            ],
            [
              -47.4576323,
              -23.5024994
            ],
            [
              -47.4578326,
              -23.5025934
            ],
            [
              -47.4577826,
              -23.5026905
            ]
          ]
        ]
      }
    },
    {
      "type": "Feature",
      "id": "way/991020918",
      "properties": {
        "timestamp": "2021-10-08T01:20:18Z",
        "version": 1,
        "changeset": 112239777,
        "addr:city": "Sorocaba",
        "addr:street": "Rua Saldanha da Gama",
        "addr:suburb": "Centro",
        "amenity": "pharmacy",
        "building": "yes",
        "dispensing": "yes",
        "healthcare": "pharmacy",
        "name": "Botica Fórmulas",
        "id": "way/991020918"
      },
      "geometry": {
        "type": "Polygon",
        "coordinates": [
          [
            [
              -47.462231,
              -23.4967785
            ],
            [
              -47.4623166,
              -23.4968366
            ],
            [
              -47.4622373,
              -23.4969349
            ],
            [
              -47.4621517,
              -23.4968767
            ],
            [
              -47.462231,
              -23.4967785
            ]
          ]
        ]
      }
    },
    {
      "type": "Feature",
      "id": "way/991027427",
      "properties": {
        "timestamp": "2021-10-08T02:07:42Z",
        "version": 1,
        "changeset": 112240323,
        "addr:city": "Sorocaba",
        "addr:housenumber": "140",
        "addr:postcode": "18035-085",
        "addr:street": "Rua Brigadeiro Tobias",
        "addr:suburb": "Centro",
        "amenity": "pharmacy",
        "building": "yes",
        "dispensing": "yes",
        "healthcare": "pharmacy",
        "name": "Poupa Mais",
        "id": "way/991027427"
      },
      "geometry": {
        "type": "Polygon",
        "coordinates": [
          [
            [
              -47.4556672,
              -23.5001307
            ],
            [
              -47.4557316,
              -23.5004302
            ],
            [
              -47.4556893,
              -23.5004449
            ],
            [
              -47.4555921,
              -23.5001442
            ],
            [
              -47.4556672,
              -23.5001307
            ]
          ]
        ]
      }
    },
    {
      "type": "Feature",
      "id": "way/991150098",
      "properties": {
        "timestamp": "2021-10-08T10:47:31Z",
        "version": 1,
        "changeset": 112257931,
        "amenity": "pharmacy",
        "building": "yes",
        "dispensing": "yes",
        "healthcare": "pharmacy",
        "name": "Farmácia Rede Popular",
        "id": "way/991150098"
      },
      "geometry": {
        "type": "Polygon",
        "coordinates": [
          [
            [
              -47.460465,
              -23.4988987
            ],
            [
              -47.4606452,
              -23.4989927
            ],
            [
              -47.4605944,
              -23.499069
            ],
            [
              -47.4605012,
              -23.4990223
            ],
            [
              -47.4604442,
              -23.4989955
            ],
            [
              -47.4604188,
              -23.4989715
            ],
            [
              -47.4604273,
              -23.4989482
            ],
            [
              -47.460465,
              -23.4988987
            ]
          ]
        ]
      }
    },
    {
      "type": "Feature",
      "id": "way/991165257",
      "properties": {
        "timestamp": "2021-10-08T11:32:18Z",
        "version": 1,
        "changeset": 112260508,
        "addr:city": "Sorocaba",
        "addr:housenumber": "498",
        "addr:street": "Avenida Moreira César",
        "addr:suburb": "Centro",
        "amenity": "pharmacy",
        "building": "yes",
        "dispensing": "yes",
        "healthcare": "pharmacy",
        "name": "Valmari",
        "id": "way/991165257"
      },
      "geometry": {
        "type": "Polygon",
        "coordinates": [
          [
            [
              -47.4673647,
              -23.5029704
            ],
            [
              -47.4673312,
              -23.5029918
            ],
            [
              -47.4672612,
              -23.502901
            ],
            [
              -47.4672539,
              -23.502895
            ],
            [
              -47.4672809,
              -23.5028775
            ],
            [
              -47.4673647,
              -23.5029704
            ]
          ]
        ]
      }
    },
    {
      "type": "Feature",
      "id": "way/1042695717",
      "properties": {
        "timestamp": "2022-03-24T21:49:29Z",
        "version": 3,
        "changeset": 118884250,
        "amenity": "pharmacy",
        "building": "yes",
        "building:levels": "1",
        "dispensing": "yes",
        "healthcare": "pharmacy",
        "height": "4",
        "id": "way/1042695717"
      },
      "geometry": {
        "type": "Polygon",
        "coordinates": [
          [
            [
              -47.4808524,
              -23.4957589
            ],
            [
              -47.4810123,
              -23.4959081
            ],
            [
              -47.4809398,
              -23.4959768
            ],
            [
              -47.4807748,
              -23.4958288
            ],
            [
              -47.4807738,
              -23.4958264
            ],
            [
              -47.4808524,
              -23.4957589
            ]
          ]
        ]
      }
    },
    {
      "type": "Feature",
      "id": "way/1044334181",
      "properties": {
        "timestamp": "2022-03-26T19:52:55Z",
        "version": 1,
        "changeset": 118960549,
        "amenity": "pharmacy",
        "building": "yes",
        "dispensing": "yes",
        "healthcare": "pharmacy",
        "name": "Drogaria Especiale",
        "id": "way/1044334181"
      },
      "geometry": {
        "type": "Polygon",
        "coordinates": [
          [
            [
              -47.4819709,
              -23.4908478
            ],
            [
              -47.4819092,
              -23.4908921
            ],
            [
              -47.4818931,
              -23.4908736
            ],
            [
              -47.4819548,
              -23.4908269
            ],
            [
              -47.4819709,
              -23.4908478
            ]
          ]
        ]
      }
    },
    {
      "type": "Feature",
      "id": "way/1047128841",
      "properties": {
        "timestamp": "2023-09-03T23:07:50Z",
        "version": 4,
        "changeset": 140779821,
        "amenity": "pharmacy",
        "building": "retail",
        "building:levels": "1",
        "healthcare": "pharmacy",
        "id": "way/1047128841"
      },
      "geometry": {
        "type": "Polygon",
        "coordinates": [
          [
            [
              -47.468192,
              -23.4922621
            ],
            [
              -47.4683195,
              -23.4924757
            ],
            [
              -47.4683324,
              -23.4924905
            ],
            [
              -47.4681971,
              -23.4925526
            ],
            [
              -47.4680464,
              -23.4923292
            ],
            [
              -47.468192,
              -23.4922621
            ]
          ]
        ]
      }
    },
    {
      "type": "Feature",
      "id": "way/1047274647",
      "properties": {
        "timestamp": "2023-09-03T23:07:50Z",
        "version": 3,
        "changeset": 140779821,
        "amenity": "pharmacy",
        "brand": "Drogasil",
        "brand:wikidata": "Q5308185",
        "building": "yes",
        "building:levels": "1",
        "dispensing": "yes",
        "healthcare": "pharmacy",
        "name": "Drogasil",
        "wheelchair": "yes",
        "id": "way/1047274647"
      },
      "geometry": {
        "type": "Polygon",
        "coordinates": [
          [
            [
              -47.4668687,
              -23.4930344
            ],
            [
              -47.4668027,
              -23.4928992
            ],
            [
              -47.4669023,
              -23.4928526
            ],
            [
              -47.4669725,
              -23.4929521
            ],
            [
              -47.4669351,
              -23.4930102
            ],
            [
              -47.4668687,
              -23.4930344
            ]
          ]
        ]
      }
    },
    {
      "type": "Feature",
      "id": "way/1053470201",
      "properties": {
        "timestamp": "2022-04-20T23:40:31Z",
        "version": 1,
        "changeset": 119975898,
        "addr:city": "Sorocaba",
        "addr:housenumber": "312",
        "addr:postcode": "18075-042",
        "addr:street": "Avenida Itavuvu",
        "addr:suburb": "Vila Olimpia",
        "amenity": "pharmacy",
        "building": "yes",
        "dispensing": "yes",
        "drive_through": "yes",
        "healthcare": "pharmacy",
        "name": "Ultrafarma Itavuvu",
        "opening_hours": "Mo-Sa 08:00-22:00",
        "phone": "+55 15 3318-9261",
        "id": "way/1053470201"
      },
      "geometry": {
        "type": "Polygon",
        "coordinates": [
          [
            [
              -47.4726715,
              -23.4815994
            ],
            [
              -47.4725539,
              -23.4815403
            ],
            [
              -47.4726944,
              -23.4813053
            ],
            [
              -47.4728119,
              -23.4813644
            ],
            [
              -47.4726715,
              -23.4815994
            ]
          ]
        ]
      }
    },
    {
      "type": "Feature",
      "id": "way/1171232991",
      "properties": {
        "timestamp": "2023-06-22T10:39:00Z",
        "version": 4,
        "changeset": 137641810,
        "addr:city": "Sorocaba",
        "addr:housenumber": "3400",
        "addr:postcode": "18070-683",
        "addr:street": "Rua Romão Fernandes",
        "addr:suburb": "Vila Helena",
        "amenity": "pharmacy",
        "brand": "Drogaria São Paulo",
        "brand:wikidata": "Q5308184",
        "building": "yes",
        "healthcare": "pharmacy",
        "name": "Drogaria São Paulo",
        "opening_hours": "Mo-Sa 08:00-22:00",
        "phone": "+55 11 3274-7400",
        "website": "https://www.drogariasaopaulo.com.br",
        "wheelchair": "yes",
        "id": "way/1171232991"
      },
      "geometry": {
        "type": "Polygon",
        "coordinates": [
          [
            [
              -47.4937686,
              -23.4668394
            ],
            [
              -47.4939591,
              -23.4669954
            ],
            [
              -47.4938979,
              -23.467062
            ],
            [
              -47.4936983,
              -23.4669122
            ],
            [
              -47.4937686,
              -23.4668394
            ]
          ]
        ]
      }
    },
    {
      "type": "Feature",
      "id": "way/1172527567",
      "properties": {
        "timestamp": "2023-11-10T21:07:51Z",
        "version": 6,
        "changeset": 143879701,
        "addr:city": "Sorocaba",
        "addr:housenumber": "1071",
        "addr:postcode": "18072-045",
        "addr:street": "Avenida Vinicius de Moraes",
        "addr:suburb": "São Bento",
        "amenity": "pharmacy",
        "building": "yes",
        "healthcare": "pharmacy",
        "name": "Drogaria São Bento",
        "opening_hours": "Mo-Fr 07:30-21:00; Sa,Su 08:00-21:00; PH 08:00-13:00",
        "wheelchair": "yes",
        "id": "way/1172527567"
      },
      "geometry": {
        "type": "Polygon",
        "coordinates": [
          [
            [
              -47.5063584,
              -23.4352824
            ],
            [
              -47.5063119,
              -23.4354298
            ],
            [
              -47.5062523,
              -23.4354137
            ],
            [
              -47.5062463,
              -23.4353415
            ],
            [
              -47.5062506,
              -23.4352631
            ],
            [
              -47.5063083,
              -23.4352696
            ],
            [
              -47.5063584,
              -23.4352824
            ]
          ]
        ]
      }
    },
    {
      "type": "Feature",
      "id": "way/1172714984",
      "properties": {
        "timestamp": "2023-05-19T14:02:30Z",
        "version": 2,
        "changeset": 136302155,
        "addr:city": "Sorocaba",
        "addr:postcode": "18072-045",
        "addr:street": "Avenida Vinicius de Moraes",
        "addr:suburb": "São Bento",
        "amenity": "pharmacy",
        "building": "yes",
        "healthcare": "pharmacy",
        "name": "FarmaVem",
        "wikidata": "Q13107184",
        "wikipedia": "pt:Farmácia (estabelecimento)",
        "id": "way/1172714984"
      },
      "geometry": {
        "type": "Polygon",
        "coordinates": [
          [
            [
              -47.5070347,
              -23.4329621
            ],
            [
              -47.506932,
              -23.4329394
            ],
            [
              -47.5069814,
              -23.4327518
            ],
            [
              -47.5070842,
              -23.4327746
            ],
            [
              -47.5070347,
              -23.4329621
            ]
          ]
        ]
      }
    },
    {
      "type": "Feature",
      "id": "way/1176482977",
      "properties": {
        "timestamp": "2023-12-16T01:01:48Z",
        "version": 2,
        "changeset": 145170926,
        "addr:street": "Avenida Vinicius de Moraes",
        "amenity": "pharmacy",
        "building": "yes",
        "healthcare": "pharmacy",
        "name": "Drogaria Total",
        "source": "microsoft/BuildingFootprints",
        "id": "way/1176482977"
      },
      "geometry": {
        "type": "Polygon",
        "coordinates": [
          [
            [
              -47.5066482,
              -23.4339118
            ],
            [
              -47.5068215,
              -23.4339481
            ],
            [
              -47.5067752,
              -23.434134
            ],
            [
              -47.506602,
              -23.4340978
            ],
            [
              -47.5066482,
              -23.4339118
            ]
          ]
        ]
      }
    },
    {
      "type": "Feature",
      "id": "way/1201517970",
      "properties": {
        "timestamp": "2023-09-03T23:07:50Z",
        "version": 2,
        "changeset": 140779821,
        "amenity": "pharmacy",
        "building": "yes",
        "building:levels": "1",
        "healthcare": "pharmacy",
        "height": "3",
        "name": "Farmácia Popular",
        "id": "way/1201517970"
      },
      "geometry": {
        "type": "Polygon",
        "coordinates": [
          [
            [
              -47.4703825,
              -23.4531669
            ],
            [
              -47.4703832,
              -23.4531693
            ],
            [
              -47.4703527,
              -23.4532296
            ],
            [
              -47.4702101,
              -23.4531688
            ],
            [
              -47.4702416,
              -23.4531067
            ],
            [
              -47.4703825,
              -23.4531669
            ]
          ]
        ]
      }
    },
    {
      "type": "Feature",
      "id": "way/1201520689",
      "properties": {
        "timestamp": "2023-12-10T23:00:24Z",
        "version": 3,
        "changeset": 144979989,
        "addr:housenumber": "2080",
        "addr:street": "Avenida Ipanema",
        "amenity": "pharmacy",
        "building": "commercial",
        "healthcare": "pharmacy",
        "mapillary": "275605318749308",
        "name": "Farmamed",
        "opening_hours": "24/7",
        "website": "https://www.institucional.farmamed.com.br",
        "id": "way/1201520689"
      },
      "geometry": {
        "type": "Polygon",
        "coordinates": [
          [
            [
              -47.4853159,
              -23.4761546
            ],
            [
              -47.4855153,
              -23.4763168
            ],
            [
              -47.4854242,
              -23.4764161
            ],
            [
              -47.4853755,
              -23.4764277
            ],
            [
              -47.4852167,
              -23.4762605
            ],
            [
              -47.485303,
              -23.4761623
            ],
            [
              -47.4853159,
              -23.4761546
            ]
          ]
        ]
      }
    },
    {
      "type": "Feature",
      "id": "way/1203127126",
      "properties": {
        "timestamp": "2023-09-05T02:02:39Z",
        "version": 2,
        "changeset": 140828071,
        "amenity": "pharmacy",
        "brand": "Drogasil",
        "brand:wikidata": "Q5308185",
        "building": "yes",
        "healthcare": "pharmacy",
        "name": "Drogasil",
        "wheelchair": "yes",
        "id": "way/1203127126"
      },
      "geometry": {
        "type": "Polygon",
        "coordinates": [
          [
            [
              -47.4364605,
              -23.5104376
            ],
            [
              -47.4363546,
              -23.5104733
            ],
            [
              -47.4362819,
              -23.5102984
            ],
            [
              -47.4363661,
              -23.5102528
            ],
            [
              -47.4364605,
              -23.5104376
            ]
          ]
        ]
      }
    },
    {
      "type": "Feature",
      "id": "way/1205216232",
      "properties": {
        "timestamp": "2023-09-05T13:37:41Z",
        "version": 1,
        "changeset": 140851026,
        "amenity": "pharmacy",
        "building": "yes",
        "healthcare": "pharmacy",
        "height": "6",
        "id": "way/1205216232"
      },
      "geometry": {
        "type": "Polygon",
        "coordinates": [
          [
            [
              -47.5013077,
              -23.5280332
            ],
            [
              -47.5013571,
              -23.5281101
            ],
            [
              -47.501262,
              -23.5281615
            ],
            [
              -47.5012126,
              -23.5280846
            ],
            [
              -47.5013077,
              -23.5280332
            ]
          ]
        ]
      }
    },
    {
      "type": "Feature",
      "id": "way/1209044571",
      "properties": {
        "timestamp": "2023-09-19T11:18:53Z",
        "version": 1,
        "changeset": 141464202,
        "addr:housenumber": "153",
        "addr:street": "Estrada Dinorah Rosa",
        "amenity": "pharmacy",
        "brand": "Drogasil",
        "brand:wikidata": "Q5308185",
        "building": "yes",
        "healthcare": "pharmacy",
        "name": "Drogasil",
        "wheelchair": "yes",
        "id": "way/1209044571"
      },
      "geometry": {
        "type": "Polygon",
        "coordinates": [
          [
            [
              -47.5049519,
              -23.4478474
            ],
            [
              -47.5051073,
              -23.447868
            ],
            [
              -47.5051018,
              -23.4479027
            ],
            [
              -47.5049572,
              -23.4480105
            ],
            [
              -47.5049255,
              -23.4480146
            ],
            [
              -47.5049519,
              -23.4478474
            ]
          ]
        ]
      }
    },
    {
      "type": "Feature",
      "id": "way/1214139550",
      "properties": {
        "timestamp": "2023-11-28T22:14:17Z",
        "version": 2,
        "changeset": 144566912,
        "addr:housenumber": "432",
        "addr:street": "Avenida Edward Fru-Fru Marciano da Silva",
        "amenity": "pharmacy",
        "building": "yes",
        "healthcare": "pharmacy",
        "name": "Farmamed",
        "id": "way/1214139550"
      },
      "geometry": {
        "type": "Polygon",
        "coordinates": [
          [
            [
              -47.4875607,
              -23.4511924
            ],
            [
              -47.4875315,
              -23.4511602
            ],
            [
              -47.4874921,
              -23.4511335
            ],
            [
              -47.4875906,
              -23.4510585
            ],
            [
              -47.4876501,
              -23.4511244
            ],
            [
              -47.4875607,
              -23.4511924
            ]
          ]
        ]
      }
    },
    {
      "type": "Feature",
      "id": "way/1214509378",
      "properties": {
        "timestamp": "2023-12-20T15:39:24Z",
        "version": 3,
        "changeset": 145336688,
        "addr:housenumber": "537",
        "addr:street": "Avenida Edward Fru-Fru Marciano da Silva",
        "amenity": "pharmacy",
        "building": "yes",
        "healthcare": "pharmacy",
        "name": "Drogaria Popular",
        "id": "way/1214509378"
      },
      "geometry": {
        "type": "Polygon",
        "coordinates": [
          [
            [
              -47.4885622,
              -23.4510075
            ],
            [
              -47.4884603,
              -23.4509038
            ],
            [
              -47.4885566,
              -23.4508241
            ],
            [
              -47.4885899,
              -23.450858
            ],
            [
              -47.4885777,
              -23.4508681
            ],
            [
              -47.4886059,
              -23.4508969
            ],
            [
              -47.4885735,
              -23.4509236
            ],
            [
              -47.4886139,
              -23.4509647
            ],
            [
              -47.4885622,
              -23.4510075
            ]
          ]
        ]
      }
    },
    {
      "type": "Feature",
      "id": "way/1234587772",
      "properties": {
        "timestamp": "2024-04-01T03:30:42Z",
        "version": 2,
        "changeset": 149414472,
        "addr:city": "Sorocaba",
        "addr:housenumber": "48",
        "addr:postcode": "18075-042",
        "addr:street": "Avenida Itavuvu",
        "addr:suburb": "Jardim Santa Cecília",
        "amenity": "pharmacy",
        "building": "yes",
        "dispensing": "yes",
        "healthcare": "psychotherapist;pharmacy",
        "name": "Biothera Farmácia de Manipulação",
        "opening_hours": "Mo-Fr 08:00-19:00; Sa 08:00-13:00",
        "phone": "+55 15 3211-4114",
        "id": "way/1234587772"
      },
      "geometry": {
        "type": "Polygon",
        "coordinates": [
          [
            [
              -47.4715301,
              -23.4835765
            ],
            [
              -47.4713423,
              -23.483488
            ],
            [
              -47.4713788,
              -23.483423
            ],
            [
              -47.4715665,
              -23.4835115
            ],
            [
              -47.4715301,
              -23.4835765
            ]
          ]
        ]
      }
    },
    {
      "type": "Feature",
      "id": "way/1264801084",
      "properties": {
        "timestamp": "2024-03-21T13:16:20Z",
        "version": 1,
        "changeset": 148963090,
        "amenity": "pharmacy",
        "brand": "Drogasil",
        "brand:wikidata": "Q5308185",
        "building": "yes",
        "healthcare": "pharmacy",
        "name": "Drogasil",
        "wheelchair": "yes",
        "id": "way/1264801084"
      },
      "geometry": {
        "type": "Polygon",
        "coordinates": [
          [
            [
              -47.4905396,
              -23.528767
            ],
            [
              -47.4905113,
              -23.5289136
            ],
            [
              -47.4902784,
              -23.5288688
            ],
            [
              -47.4903053,
              -23.5287468
            ],
            [
              -47.4903159,
              -23.5287371
            ],
            [
              -47.4903428,
              -23.5287352
            ],
            [
              -47.4903562,
              -23.5287371
            ],
            [
              -47.4905396,
              -23.528767
            ]
          ]
        ]
      }
    },
    {
      "type": "Feature",
      "id": "node/2213998923",
      "properties": {
        "timestamp": "2022-12-23T02:33:05Z",
        "version": 2,
        "changeset": 130398621,
        "amenity": "pharmacy",
        "healthcare": "pharmacy",
        "id": "node/2213998923"
      },
      "geometry": {
        "type": "Point",
        "coordinates": [
          -47.4166864,
          -23.4199307
        ]
      }
    },
    {
      "type": "Feature",
      "id": "node/2214016434",
      "properties": {
        "timestamp": "2022-09-26T14:44:57Z",
        "version": 2,
        "changeset": 126659980,
        "amenity": "pharmacy",
        "healthcare": "pharmacy",
        "id": "node/2214016434"
      },
      "geometry": {
        "type": "Point",
        "coordinates": [
          -47.4128938,
          -23.4228448
        ]
      }
    },
    {
      "type": "Feature",
      "id": "node/2214016441",
      "properties": {
        "timestamp": "2022-09-26T14:44:57Z",
        "version": 2,
        "changeset": 126659980,
        "amenity": "pharmacy",
        "healthcare": "pharmacy",
        "id": "node/2214016441"
      },
      "geometry": {
        "type": "Point",
        "coordinates": [
          -47.4126202,
          -23.423086
        ]
      }
    },
    {
      "type": "Feature",
      "id": "node/2214016453",
      "properties": {
        "timestamp": "2022-12-23T02:33:05Z",
        "version": 2,
        "changeset": 130398621,
        "amenity": "pharmacy",
        "healthcare": "pharmacy",
        "id": "node/2214016453"
      },
      "geometry": {
        "type": "Point",
        "coordinates": [
          -47.4142832,
          -23.4185573
        ]
      }
    },
    {
      "type": "Feature",
      "id": "node/8395907869",
      "properties": {
        "timestamp": "2021-03-04T04:29:06Z",
        "version": 4,
        "changeset": 100385933,
        "amenity": "pharmacy",
        "dispensing": "yes",
        "healthcare": "pharmacy",
        "name": "Drogaria Extra Santa Rosália",
        "operator": "GPA - Grupo Pão de Açucar",
        "id": "node/8395907869"
      },
      "geometry": {
        "type": "Point",
        "coordinates": [
          -47.4445206,
          -23.4898832
        ]
      }
    },
    {
      "type": "Feature",
      "id": "node/8395907876",
      "properties": {
        "timestamp": "2021-02-09T04:42:14Z",
        "version": 2,
        "changeset": 98943936,
        "amenity": "pharmacy",
        "dispensing": "yes",
        "healthcare": "pharmacy",
        "name": "Drogaria Carrefour",
        "operator": "Carrefour",
        "id": "node/8395907876"
      },
      "geometry": {
        "type": "Point",
        "coordinates": [
          -47.4711629,
          -23.4865274
        ]
      }
    },
    {
      "type": "Feature",
      "id": "node/8432260033",
      "properties": {
        "timestamp": "2021-02-17T15:42:01Z",
        "version": 1,
        "changeset": 99463113,
        "addr:city": "Sorocaba",
        "addr:suburb": "Centro",
        "amenity": "pharmacy",
        "dispensing": "yes",
        "healthcare": "pharmacy",
        "name": "Farmácia Newman",
        "opening_hours": "Mo-Sa 10:00-21:00; Su 10:00-20:00",
        "phone": "+55 15 3224-3851;+55 15 97402-2876",
        "id": "node/8432260033"
      },
      "geometry": {
        "type": "Point",
        "coordinates": [
          -47.4549812,
          -23.4973583
        ]
      }
    },
    {
      "type": "Feature",
      "id": "node/8446284400",
      "properties": {
        "timestamp": "2021-02-22T16:17:13Z",
        "version": 1,
        "changeset": 99759027,
        "amenity": "pharmacy",
        "dispensing": "yes",
        "healthcare": "pharmacy",
        "name": "Drogaria e Perfumaria Distrital",
        "opening_hours": "Tu-Sa 08:00-19:00; Su 07:00-12:00",
        "payment:caixatem": "yes",
        "payment:cash": "yes",
        "payment:credit_cards": "yes",
        "payment:debit_cards": "yes",
        "phone": "+55 15 3231-0777;+55 15 3231-7797;+55 15 98150-0124",
        "id": "node/8446284400"
      },
      "geometry": {
        "type": "Point",
        "coordinates": [
          -47.4608496,
          -23.4800155
        ]
      }
    },
    {
      "type": "Feature",
      "id": "node/8451531971",
      "properties": {
        "timestamp": "2021-02-28T15:49:19Z",
        "version": 3,
        "changeset": 100143172,
        "amenity": "pharmacy",
        "dispensing": "yes",
        "healthcare": "pharmacy",
        "level": "1",
        "name": "Farmamed Drogaria",
        "id": "node/8451531971"
      },
      "geometry": {
        "type": "Point",
        "coordinates": [
          -47.4551042,
          -23.4788447
        ]
      }
    },
    {
      "type": "Feature",
      "id": "node/8515661655",
      "properties": {
        "timestamp": "2021-03-14T01:08:19Z",
        "version": 1,
        "changeset": 100974810,
        "addr:city": "Sorocaba",
        "addr:street": "Avenida General Carneiro",
        "amenity": "pharmacy",
        "dispensing": "yes",
        "healthcare": "pharmacy",
        "name": "Drogaria Santa Terezinha",
        "phone": "+55 15 3321-2553;+55 15 3217-1566",
        "id": "node/8515661655"
      },
      "geometry": {
        "type": "Point",
        "coordinates": [
          -47.4843025,
          -23.5074693
        ]
      }
    },
    {
      "type": "Feature",
      "id": "node/9852352092",
      "properties": {
        "timestamp": "2022-06-28T06:10:52Z",
        "version": 1,
        "changeset": 122938459,
        "amenity": "pharmacy",
        "dispensing": "yes",
        "healthcare": "pharmacy",
        "name": "Ultrafarma Popular Avenida São Paulo",
        "id": "node/9852352092"
      },
      "geometry": {
        "type": "Point",
        "coordinates": [
          -47.4409885,
          -23.4973923
        ]
      }
    },
    {
      "type": "Feature",
      "id": "node/11309374236",
      "properties": {
        "timestamp": "2023-12-11T23:09:33Z",
        "version": 2,
        "changeset": 145017291,
        "addr:housenumber": "1470",
        "addr:street": "Estrada Dinorah Rosa",
        "amenity": "pharmacy",
        "healthcare": "pharmacy",
        "name": "Farma Ponte",
        "id": "node/11309374236"
      },
      "geometry": {
        "type": "Point",
        "coordinates": [
          -47.504271,
          -23.4483761
        ]
      }
    },
    {
      "type": "Feature",
      "id": "node/11420233963",
      "properties": {
        "timestamp": "2023-12-15T13:01:15Z",
        "version": 1,
        "changeset": 145150026,
        "addr:city": "Sorocaba",
        "addr:housenumber": "1111",
        "addr:postcode": "18080-410",
        "addr:street": "Avenida José Joaquim de Lacerda",
        "addr:suburb": "Jardim Sorocabano",
        "amenity": "pharmacy",
        "dispensing": "yes",
        "drive_through": "no",
        "healthcare": "pharmacy",
        "name": "Coop Drogaria",
        "opening_hours": "Mo-Su 07:00-23:00",
        "phone": "+55 0800 772 2667",
        "website": "https://www.coopdrogaria.com.br/",
        "id": "node/11420233963"
      },
      "geometry": {
        "type": "Point",
        "coordinates": [
          -47.458289,
          -23.4807244
        ]
      }
    },
    {
      "type": "Feature",
      "id": "node/11435238369",
      "properties": {
        "timestamp": "2023-12-20T15:57:07Z",
        "version": 1,
        "changeset": 145337421,
        "addr:street": "Avenida Antonio Silva Saladino",
        "amenity": "pharmacy",
        "name": "Drogaria Total",
        "id": "node/11435238369"
      },
      "geometry": {
        "type": "Point",
        "coordinates": [
          -47.4681132,
          -23.4357545
        ]
      }
    }
  ]
}
