{
  "type": "FeatureCollection",
  "features": [
    {
      "type": "Feature",
      "id": "way/681510694",
      "properties": {
        "timestamp": "2019-08-05T01:56:48Z",
        "version": 2,
        "changeset": 73002200,
        "addr:city": "Rio do Oeste",
        "addr:postcode": "89180-000",
        "addr:street": "Rua Abílio Eleutério Gonçalves",
        "addr:suburb": "Gabiroba",
        "amenity": "arts_centre",
        "building": "yes",
        "contact:phone": "+55 47 3543-0795",
        "contact:website": "https://www.riodooeste.sc.gov.br/",
        "name": "Centro Cultural de Rio do Oeste",
        "id": "way/681510694"
      },
      "geometry": {
        "type": "Polygon",
        "coordinates": [
          [
            [
              -49.7985628,
              -27.195611
            ],
            [
              -49.7986085,
              -27.195713
            ],
            [
              -49.798424,
              -27.1957783
            ],
            [
              -49.7983899,
              -27.1957021
            ],
            [
              -49.7984636,
              -27.195676
            ],
            [
              -49.7984521,
              -27.1956502
            ],
            [
              -49.7985628,
              -27.195611
            ]
          ]
        ]
      }
    },
    {
      "type": "Feature",
      "id": "node/6384322291",
      "properties": {
        "timestamp": "2019-04-04T20:36:10Z",
        "version": 1,
        "changeset": 68898803,
        "addr:city": "Rio do Oeste",
        "addr:postcode": "89180-000",
        "addr:street": "Rua Paulo Sardagna",
        "amenity": "arts_centre",
        "name": "Cia Arte Show",
        "id": "node/6384322291"
      },
      "geometry": {
        "type": "Point",
        "coordinates": [
          -49.7960609,
          -27.1959557
        ]
      }
    }
  ]
}
