{
  "type": "FeatureCollection",
  "features": [
    {
      "type": "Feature",
      "id": "way/1038097912",
      "properties": {
        "timestamp": "2022-03-07T22:02:09Z",
        "version": 1,
        "changeset": 118214448,
        "addr:city": "Juarina",
        "addr:postcode": "77753-000",
        "addr:street": "Rua Orlando Mendon√ßa",
        "addr:suburb": "Centro",
        "amenity": "school",
        "name": "Centro Municipal De Educacao Infantil Joao Batista De Jesus Ribeiro",
        "id": "way/1038097912"
      },
      "geometry": {
        "type": "Polygon",
        "coordinates": [
          [
            [
              -49.0973135,
              -8.1186114
            ],
            [
              -49.0975921,
              -8.1191686
            ],
            [
              -49.0970943,
              -8.1194205
            ],
            [
              -49.0968231,
              -8.1188578
            ],
            [
              -49.0973135,
              -8.1186114
            ]
          ]
        ]
      }
    },
    {
      "type": "Feature",
      "id": "way/1038097916",
      "properties": {
        "timestamp": "2022-03-07T22:05:22Z",
        "version": 2,
        "changeset": 118214554,
        "addr:city": "Juarina",
        "addr:postcode": "77753-000",
        "addr:street": "Rua Petronio Portela Nunes",
        "addr:suburb": "Centro",
        "amenity": "school",
        "name": "Colegio Estadual Zico Dorneles",
        "phone": "+55 63 3434 1166",
        "id": "way/1038097916"
      },
      "geometry": {
        "type": "Polygon",
        "coordinates": [
          [
            [
              -49.0933255,
              -8.1183567
            ],
            [
              -49.0938101,
              -8.1192856
            ],
            [
              -49.0933068,
              -8.1195593
            ],
            [
              -49.0929465,
              -8.1188427
            ],
            [
              -49.0930117,
              -8.1185167
            ],
            [
              -49.0933255,
              -8.1183567
            ]
          ]
        ]
      }
    },
    {
      "type": "Feature",
      "id": "way/1038098048",
      "properties": {
        "timestamp": "2022-03-07T22:03:19Z",
        "version": 1,
        "changeset": 118214490,
        "addr:city": "Juarina",
        "addr:postcode": "77753-000",
        "addr:street": "Avenida JK",
        "addr:suburb": "Centro",
        "amenity": "school",
        "name": "Esc Mul Pingo De Gente",
        "phone": "+55 63 3434 1223",
        "id": "way/1038098048"
      },
      "geometry": {
        "type": "Polygon",
        "coordinates": [
          [
            [
              -49.0972419,
              -8.1214749
            ],
            [
              -49.0975852,
              -8.1221759
            ],
            [
              -49.0975638,
              -8.122229
            ],
            [
              -49.0970649,
              -8.1223086
            ],
            [
              -49.0967591,
              -8.1216926
            ],
            [
              -49.0972419,
              -8.1214749
            ]
          ]
        ]
      }
    }
  ]
}
