{
  "type": "FeatureCollection",
  "features": [
    {
      "type": "Feature",
      "id": "node/4562771690",
      "properties": {
        "timestamp": "2022-06-29T21:14:01Z",
        "version": 2,
        "changeset": 123020190,
        "addr:housenumber": "4069",
        "addr:postcode": "78905-230",
        "addr:street": "Avenida Calama",
        "email": "edysilva3@hotmail.com",
        "name": "Duas rodas bicicletaria pvh",
        "name:pt": "Duas rodas bicicletaria pvh",
        "opening_hours": "Mo-Fr; Sa-Su 10:00-12:00",
        "phone": "+55 69 3026 7313",
        "shop": "bicycle",
        "id": "node/4562771690"
      },
      "geometry": {
        "type": "Point",
        "coordinates": [
          -63.8794212,
          -8.747252
        ]
      }
    },
    {
      "type": "Feature",
      "id": "node/5830193786",
      "properties": {
        "timestamp": "2018-08-13T17:12:39Z",
        "version": 1,
        "changeset": 61633188,
        "shop": "bicycle",
        "id": "node/5830193786"
      },
      "geometry": {
        "type": "Point",
        "coordinates": [
          -63.9037622,
          -8.7426799
        ]
      }
    }
  ]
}
