{
  "type": "FeatureCollection",
  "features": [
    {
      "type": "Feature",
      "id": "node/4203649191",
      "properties": {
        "timestamp": "2025-02-17T22:47:15Z",
        "version": 4,
        "changeset": 162638453,
        "addr:housenumber": "1947",
        "addr:street": "Rua Marechal Deodoro",
        "amenity": "clinic",
        "check_date": "2025-02-17",
        "fixme": "precisa de ddd 30261661",
        "healthcare": "clinic",
        "internet_access": "wlan",
        "name": "Hospital Prontocordis e Ocular Cirurgia e Diagnóstico",
        "opening_hours": "24/7",
        "id": "node/4203649191"
      },
      "geometry": {
        "type": "Point",
        "coordinates": [
          -63.8987425,
          -8.7646729
        ]
      }
    },
    {
      "type": "Feature",
      "id": "node/5270022121",
      "properties": {
        "timestamp": "2022-06-29T20:49:22Z",
        "version": 3,
        "changeset": 123019519,
        "addr:housenumber": "1850",
        "addr:postcode": "76804-076",
        "addr:street": "Rua Quentino Bocaiúva",
        "amenity": "clinic",
        "healthcare": "clinic",
        "name": "Cardiocenter",
        "phone": "+55 69 3223 0044",
        "id": "node/5270022121"
      },
      "geometry": {
        "type": "Point",
        "coordinates": [
          -63.8968799,
          -8.75676
        ]
      }
    },
    {
      "type": "Feature",
      "id": "node/8938964617",
      "properties": {
        "timestamp": "2022-06-29T21:07:30Z",
        "version": 2,
        "changeset": 123020020,
        "addr:housenumber": "1060",
        "addr:postcode": "76801-492",
        "addr:street": "Rua Padre Chiquinho",
        "amenity": "clinic",
        "healthcare": "clinic",
        "name": "Policlínica Ana Adelaide",
        "phone": "+55 69 3224 2834",
        "id": "node/8938964617"
      },
      "geometry": {
        "type": "Point",
        "coordinates": [
          -63.9060011,
          -8.7480769
        ]
      }
    }
  ]
}
