{
  "type": "FeatureCollection",
  "features": [
    {
      "type": "Feature",
      "id": "way/479574145",
      "properties": {
        "timestamp": "2017-03-09T19:05:24Z",
        "version": 1,
        "changeset": 46718920,
        "amenity": "hospital",
        "id": "way/479574145"
      },
      "geometry": {
        "type": "Polygon",
        "coordinates": [
          [
            [
              -64.5312586,
              -9.7074697
            ],
            [
              -64.5311113,
              -9.707184
            ],
            [
              -64.5312305,
              -9.7071243
            ],
            [
              -64.5313778,
              -9.70741
            ],
            [
              -64.5312586,
              -9.7074697
            ]
          ]
        ]
      }
    },
    {
      "type": "Feature",
      "id": "node/4323076791",
      "properties": {
        "timestamp": "2022-06-29T20:59:37Z",
        "version": 3,
        "changeset": 123019825,
        "addr:housenumber": "5843",
        "addr:postcode": "76805-696",
        "addr:street": "Estrada de Santo Antônio, 5843 - Bairro Triângulo, Porto Velho - RO",
        "amenity": "hospital",
        "healthcare": "hospital",
        "name": "Instituto de Oncologia e Radioterapia São Pellegrino",
        "opening_hours": "Mo-Su 08:00-22:00",
        "phone": "+55 69 3224 6077",
        "website": "http://www.saopellegrino.com.br",
        "id": "node/4323076791"
      },
      "geometry": {
        "type": "Point",
        "coordinates": [
          -63.905417,
          -8.7799026
        ]
      }
    },
    {
      "type": "Feature",
      "id": "node/5551151021",
      "properties": {
        "timestamp": "2018-04-13T20:31:07Z",
        "version": 1,
        "changeset": 58075617,
        "amenity": "hospital",
        "name": "cementron",
        "id": "node/5551151021"
      },
      "geometry": {
        "type": "Point",
        "coordinates": [
          -63.8563675,
          -8.7831956
        ]
      }
    },
    {
      "type": "Feature",
      "id": "node/6297674597",
      "properties": {
        "timestamp": "2019-08-13T06:01:28Z",
        "version": 2,
        "changeset": 73291231,
        "amenity": "hospital",
        "healthcare": "hospital",
        "name": "Hospital de Guarnição de Porto Velho",
        "id": "node/6297674597"
      },
      "geometry": {
        "type": "Point",
        "coordinates": [
          -63.9100108,
          -8.7632114
        ]
      }
    },
    {
      "type": "Feature",
      "id": "node/6302123437",
      "properties": {
        "timestamp": "2023-05-06T00:40:33Z",
        "version": 3,
        "changeset": 135760329,
        "addr:postcode": "76834-899",
        "addr:street": "Rodovia BR-364 km 15",
        "addr:suburb": "Zona Rural",
        "amenity": "hospital",
        "email": "hcancer@hcancerbarretos.com.br",
        "healthcare": "hospital",
        "name": "Hospital de Amor Amazônia",
        "ref:CNES": "7068336",
        "ref:vatin": "BR49150352001607",
        "id": "node/6302123437"
      },
      "geometry": {
        "type": "Point",
        "coordinates": [
          -63.7497749,
          -8.8022748
        ]
      }
    },
    {
      "type": "Feature",
      "id": "node/8883248100",
      "properties": {
        "timestamp": "2021-07-01T15:00:02Z",
        "version": 1,
        "changeset": 107266205,
        "addr:city": "Porto Velho",
        "addr:housenumber": "1940-A",
        "addr:postcode": "76804114",
        "addr:street": "Rua Getúlio Vargas",
        "addr:suburb": "Nossa Senhora das Graças",
        "amenity": "hospital",
        "description": "Clinica Odontologica moderna para melhor atender nossos pacientes.",
        "healthcare": "hospital",
        "healthcare:speciality": "dentist;orthodontics;general",
        "name": "Clinica Ortho & Implante",
        "operator": "Sherman Augusto",
        "operator:type": "private",
        "id": "node/8883248100"
      },
      "geometry": {
        "type": "Point",
        "coordinates": [
          -63.8949244,
          -8.7623546
        ]
      }
    },
    {
      "type": "Feature",
      "id": "node/9951606114",
      "properties": {
        "timestamp": "2022-08-13T22:17:09Z",
        "version": 1,
        "changeset": 124869054,
        "amenity": "hospital",
        "healthcare": "hospital",
        "name": "POSTO DE SAÚDE CUJUBIM GRANDE",
        "id": "node/9951606114"
      },
      "geometry": {
        "type": "Point",
        "coordinates": [
          -63.7305931,
          -8.5842429
        ]
      }
    },
    {
      "type": "Feature",
      "id": "node/9951631534",
      "properties": {
        "timestamp": "2022-08-13T22:02:57Z",
        "version": 1,
        "changeset": 124868829,
        "addr:city": "PORTO VELHO",
        "addr:housenumber": "SN",
        "addr:postcode": "76824052",
        "addr:street": "ESTRADA DA PENAL",
        "addr:suburb": "RAMAL CUJUBIM GRANDE",
        "amenity": "hospital",
        "healthcare": "hospital",
        "healthcare:speciality": "general;family_medicine",
        "name": "Unidade de Saúde da Família José Gomes Ferreira",
        "id": "node/9951631534"
      },
      "geometry": {
        "type": "Point",
        "coordinates": [
          -63.7307257,
          -8.5839452
        ]
      }
    },
    {
      "type": "Feature",
      "id": "node/10193020740",
      "properties": {
        "timestamp": "2022-11-16T19:38:47Z",
        "version": 1,
        "changeset": 129008382,
        "addr:city": "Porto Velho",
        "addr:housenumber": "241",
        "addr:postcode": "76811678",
        "addr:street": "Rua das Ararás",
        "addr:suburb": "Eldorado",
        "amenity": "hospital",
        "healthcare": "hospital",
        "healthcare:speciality": "faculdade_de_medicina",
        "name": "Hospital de Habilidades Simuladas - Grupo Aparício Carvalho",
        "id": "node/10193020740"
      },
      "geometry": {
        "type": "Point",
        "coordinates": [
          -63.8636585,
          -8.7892606
        ]
      }
    },
    {
      "type": "Feature",
      "id": "node/10862373484",
      "properties": {
        "timestamp": "2023-05-06T00:40:33Z",
        "version": 2,
        "changeset": 135760329,
        "addr:city": "Porto Velho",
        "addr:housenumber": "4295",
        "addr:postcode": "76807-005",
        "addr:street": "Avenida Campos Sales",
        "addr:suburb": "Floresta",
        "amenity": "hospital",
        "email": "fat@psjp.ro.gov.br",
        "emergency": "yes",
        "fax": "+55 69 3216 5492",
        "healthcare": "hospital",
        "name": "Hospital João Paulo II Porto Velho",
        "operator:ref:vatin": "BR04287520000188",
        "phone": "+55 69 3216 5492",
        "ref:CNES": "2493888",
        "ref:vatin": "BR04287520000340",
        "id": "node/10862373484"
      },
      "geometry": {
        "type": "Point",
        "coordinates": [
          -63.8957459,
          -8.7895812
        ]
      }
    }
  ]
}
