{
  "type": "FeatureCollection",
  "features": [
    {
      "type": "Feature",
      "id": "node/3056597823",
      "properties": {
        "timestamp": "2014-09-03T00:07:53Z",
        "version": 1,
        "changeset": 25194629,
        "amenity": "kindergarten",
        "id": "node/3056597823"
      },
      "geometry": {
        "type": "Point",
        "coordinates": [
          -40.1947345,
          -19.583549
        ]
      }
    },
    {
      "type": "Feature",
      "id": "node/3460744558",
      "properties": {
        "timestamp": "2019-07-11T17:33:19Z",
        "version": 2,
        "changeset": 72146221,
        "IJSN:administra": "Municipal",
        "IJSN:classeCnae": "Infantil",
        "addr:city": "Aracruz",
        "addr:housenumber": "1950",
        "addr:place": "Barra do Riacho",
        "addr:postcode": "29194-000",
        "addr:street": "Rua Luís Cariacica Santos",
        "alt_name": "Centro Municipal de Educação Infantil",
        "amenity": "kindergarten",
        "contact:phone": "+55 27 3296-9021",
        "name": "CMEI Amália Coutinho",
        "short_name": "CMEI",
        "id": "node/3460744558"
      },
      "geometry": {
        "type": "Point",
        "coordinates": [
          -40.0614538,
          -19.825458
        ]
      }
    }
  ]
}
