{
  "type": "FeatureCollection",
  "features": [
    {
      "type": "Feature",
      "id": "way/274866784",
      "properties": {
        "timestamp": "2024-01-11T13:59:27Z",
        "version": 2,
        "changeset": 146144457,
        "addr:city": "Rio Novo do Sul",
        "addr:housenumber": "251",
        "addr:postcode": "29290-000",
        "addr:street": "Rua Alexandre Costa Peçanha",
        "addr:suburb": "São José",
        "amenity": "school",
        "name": "Instituto Educacional João e Maria",
        "id": "way/274866784"
      },
      "geometry": {
        "type": "Polygon",
        "coordinates": [
          [
            [
              -40.944296,
              -20.8695351
            ],
            [
              -40.9441373,
              -20.8696699
            ],
            [
              -40.9438778,
              -20.8695037
            ],
            [
              -40.9441133,
              -20.8693195
            ],
            [
              -40.944296,
              -20.8695351
            ]
          ]
        ]
      }
    },
    {
      "type": "Feature",
      "id": "way/274866785",
      "properties": {
        "timestamp": "2024-01-11T13:59:27Z",
        "version": 3,
        "changeset": 146144457,
        "addr:city": "Rio Novo do Sul",
        "addr:housenumber": "05",
        "addr:postcode": "29290-000",
        "addr:street": "Rua Alexandre Costa Peçanha",
        "addr:suburb": "São José",
        "amenity": "school",
        "name": "Escola Municipal de Ensino Infantil e Fundamental Vital Lucas",
        "operator": "Município de Rio Novo do Sul",
        "operator:type": "public",
        "id": "way/274866785"
      },
      "geometry": {
        "type": "Polygon",
        "coordinates": [
          [
            [
              -40.942945,
              -20.8684554
            ],
            [
              -40.9424739,
              -20.8685138
            ],
            [
              -40.9424355,
              -20.8682083
            ],
            [
              -40.942671,
              -20.8679838
            ],
            [
              -40.9426902,
              -20.8681005
            ],
            [
              -40.942844,
              -20.8680781
            ],
            [
              -40.942945,
              -20.8684554
            ]
          ]
        ]
      }
    },
    {
      "type": "Feature",
      "id": "node/4024904852",
      "properties": {
        "timestamp": "2016-02-25T01:59:41Z",
        "version": 1,
        "changeset": 37426154,
        "IJSN:administra": "Estadual",
        "IJSN:classeCnae": "Fundamental e Médio",
        "addr:city": "Rio Novo do Sul",
        "addr:postcode": "29290-000",
        "addr:street": "Estrada de Virginia Nova",
        "addr:suburb": "Comunidade Virgínia Nova",
        "alt_name": "Escola Estadual de Ensino Fundamental e Médio",
        "amenity": "school",
        "name": "EEEFM Virginia Nova",
        "source": "IJSN",
        "id": "node/4024904852"
      },
      "geometry": {
        "type": "Point",
        "coordinates": [
          -40.9685167,
          -20.7535115
        ]
      }
    },
    {
      "type": "Feature",
      "id": "node/4024904853",
      "properties": {
        "timestamp": "2016-02-25T01:59:41Z",
        "version": 1,
        "changeset": 37426154,
        "IJSN:administra": "Estadual",
        "IJSN:classeCnae": "Fundamental e Médio",
        "addr:city": "Rio Novo do Sul",
        "addr:housenumber": "19",
        "addr:postcode": "29290-000",
        "addr:street": "Rua Capitão Bley",
        "addr:suburb": "Centro",
        "alt_name": "Escola Estadual de Ensino Fundamental e Médio",
        "amenity": "school",
        "contact:phone": "(28) 3533-1722",
        "name": "EEEFM Waldemiro Hemerly",
        "source": "IJSN",
        "id": "node/4024904853"
      },
      "geometry": {
        "type": "Point",
        "coordinates": [
          -40.9323897,
          -20.8636915
        ]
      }
    },
    {
      "type": "Feature",
      "id": "node/4024905071",
      "properties": {
        "timestamp": "2016-02-25T02:00:00Z",
        "version": 1,
        "changeset": 37426154,
        "IJSN:administra": "Privada",
        "IJSN:classeCnae": "Fundamental",
        "addr:city": "Rio Novo do Sul",
        "addr:postcode": "29290-000",
        "addr:street": "Estrada Padre Guido Spolaor",
        "addr:suburb": "MEPES",
        "alt_name": "Escola Família Agrícola",
        "amenity": "school",
        "name": "EFA de Rio Novo do Sul",
        "source": "IJSN",
        "id": "node/4024905071"
      },
      "geometry": {
        "type": "Point",
        "coordinates": [
          -40.9310875,
          -20.8694142
        ]
      }
    },
    {
      "type": "Feature",
      "id": "node/4024905281",
      "properties": {
        "timestamp": "2017-05-02T18:49:22Z",
        "version": 2,
        "changeset": 48344025,
        "IJSN:administra": "Municipal",
        "IJSN:classeCnae": "Fundamental",
        "addr:city": "Rio Novo do Sul",
        "addr:postcode": "29290-000",
        "addr:street": "Rua Capitão Bley",
        "addr:suburb": "Centro",
        "alt_name": "Escola Municipal de Ensino Fundamental",
        "amenity": "school",
        "contact:phone": "(28) 3533-1573",
        "name": "EMEF Bodart Júnior",
        "source": "IJSN",
        "id": "node/4024905281"
      },
      "geometry": {
        "type": "Point",
        "coordinates": [
          -40.9319066,
          -20.8642146
        ]
      }
    },
    {
      "type": "Feature",
      "id": "node/4024906164",
      "properties": {
        "timestamp": "2016-02-25T02:01:38Z",
        "version": 1,
        "changeset": 37426154,
        "IJSN:administra": "Municipal",
        "IJSN:classeCnae": "Fundamental",
        "addr:city": "Rio Novo do Sul",
        "addr:postcode": "29290-000",
        "addr:suburb": "Comunidade São Francisco",
        "alt_name": "Ensino Municipal Pluridocente de Ensino Fundamental",
        "amenity": "school",
        "name": "EMPEF São Francisco",
        "source": "IJSN",
        "id": "node/4024906164"
      },
      "geometry": {
        "type": "Point",
        "coordinates": [
          -40.8543018,
          -20.8677454
        ]
      }
    },
    {
      "type": "Feature",
      "id": "node/4024906181",
      "properties": {
        "timestamp": "2016-02-25T02:01:40Z",
        "version": 1,
        "changeset": 37426154,
        "IJSN:administra": "Municipal",
        "IJSN:classeCnae": "Infantil e Fundamental",
        "addr:city": "Rio Novo do Sul",
        "addr:postcode": "29290-000",
        "addr:suburb": "Comunidade Capim Angola",
        "alt_name": "Escola Municipal de Ensino Infantil Pluridocente e Ensino Fundamental",
        "amenity": "school",
        "name": "EMPEIEF Capim Angola",
        "source": "IJSN",
        "id": "node/4024906181"
      },
      "geometry": {
        "type": "Point",
        "coordinates": [
          -40.8702238,
          -20.8383226
        ]
      }
    },
    {
      "type": "Feature",
      "id": "node/4024906186",
      "properties": {
        "timestamp": "2016-02-25T02:01:41Z",
        "version": 1,
        "changeset": 37426154,
        "IJSN:administra": "Municipal",
        "IJSN:classeCnae": "Infantil e Fundamental",
        "addr:city": "Rio Novo do Sul",
        "addr:postcode": "29290-000",
        "addr:suburb": "Comunidade de Alto São Vicente",
        "alt_name": "Escola Municipal de Ensino Infantil Pluridocente e Ensino Fundamental",
        "amenity": "school",
        "name": "EMPEIEF Ivo Menegardo",
        "source": "IJSN",
        "id": "node/4024906186"
      },
      "geometry": {
        "type": "Point",
        "coordinates": [
          -40.9372675,
          -20.8220048
        ]
      }
    },
    {
      "type": "Feature",
      "id": "node/4024906187",
      "properties": {
        "timestamp": "2016-02-25T02:01:41Z",
        "version": 1,
        "changeset": 37426154,
        "IJSN:administra": "Municipal",
        "IJSN:classeCnae": "Infantil e Fundamental",
        "addr:city": "Rio Novo do Sul",
        "addr:postcode": "29290-000",
        "addr:suburb": "Virginia Nova",
        "alt_name": "Escola Municipal de Ensino Infantil Pluridocente e Ensino Fundamental",
        "amenity": "school",
        "name": "EMPEIEF Maria Giacomelli Peterle",
        "source": "IJSN",
        "id": "node/4024906187"
      },
      "geometry": {
        "type": "Point",
        "coordinates": [
          -40.9681901,
          -20.7533928
        ]
      }
    },
    {
      "type": "Feature",
      "id": "node/4024906188",
      "properties": {
        "timestamp": "2016-02-25T02:01:41Z",
        "version": 1,
        "changeset": 37426154,
        "IJSN:administra": "Municipal",
        "IJSN:classeCnae": "Infantil e Fundamental",
        "addr:city": "Rio Novo do Sul",
        "addr:postcode": "29290-000",
        "addr:suburb": "Comunidade Princesa",
        "alt_name": "Escola Municipal de Ensino Infantil Pluridocente e Ensino Fundamental",
        "amenity": "school",
        "name": "EMPEIEF Princesa",
        "source": "IJSN",
        "id": "node/4024906188"
      },
      "geometry": {
        "type": "Point",
        "coordinates": [
          -40.9274099,
          -20.7004132
        ]
      }
    },
    {
      "type": "Feature",
      "id": "node/4024906190",
      "properties": {
        "timestamp": "2016-02-25T02:01:42Z",
        "version": 1,
        "changeset": 37426154,
        "IJSN:administra": "Municipal",
        "IJSN:classeCnae": "Infantil e Fundamental",
        "addr:city": "Rio Novo do Sul",
        "addr:postcode": "29290-000",
        "addr:suburb": "Quarteirão",
        "alt_name": "Escola Municipal de Ensino Infantil Pluridocente e Ensino Fundamental",
        "amenity": "school",
        "contact:phone": "(28) 3533-1165",
        "name": "EMPEIEF Quarteirão",
        "source": "IJSN",
        "id": "node/4024906190"
      },
      "geometry": {
        "type": "Point",
        "coordinates": [
          -40.9503821,
          -20.8627213
        ]
      }
    },
    {
      "type": "Feature",
      "id": "node/4024906213",
      "properties": {
        "timestamp": "2016-02-25T02:01:45Z",
        "version": 1,
        "changeset": 37426154,
        "IJSN:administra": "Municipal",
        "IJSN:classeCnae": "Infantil e Fundamental",
        "addr:city": "Rio Novo do Sul",
        "addr:postcode": "29290-000",
        "addr:suburb": "Alto Mundo Novo",
        "alt_name": "Escola Municipal Unidocente de Ensino Fundamental",
        "amenity": "school",
        "name": "EMUEF Alto Mundo Novo",
        "source": "IJSN",
        "id": "node/4024906213"
      },
      "geometry": {
        "type": "Point",
        "coordinates": [
          -40.9124009,
          -20.8005714
        ]
      }
    },
    {
      "type": "Feature",
      "id": "node/4024906225",
      "properties": {
        "timestamp": "2016-02-25T02:01:47Z",
        "version": 1,
        "changeset": 37426154,
        "IJSN:administra": "Municipal",
        "IJSN:classeCnae": "Fundamental",
        "addr:city": "Rio Novo do Sul",
        "addr:postcode": "29290-000",
        "addr:suburb": "Comunidade Alto Mundo Novo",
        "alt_name": "Escola Municipal Unidocente de Ensino Fundamental",
        "amenity": "school",
        "name": "EMUEF Baixo Mundo Novo",
        "source": "IJSN",
        "id": "node/4024906225"
      },
      "geometry": {
        "type": "Point",
        "coordinates": [
          -40.9103784,
          -20.8016073
        ]
      }
    },
    {
      "type": "Feature",
      "id": "node/4024906243",
      "properties": {
        "timestamp": "2016-02-25T02:01:50Z",
        "version": 1,
        "changeset": 37426154,
        "IJSN:administra": "Municipal",
        "IJSN:classeCnae": "Fundamental",
        "addr:city": "Rio Novo do Sul",
        "addr:postcode": "29290-000",
        "addr:suburb": "Cachoeirinha",
        "alt_name": "Escola Municipal Unidocente de Ensino Fundamental",
        "amenity": "school",
        "name": "EMUEF Cachoeirinha",
        "source": "IJSN",
        "id": "node/4024906243"
      },
      "geometry": {
        "type": "Point",
        "coordinates": [
          -40.9831345,
          -20.8123056
        ]
      }
    },
    {
      "type": "Feature",
      "id": "node/4024906617",
      "properties": {
        "timestamp": "2016-02-25T02:02:15Z",
        "version": 1,
        "changeset": 37426154,
        "IJSN:administra": "Municipal",
        "IJSN:classeCnae": "Infantil e Fundamental",
        "addr:city": "Rio Novo do Sul",
        "addr:postcode": "29290-000",
        "addr:suburb": "São Francisco",
        "alt_name": "Escola Municipal Unidocente de Ensino Infantil e Ensino Fundamental",
        "amenity": "school",
        "name": "EMUEIEF Oreste Bernardo",
        "source": "IJSN",
        "id": "node/4024906617"
      },
      "geometry": {
        "type": "Point",
        "coordinates": [
          -40.8323737,
          -20.8821363
        ]
      }
    }
  ]
}
