{
  "type": "FeatureCollection",
  "features": [
    {
      "type": "Feature",
      "id": "way/479190860",
      "properties": {
        "timestamp": "2017-03-08T00:56:16Z",
        "version": 1,
        "changeset": 46667734,
        "amenity": "school",
        "name": "Escola Municipal Cairu-Galeão",
        "id": "way/479190860"
      },
      "geometry": {
        "type": "Polygon",
        "coordinates": [
          [
            [
              -39.0339333,
              -13.4008372
            ],
            [
              -39.0339533,
              -13.401126
            ],
            [
              -39.03391,
              -13.4011245
            ],
            [
              -39.0337291,
              -13.4011181
            ],
            [
              -39.0334994,
              -13.40111
            ],
            [
              -39.0334789,
              -13.4009215
            ],
            [
              -39.0337135,
              -13.4008817
            ],
            [
              -39.0337164,
              -13.4008589
            ],
            [
              -39.0339333,
              -13.4008372
            ]
          ]
        ]
      }
    },
    {
      "type": "Feature",
      "id": "node/2699255332",
      "properties": {
        "timestamp": "2014-03-03T02:42:24Z",
        "version": 1,
        "changeset": 20879263,
        "amenity": "school",
        "id": "node/2699255332"
      },
      "geometry": {
        "type": "Point",
        "coordinates": [
          -38.9284854,
          -13.5838743
        ]
      }
    },
    {
      "type": "Feature",
      "id": "node/3460902651",
      "properties": {
        "timestamp": "2017-02-08T16:14:16Z",
        "version": 2,
        "changeset": 45922036,
        "amenity": "school",
        "id": "node/3460902651"
      },
      "geometry": {
        "type": "Point",
        "coordinates": [
          -38.9298223,
          -13.5860405
        ]
      }
    },
    {
      "type": "Feature",
      "id": "node/3460961968",
      "properties": {
        "timestamp": "2015-04-17T06:20:39Z",
        "version": 1,
        "changeset": 30279608,
        "amenity": "school",
        "id": "node/3460961968"
      },
      "geometry": {
        "type": "Point",
        "coordinates": [
          -39.0113728,
          -13.5717856
        ]
      }
    },
    {
      "type": "Feature",
      "id": "node/3902641999",
      "properties": {
        "timestamp": "2015-12-21T09:49:43Z",
        "version": 1,
        "changeset": 36081527,
        "amenity": "school",
        "id": "node/3902641999"
      },
      "geometry": {
        "type": "Point",
        "coordinates": [
          -39.0444607,
          -13.4855719
        ]
      }
    },
    {
      "type": "Feature",
      "id": "node/3902642006",
      "properties": {
        "timestamp": "2022-12-08T16:03:12Z",
        "version": 3,
        "changeset": 129867043,
        "addr:city": "Cairu",
        "addr:postcode": "45420-000",
        "addr:street": "Praça Salustio Palma",
        "amenity": "school",
        "name": "Escola Municipal Abdon Abdala Ché",
        "operator": "Município de Cairu",
        "id": "node/3902642006"
      },
      "geometry": {
        "type": "Point",
        "coordinates": [
          -39.0428849,
          -13.4897073
        ]
      }
    },
    {
      "type": "Feature",
      "id": "node/3902642021",
      "properties": {
        "timestamp": "2024-02-12T21:15:48Z",
        "version": 3,
        "changeset": 147385181,
        "addr:city": "Cairu",
        "addr:postcode": "45420-000",
        "addr:street": "Rua Visconde de Cairu",
        "addr:suburb": "Centro",
        "amenity": "school",
        "name": "Escola Municipal Doutor Luiz Navarro de Brito",
        "id": "node/3902642021"
      },
      "geometry": {
        "type": "Point",
        "coordinates": [
          -39.0440396,
          -13.4870228
        ]
      }
    },
    {
      "type": "Feature",
      "id": "node/3902642031",
      "properties": {
        "timestamp": "2022-12-08T19:19:12Z",
        "version": 2,
        "changeset": 129874719,
        "addr:city": "Cairu",
        "addr:housenumber": "81",
        "addr:postcode": "45420-000",
        "addr:street": "Praça da Bandeira",
        "addr:suburb": "Centro",
        "amenity": "school",
        "email": "emanuelcairu@ig.com.br",
        "name": "Colégio Estadual Cândido Meireles",
        "operator": "Governo do Estado da Bahia",
        "phone": "+55 75 3653 2123",
        "id": "node/3902642031"
      },
      "geometry": {
        "type": "Point",
        "coordinates": [
          -39.0465846,
          -13.4850192
        ]
      }
    },
    {
      "type": "Feature",
      "id": "node/6329523995",
      "properties": {
        "timestamp": "2019-03-10T19:08:43Z",
        "version": 1,
        "changeset": 67998548,
        "amenity": "school",
        "name": "Colégio",
        "id": "node/6329523995"
      },
      "geometry": {
        "type": "Point",
        "coordinates": [
          -38.9153064,
          -13.4013098
        ]
      }
    },
    {
      "type": "Feature",
      "id": "node/9217397020",
      "properties": {
        "timestamp": "2021-11-02T01:36:00Z",
        "version": 1,
        "changeset": 113260719,
        "amenity": "school",
        "name": "Colégio Municipal de Boipeba Hildécio Antônio Meireles",
        "survey:date": "2021-11-01",
        "id": "node/9217397020"
      },
      "geometry": {
        "type": "Point",
        "coordinates": [
          -38.9287192,
          -13.5834292
        ]
      }
    },
    {
      "type": "Feature",
      "id": "node/10247456835",
      "properties": {
        "timestamp": "2022-12-08T20:47:36Z",
        "version": 2,
        "changeset": 129876774,
        "addr:city": "Cairu",
        "addr:postcode": "45420-000",
        "addr:street": "Rua da Prainha",
        "addr:suburb": "Morro de São Paulo",
        "amenity": "school",
        "email": "esc.nossasenhordaluz@hotmail.com",
        "name": "Escola Municipal Nossa Senhora da Luz",
        "operator": "Município de Cairu",
        "phone": "+55 75 3653 2233",
        "id": "node/10247456835"
      },
      "geometry": {
        "type": "Point",
        "coordinates": [
          -38.9153667,
          -13.3777572
        ]
      }
    },
    {
      "type": "Feature",
      "id": "node/10247456839",
      "properties": {
        "timestamp": "2022-12-08T19:19:12Z",
        "version": 1,
        "changeset": 129874719,
        "addr:city": "Cairu",
        "addr:suburb": "Gamboa",
        "amenity": "school",
        "id": "node/10247456839"
      },
      "geometry": {
        "type": "Point",
        "coordinates": [
          -38.9386097,
          -13.3988526
        ]
      }
    }
  ]
}
