{
  "type": "FeatureCollection",
  "features": [
    {
      "type": "Feature",
      "id": "way/520068209",
      "properties": {
        "timestamp": "2021-02-02T05:12:55Z",
        "version": 3,
        "changeset": 98548563,
        "addr:city": "Canguçu",
        "addr:housenumber": "1275",
        "addr:postcode": "96600-000",
        "addr:street": "Rua General Câmara",
        "addr:suburb": "Centro",
        "amenity": "doctors",
        "building": "yes",
        "healthcare": "doctor",
        "name": "Danilo Campos",
        "id": "way/520068209"
      },
      "geometry": {
        "type": "Polygon",
        "coordinates": [
          [
            [
              -52.6780322,
              -31.3979111
            ],
            [
              -52.6780157,
              -31.3978426
            ],
            [
              -52.678034,
              -31.3978394
            ],
            [
              -52.6780824,
              -31.3978303
            ],
            [
              -52.6780869,
              -31.3978479
            ],
            [
              -52.678169,
              -31.3978325
            ],
            [
              -52.6781833,
              -31.3978859
            ],
            [
              -52.6781154,
              -31.397897
            ],
            [
              -52.6780322,
              -31.3979111
            ]
          ]
        ]
      }
    },
    {
      "type": "Feature",
      "id": "way/520341202",
      "properties": {
        "timestamp": "2021-02-02T05:12:55Z",
        "version": 4,
        "changeset": 98548563,
        "addr:city": "Canguçu",
        "addr:housenumber": "1445",
        "addr:postcode": "96600-000",
        "addr:street": "Rua General Câmara",
        "addr:suburb": "Centro",
        "amenity": "doctors",
        "building": "yes",
        "healthcare": "doctor",
        "name": "Dr. Airton Pereira (Pediatra)",
        "phone": "+55 53 3252-1796",
        "id": "way/520341202"
      },
      "geometry": {
        "type": "Polygon",
        "coordinates": [
          [
            [
              -52.6778277,
              -31.3962056
            ],
            [
              -52.6776667,
              -31.3962326
            ],
            [
              -52.677654,
              -31.3961767
            ],
            [
              -52.6776844,
              -31.3961711
            ],
            [
              -52.6776775,
              -31.3961418
            ],
            [
              -52.6777911,
              -31.3961226
            ],
            [
              -52.6777996,
              -31.3961607
            ],
            [
              -52.6778167,
              -31.3961576
            ],
            [
              -52.6778277,
              -31.3962056
            ]
          ]
        ]
      }
    },
    {
      "type": "Feature",
      "id": "way/521559277",
      "properties": {
        "timestamp": "2021-02-02T05:12:55Z",
        "version": 2,
        "changeset": 98548563,
        "addr:city": "Canguçu",
        "addr:housenumber": "103 A",
        "addr:postcode": "96600-000",
        "addr:street": "Rua Osvaldo Aranha",
        "addr:suburb": "Centro",
        "amenity": "doctors",
        "building": "yes",
        "healthcare": "doctor",
        "name": "Dr. Ilmo da Silva Van Gysel",
        "id": "way/521559277"
      },
      "geometry": {
        "type": "Polygon",
        "coordinates": [
          [
            [
              -52.6769529,
              -31.3933402
            ],
            [
              -52.6769736,
              -31.3934207
            ],
            [
              -52.6768999,
              -31.393434
            ],
            [
              -52.6768806,
              -31.3933531
            ],
            [
              -52.6769529,
              -31.3933402
            ]
          ]
        ]
      }
    },
    {
      "type": "Feature",
      "id": "way/521594492",
      "properties": {
        "timestamp": "2021-02-02T05:12:55Z",
        "version": 3,
        "changeset": 98548563,
        "addr:city": "Canguçu",
        "addr:housenumber": "1809",
        "addr:postcode": "96600-000",
        "addr:street": "Rua General Câmara",
        "addr:suburb": "Centro",
        "amenity": "doctors",
        "building": "yes",
        "healthcare": "doctor",
        "layer": "1",
        "name": "Dr. Cairo Barbosa",
        "phone": "+55 53 3252-1900",
        "id": "way/521594492"
      },
      "geometry": {
        "type": "Polygon",
        "coordinates": [
          [
            [
              -52.6769869,
              -31.3928982
            ],
            [
              -52.6769979,
              -31.392943
            ],
            [
              -52.6768896,
              -31.3929615
            ],
            [
              -52.6768797,
              -31.3929166
            ],
            [
              -52.6769869,
              -31.3928982
            ]
          ]
        ]
      }
    },
    {
      "type": "Feature",
      "id": "way/523721478",
      "properties": {
        "timestamp": "2021-02-02T05:12:55Z",
        "version": 2,
        "changeset": 98548563,
        "addr:city": "Canguçu",
        "addr:housenumber": "71",
        "addr:postcode": "96600-000",
        "addr:street": "Rua Duque de Caxias",
        "addr:suburb": "Uruguai",
        "amenity": "doctors",
        "building": "yes",
        "healthcare": "doctor",
        "id": "way/523721478"
      },
      "geometry": {
        "type": "Polygon",
        "coordinates": [
          [
            [
              -52.6787601,
              -31.3993654
            ],
            [
              -52.6786741,
              -31.3994551
            ],
            [
              -52.6786253,
              -31.3994204
            ],
            [
              -52.6786063,
              -31.3994385
            ],
            [
              -52.6785495,
              -31.3993983
            ],
            [
              -52.6785293,
              -31.3993837
            ],
            [
              -52.6785838,
              -31.399329
            ],
            [
              -52.6786019,
              -31.3993414
            ],
            [
              -52.6786553,
              -31.3992879
            ],
            [
              -52.6787601,
              -31.3993654
            ]
          ]
        ]
      }
    }
  ]
}
