{
  "type": "FeatureCollection",
  "features": [
    {
      "type": "Feature",
      "id": "way/519706332",
      "properties": {
        "timestamp": "2021-02-02T05:12:55Z",
        "version": 3,
        "changeset": 98548563,
        "addr:city": "Canguçu",
        "addr:postcode": "96600-000",
        "addr:street": "Rua General Osório",
        "addr:suburb": "Uruguai",
        "amenity": "pharmacy",
        "building": "yes",
        "healthcare": "pharmacy",
        "name": "Farmácia Vidativa",
        "id": "way/519706332"
      },
      "geometry": {
        "type": "Polygon",
        "coordinates": [
          [
            [
              -52.6781139,
              -31.3994334
            ],
            [
              -52.6782403,
              -31.399298
            ],
            [
              -52.6783802,
              -31.3993883
            ],
            [
              -52.6782611,
              -31.3995156
            ],
            [
              -52.6782225,
              -31.3995143
            ],
            [
              -52.6781139,
              -31.3994334
            ]
          ]
        ]
      }
    },
    {
      "type": "Feature",
      "id": "way/519981235",
      "properties": {
        "timestamp": "2021-02-02T05:12:55Z",
        "version": 3,
        "changeset": 98548563,
        "addr:city": "Canguçu",
        "addr:postcode": "96600-000",
        "addr:street": "Rua Júlio de Castilhos",
        "addr:suburb": "Centro",
        "amenity": "pharmacy",
        "building": "yes",
        "healthcare": "pharmacy",
        "name": "Farmácia Agafarma",
        "id": "way/519981235"
      },
      "geometry": {
        "type": "Polygon",
        "coordinates": [
          [
            [
              -52.6768709,
              -31.396982
            ],
            [
              -52.6769631,
              -31.3969664
            ],
            [
              -52.676974,
              -31.3970141
            ],
            [
              -52.6768842,
              -31.3970293
            ],
            [
              -52.6768709,
              -31.396982
            ]
          ]
        ]
      }
    },
    {
      "type": "Feature",
      "id": "way/520021084",
      "properties": {
        "timestamp": "2021-02-02T05:12:55Z",
        "version": 3,
        "changeset": 98548563,
        "addr:city": "Canguçu",
        "addr:housenumber": "878",
        "addr:postcode": "96600-000",
        "addr:street": "Rua General Osório",
        "addr:suburb": "Centro",
        "amenity": "pharmacy",
        "building": "yes",
        "healthcare": "pharmacy",
        "name": "Farmácia São Carlos II",
        "id": "way/520021084"
      },
      "geometry": {
        "type": "Polygon",
        "coordinates": [
          [
            [
              -52.6776851,
              -31.3978632
            ],
            [
              -52.6778229,
              -31.3978388
            ],
            [
              -52.6778423,
              -31.3979182
            ],
            [
              -52.6777021,
              -31.3979414
            ],
            [
              -52.6776851,
              -31.3978632
            ]
          ]
        ]
      }
    },
    {
      "type": "Feature",
      "id": "way/520024431",
      "properties": {
        "timestamp": "2021-02-02T05:12:55Z",
        "version": 2,
        "changeset": 98548563,
        "addr:city": "Canguçu",
        "addr:postcode": "96600-000",
        "addr:street": "Rua General Osório",
        "addr:suburb": "Centro",
        "amenity": "pharmacy",
        "building": "yes",
        "healthcare": "pharmacy",
        "name": "Farmácia Flôr do Campo",
        "id": "way/520024431"
      },
      "geometry": {
        "type": "Polygon",
        "coordinates": [
          [
            [
              -52.6777927,
              -31.3983641
            ],
            [
              -52.6778793,
              -31.39835
            ],
            [
              -52.6778924,
              -31.3984054
            ],
            [
              -52.6778047,
              -31.3984205
            ],
            [
              -52.6777927,
              -31.3983641
            ]
          ]
        ]
      }
    },
    {
      "type": "Feature",
      "id": "way/520024434",
      "properties": {
        "timestamp": "2021-02-02T05:12:55Z",
        "version": 4,
        "changeset": 98548563,
        "addr:city": "Canguçu",
        "addr:housenumber": "800",
        "addr:postcode": "96600-000",
        "addr:street": "Rua General Osório",
        "addr:suburb": "Centro",
        "amenity": "pharmacy",
        "building": "yes",
        "healthcare": "pharmacy",
        "name": "Farmácia São João",
        "id": "way/520024434"
      },
      "geometry": {
        "type": "Polygon",
        "coordinates": [
          [
            [
              -52.678042,
              -31.3985411
            ],
            [
              -52.6780398,
              -31.3985285
            ],
            [
              -52.6780677,
              -31.3985242
            ],
            [
              -52.6781166,
              -31.3985172
            ],
            [
              -52.6781426,
              -31.3986432
            ],
            [
              -52.6780693,
              -31.3986527
            ],
            [
              -52.6778603,
              -31.3986799
            ],
            [
              -52.6778483,
              -31.3986239
            ],
            [
              -52.6779185,
              -31.3986128
            ],
            [
              -52.6779077,
              -31.3985628
            ],
            [
              -52.678042,
              -31.3985411
            ]
          ]
        ]
      }
    },
    {
      "type": "Feature",
      "id": "way/520069756",
      "properties": {
        "timestamp": "2021-02-02T05:12:55Z",
        "version": 2,
        "changeset": 98548563,
        "addr:city": "Canguçu",
        "addr:housenumber": "189",
        "addr:postcode": "96600-000",
        "addr:street": "Rua Conceição Monteiro Bento",
        "addr:suburb": "Centro",
        "amenity": "pharmacy",
        "building": "yes",
        "healthcare": "pharmacy",
        "name": "Farmácia São Carlos I",
        "id": "way/520069756"
      },
      "geometry": {
        "type": "Polygon",
        "coordinates": [
          [
            [
              -52.6781031,
              -31.397735
            ],
            [
              -52.6780118,
              -31.3977532
            ],
            [
              -52.6779934,
              -31.3976853
            ],
            [
              -52.6780864,
              -31.3976665
            ],
            [
              -52.6780952,
              -31.3977018
            ],
            [
              -52.6781031,
              -31.397735
            ]
          ]
        ]
      }
    },
    {
      "type": "Feature",
      "id": "way/520310561",
      "properties": {
        "timestamp": "2021-02-02T05:12:55Z",
        "version": 4,
        "changeset": 98548563,
        "addr:city": "Canguçu",
        "addr:housenumber": "1063",
        "addr:postcode": "96600-000",
        "addr:street": "Rua General Osório",
        "addr:suburb": "Centro",
        "amenity": "pharmacy",
        "building": "yes",
        "healthcare": "pharmacy",
        "name": "Farmácia São João",
        "phone": "+55 53 3252-1496",
        "id": "way/520310561"
      },
      "geometry": {
        "type": "Polygon",
        "coordinates": [
          [
            [
              -52.6770416,
              -31.3962705
            ],
            [
              -52.6771824,
              -31.396249
            ],
            [
              -52.6771978,
              -31.396319
            ],
            [
              -52.6770562,
              -31.3963407
            ],
            [
              -52.6770416,
              -31.3962705
            ]
          ]
        ]
      }
    },
    {
      "type": "Feature",
      "id": "way/520357951",
      "properties": {
        "timestamp": "2021-02-02T05:12:55Z",
        "version": 4,
        "changeset": 98548563,
        "addr:city": "Canguçu",
        "addr:housenumber": "1098",
        "addr:postcode": "96600-000",
        "addr:street": "Rua General Osório",
        "addr:suburb": "Centro",
        "amenity": "pharmacy",
        "building": "yes",
        "healthcare": "pharmacy",
        "name": "Mais Econômica Farmacias",
        "opening_hours": "Mo-Su 08:00-22:00",
        "phone": "+55 53 3252-3473",
        "website": "maiseconomica.com.br",
        "id": "way/520357951"
      },
      "geometry": {
        "type": "Polygon",
        "coordinates": [
          [
            [
              -52.677232,
              -31.3959018
            ],
            [
              -52.6773905,
              -31.3958765
            ],
            [
              -52.6773921,
              -31.3958847
            ],
            [
              -52.6774055,
              -31.395953
            ],
            [
              -52.6772505,
              -31.3959768
            ],
            [
              -52.677232,
              -31.3959018
            ]
          ]
        ]
      }
    },
    {
      "type": "Feature",
      "id": "way/520372851",
      "properties": {
        "timestamp": "2021-02-02T05:12:55Z",
        "version": 7,
        "changeset": 98548563,
        "addr:city": "Canguçu",
        "addr:housenumber": "1099",
        "addr:postcode": "96600-000",
        "addr:street": "Rua General Osório",
        "addr:suburb": "Centro",
        "amenity": "pharmacy",
        "building": "yes",
        "healthcare": "pharmacy",
        "name": "Farmácia Panvel",
        "opening_hours": "Mo-Su 07:30-22:00",
        "phone": "+55 53 3252-2704",
        "website": "https://www.panvel.com/",
        "id": "way/520372851"
      },
      "geometry": {
        "type": "Polygon",
        "coordinates": [
          [
            [
              -52.6770986,
              -31.3959119
            ],
            [
              -52.6771195,
              -31.3959988
            ],
            [
              -52.6768498,
              -31.3960454
            ],
            [
              -52.6768307,
              -31.3959601
            ],
            [
              -52.6768494,
              -31.3959567
            ],
            [
              -52.6769844,
              -31.3959324
            ],
            [
              -52.6770223,
              -31.3959256
            ],
            [
              -52.6770986,
              -31.3959119
            ]
          ]
        ]
      }
    },
    {
      "type": "Feature",
      "id": "way/520521969",
      "properties": {
        "timestamp": "2021-02-02T05:12:55Z",
        "version": 2,
        "changeset": 98548563,
        "addr:city": "Canguçu",
        "addr:housenumber": "1119",
        "addr:postcode": "96600-000",
        "addr:street": "Rua General Osório",
        "addr:suburb": "Centro",
        "amenity": "pharmacy",
        "building": "yes",
        "healthcare": "pharmacy",
        "name": "Farmácia do Imigrante",
        "id": "way/520521969"
      },
      "geometry": {
        "type": "Polygon",
        "coordinates": [
          [
            [
              -52.6770599,
              -31.3957506
            ],
            [
              -52.6770712,
              -31.3957975
            ],
            [
              -52.6769497,
              -31.3958207
            ],
            [
              -52.6768893,
              -31.395832
            ],
            [
              -52.676876,
              -31.3957844
            ],
            [
              -52.6770599,
              -31.3957506
            ]
          ]
        ]
      }
    },
    {
      "type": "Feature",
      "id": "way/520524510",
      "properties": {
        "timestamp": "2021-02-02T05:12:55Z",
        "version": 4,
        "changeset": 98548563,
        "addr:city": "Canguçu",
        "addr:housenumber": "1159",
        "addr:postcode": "96600-000",
        "addr:street": "Rua General Osório",
        "addr:suburb": "Centro",
        "amenity": "pharmacy",
        "building": "yes",
        "healthcare": "pharmacy",
        "name": "Farmácia Brasil",
        "id": "way/520524510"
      },
      "geometry": {
        "type": "Polygon",
        "coordinates": [
          [
            [
              -52.6769677,
              -31.395366
            ],
            [
              -52.6769903,
              -31.3954605
            ],
            [
              -52.6768191,
              -31.3954952
            ],
            [
              -52.6767825,
              -31.3955026
            ],
            [
              -52.6767181,
              -31.3955157
            ],
            [
              -52.6767147,
              -31.3955024
            ],
            [
              -52.6767047,
              -31.3954638
            ],
            [
              -52.6766927,
              -31.395417
            ],
            [
              -52.676767,
              -31.3954027
            ],
            [
              -52.6767741,
              -31.3954344
            ],
            [
              -52.6768573,
              -31.3954185
            ],
            [
              -52.6768502,
              -31.3953876
            ],
            [
              -52.6768701,
              -31.3953839
            ],
            [
              -52.6769677,
              -31.395366
            ]
          ]
        ]
      }
    },
    {
      "type": "Feature",
      "id": "way/520525818",
      "properties": {
        "timestamp": "2021-02-02T05:12:55Z",
        "version": 3,
        "changeset": 98548563,
        "addr:city": "Canguçu",
        "addr:housenumber": "1173",
        "addr:postcode": "96600-000",
        "addr:street": "Rua General Osório",
        "addr:suburb": "Centro",
        "amenity": "pharmacy",
        "building": "yes",
        "healthcare": "pharmacy",
        "name": "Farmácia Flôr do Campo 3",
        "id": "way/520525818"
      },
      "geometry": {
        "type": "Polygon",
        "coordinates": [
          [
            [
              -52.6769474,
              -31.3952814
            ],
            [
              -52.6769677,
              -31.395366
            ],
            [
              -52.6768701,
              -31.3953839
            ],
            [
              -52.6768606,
              -31.3953453
            ],
            [
              -52.6767579,
              -31.3953631
            ],
            [
              -52.6767605,
              -31.395374
            ],
            [
              -52.6766863,
              -31.3953874
            ],
            [
              -52.6766712,
              -31.3953303
            ],
            [
              -52.6769474,
              -31.3952814
            ]
          ]
        ]
      }
    },
    {
      "type": "Feature",
      "id": "way/521279325",
      "properties": {
        "timestamp": "2021-02-02T05:12:55Z",
        "version": 3,
        "changeset": 98548563,
        "addr:city": "Canguçu",
        "addr:housenumber": "1260",
        "addr:postcode": "96600-000",
        "addr:street": "Rua General Osório",
        "addr:suburb": "Centro",
        "amenity": "pharmacy",
        "building": "yes",
        "healthcare": "pharmacy",
        "name": "Farmácia Flôr do Campo 4",
        "id": "way/521279325"
      },
      "geometry": {
        "type": "Polygon",
        "coordinates": [
          [
            [
              -52.6770122,
              -31.3942644
            ],
            [
              -52.677023,
              -31.3943121
            ],
            [
              -52.6768298,
              -31.3943465
            ],
            [
              -52.6768164,
              -31.3942969
            ],
            [
              -52.6770122,
              -31.3942644
            ]
          ]
        ]
      }
    },
    {
      "type": "Feature",
      "id": "way/521321168",
      "properties": {
        "timestamp": "2021-02-02T05:12:55Z",
        "version": 3,
        "changeset": 98548563,
        "addr:city": "Canguçu",
        "addr:housenumber": "1287",
        "addr:postcode": "96600-000",
        "addr:street": "Rua General Osório",
        "addr:suburb": "Centro",
        "amenity": "pharmacy",
        "building": "yes",
        "healthcare": "pharmacy",
        "name": "Framácia São João",
        "id": "way/521321168"
      },
      "geometry": {
        "type": "Polygon",
        "coordinates": [
          [
            [
              -52.6766083,
              -31.3940356
            ],
            [
              -52.6766275,
              -31.3941141
            ],
            [
              -52.6763499,
              -31.3941657
            ],
            [
              -52.6763305,
              -31.3940862
            ],
            [
              -52.6763895,
              -31.3940754
            ],
            [
              -52.6766083,
              -31.3940356
            ]
          ]
        ]
      }
    },
    {
      "type": "Feature",
      "id": "way/521545117",
      "properties": {
        "timestamp": "2021-02-02T05:12:55Z",
        "version": 3,
        "changeset": 98548563,
        "addr:city": "Canguçu",
        "addr:housenumber": "1325",
        "addr:postcode": "96600-000",
        "addr:street": "Rua General Osório",
        "addr:suburb": "Centro",
        "amenity": "pharmacy",
        "building": "yes",
        "healthcare": "pharmacy",
        "name": "Farmácia Campos",
        "id": "way/521545117"
      },
      "geometry": {
        "type": "Polygon",
        "coordinates": [
          [
            [
              -52.6765284,
              -31.3937094
            ],
            [
              -52.676539,
              -31.3937528
            ],
            [
              -52.6763112,
              -31.3937928
            ],
            [
              -52.676302,
              -31.3937648
            ],
            [
              -52.6763298,
              -31.3937601
            ],
            [
              -52.6763268,
              -31.3937467
            ],
            [
              -52.6763757,
              -31.3937377
            ],
            [
              -52.6765284,
              -31.3937094
            ]
          ]
        ]
      }
    },
    {
      "type": "Feature",
      "id": "way/521593088",
      "properties": {
        "timestamp": "2021-02-02T05:12:55Z",
        "version": 3,
        "changeset": 98548563,
        "addr:city": "Canguçu",
        "addr:housenumber": "1865",
        "addr:postcode": "96600-000",
        "addr:street": "Rua General Câmara",
        "addr:suburb": "Centro",
        "amenity": "pharmacy",
        "building": "yes",
        "healthcare": "pharmacy",
        "name": "Farmácia Harmonia",
        "phone": "+55 53 3252-1953",
        "id": "way/521593088"
      },
      "geometry": {
        "type": "Polygon",
        "coordinates": [
          [
            [
              -52.676881,
              -31.3924662
            ],
            [
              -52.6767262,
              -31.3924924
            ],
            [
              -52.6767063,
              -31.3924029
            ],
            [
              -52.6768593,
              -31.3923776
            ],
            [
              -52.676881,
              -31.3924662
            ]
          ]
        ]
      }
    },
    {
      "type": "Feature",
      "id": "way/521842742",
      "properties": {
        "timestamp": "2021-02-02T05:12:55Z",
        "version": 3,
        "changeset": 98548563,
        "addr:city": "Canguçu",
        "addr:housenumber": "81",
        "addr:postcode": "96600-000",
        "addr:street": "Avenida 20 de Setembro",
        "addr:suburb": "Centro",
        "amenity": "pharmacy",
        "building": "yes",
        "healthcare": "pharmacy",
        "name": "Farmácia Miron",
        "phone": "+55 53 3252-1606",
        "id": "way/521842742"
      },
      "geometry": {
        "type": "Polygon",
        "coordinates": [
          [
            [
              -52.6765426,
              -31.391718
            ],
            [
              -52.6765659,
              -31.3916878
            ],
            [
              -52.6766024,
              -31.3917087
            ],
            [
              -52.6766278,
              -31.3916785
            ],
            [
              -52.6767717,
              -31.3917593
            ],
            [
              -52.676721,
              -31.3918242
            ],
            [
              -52.6765426,
              -31.391718
            ]
          ]
        ]
      }
    },
    {
      "type": "Feature",
      "id": "way/524662052",
      "properties": {
        "timestamp": "2018-10-18T11:35:50Z",
        "version": 2,
        "changeset": 63641275,
        "addr:city": "Canguçu",
        "addr:postcode": "96600-000",
        "addr:street": "Avenida 20 de Setembro",
        "addr:suburb": "Centro",
        "amenity": "pharmacy",
        "building": "yes",
        "dispensing": "yes",
        "healthcare": "pharmacy",
        "name": "Farmácia São João IV",
        "id": "way/524662052"
      },
      "geometry": {
        "type": "Polygon",
        "coordinates": [
          [
            [
              -52.678241,
              -31.390173
            ],
            [
              -52.6781628,
              -31.3899856
            ],
            [
              -52.6781373,
              -31.3899288
            ],
            [
              -52.678243,
              -31.3898958
            ],
            [
              -52.6783508,
              -31.3901548
            ],
            [
              -52.6782522,
              -31.3902
            ],
            [
              -52.678241,
              -31.390173
            ]
          ]
        ]
      }
    },
    {
      "type": "Feature",
      "id": "way/524935788",
      "properties": {
        "timestamp": "2021-02-02T05:12:55Z",
        "version": 3,
        "changeset": 98548563,
        "addr:city": "Canguçu",
        "addr:housenumber": "443",
        "addr:postcode": "96600-000",
        "addr:street": "Avenida 20 de Setembro",
        "addr:suburb": "Centro",
        "amenity": "pharmacy",
        "building": "yes",
        "healthcare": "pharmacy",
        "name": "Farmácia Flôr do Campo 5",
        "id": "way/524935788"
      },
      "geometry": {
        "type": "Polygon",
        "coordinates": [
          [
            [
              -52.679439,
              -31.3898229
            ],
            [
              -52.6793836,
              -31.3898387
            ],
            [
              -52.6793192,
              -31.3896995
            ],
            [
              -52.6792858,
              -31.3896269
            ],
            [
              -52.6793451,
              -31.3896105
            ],
            [
              -52.67938,
              -31.3896894
            ],
            [
              -52.679439,
              -31.3898229
            ]
          ]
        ]
      }
    },
    {
      "type": "Feature",
      "id": "node/3173743801",
      "properties": {
        "timestamp": "2014-11-08T00:14:05Z",
        "version": 1,
        "changeset": 26632059,
        "amenity": "pharmacy",
        "id": "node/3173743801"
      },
      "geometry": {
        "type": "Point",
        "coordinates": [
          -52.6757371,
          -31.4645502
        ]
      }
    },
    {
      "type": "Feature",
      "id": "node/3290389945",
      "properties": {
        "timestamp": "2021-02-02T05:12:55Z",
        "version": 3,
        "changeset": 98548563,
        "amenity": "pharmacy",
        "healthcare": "pharmacy",
        "id": "node/3290389945"
      },
      "geometry": {
        "type": "Point",
        "coordinates": [
          -52.6785997,
          -31.3987358
        ]
      }
    },
    {
      "type": "Feature",
      "id": "node/5058691813",
      "properties": {
        "timestamp": "2021-02-02T05:12:55Z",
        "version": 2,
        "changeset": 98548563,
        "addr:city": "Canguçu",
        "addr:postcode": "96600-000",
        "addr:street": "Rua Professor André Puente",
        "addr:suburb": "Centro",
        "amenity": "pharmacy",
        "healthcare": "pharmacy",
        "name": "Farmácia Municipal",
        "id": "node/5058691813"
      },
      "geometry": {
        "type": "Point",
        "coordinates": [
          -52.6759361,
          -31.3971587
        ]
      }
    },
    {
      "type": "Feature",
      "id": "node/5064191003",
      "properties": {
        "timestamp": "2017-08-30T14:25:46Z",
        "version": 3,
        "changeset": 51581321,
        "camera:direction": "360",
        "camera:mount": "post",
        "camera:type": "panning",
        "man_made": "surveillance",
        "surveillance": "public",
        "surveillance:type": "camera",
        "surveillance:zone": "police",
        "id": "node/5064191003"
      },
      "geometry": {
        "type": "Point",
        "coordinates": [
          -52.6778603,
          -31.3986799
        ]
      }
    }
  ]
}
