{
  "type": "FeatureCollection",
  "features": [
    {
      "type": "Feature",
      "id": "way/623233514",
      "properties": {
        "timestamp": "2023-07-07T18:57:32Z",
        "version": 2,
        "changeset": 138240922,
        "addr:city": "São Félix do Araguaia",
        "addr:postcode": "78670-000",
        "addr:street": "Avenida Governador José Fragelli",
        "addr:suburb": "Centro",
        "building": "yes",
        "description": "Câmara de Vereadores do Município de São Félix do Araguaia",
        "government": "legislative",
        "name": "Câmara Municipal - Palácio Karajá",
        "office": "government",
        "id": "way/623233514"
      },
      "geometry": {
        "type": "Polygon",
        "coordinates": [
          [
            [
              -50.6683563,
              -11.6159522
            ],
            [
              -50.6684661,
              -11.6159968
            ],
            [
              -50.6683038,
              -11.6164314
            ],
            [
              -50.6681894,
              -11.6163879
            ],
            [
              -50.6683563,
              -11.6159522
            ]
          ]
        ]
      }
    },
    {
      "type": "Feature",
      "id": "node/5884924605",
      "properties": {
        "timestamp": "2018-09-05T14:17:42Z",
        "version": 1,
        "changeset": 62313957,
        "description": "Câmara de Vereadores do Município de São Félix do Araguaia",
        "name": "Câmara Municipal - Palácio Karajá",
        "office": "government",
        "id": "node/5884924605"
      },
      "geometry": {
        "type": "Point",
        "coordinates": [
          -50.6682698,
          -11.6163521
        ]
      }
    },
    {
      "type": "Feature",
      "id": "node/5884972770",
      "properties": {
        "timestamp": "2023-07-07T18:54:29Z",
        "version": 2,
        "changeset": 138240844,
        "addr:city": "São Félix do Araguaia",
        "addr:postcode": "78670-000",
        "addr:street": "Avenida Dom Pedro Casaldáliga",
        "addr:suburb": "Vila Santo Antônio",
        "description": "Promotoria de Justiça da Comarca de São Félix do Araguaia",
        "government": "yes",
        "name": "Promotoria de Justiça",
        "office": "government",
        "id": "node/5884972770"
      },
      "geometry": {
        "type": "Point",
        "coordinates": [
          -50.6897417,
          -11.6237507
        ]
      }
    },
    {
      "type": "Feature",
      "id": "node/5884972771",
      "properties": {
        "timestamp": "2018-09-05T14:42:34Z",
        "version": 1,
        "changeset": 62314776,
        "addr:city": "São Félix do Araguaia",
        "addr:postcode": "78670-000",
        "addr:suburb": "Vila Santo Antônio",
        "description": "Órgão do DETRAN-MT",
        "name": "21ª Ciretran",
        "office": "government",
        "id": "node/5884972771"
      },
      "geometry": {
        "type": "Point",
        "coordinates": [
          -50.6905302,
          -11.6230782
        ]
      }
    }
  ]
}
