{
  "type": "FeatureCollection",
  "features": [
    {
      "type": "Feature",
      "id": "way/681875889",
      "properties": {
        "timestamp": "2019-04-05T14:12:39Z",
        "version": 1,
        "changeset": 68923556,
        "addr:city": "Serra Redonda",
        "addr:postcode": "58385-000",
        "addr:street": "Rua São Miguel",
        "addr:suburb": "Centro",
        "amenity": "school",
        "name": "Ruy Carneiro",
        "id": "way/681875889"
      },
      "geometry": {
        "type": "Polygon",
        "coordinates": [
          [
            [
              -35.6785131,
              -7.1810902
            ],
            [
              -35.6786476,
              -7.1812184
            ],
            [
              -35.6785096,
              -7.1813641
            ],
            [
              -35.678368,
              -7.1812219
            ],
            [
              -35.6785131,
              -7.1810902
            ]
          ]
        ]
      }
    },
    {
      "type": "Feature",
      "id": "way/681875900",
      "properties": {
        "timestamp": "2019-04-05T14:12:39Z",
        "version": 1,
        "changeset": 68923556,
        "addr:city": "Serra Redonda",
        "addr:postcode": "58385-000",
        "addr:street": "Rua José Cabral",
        "addr:suburb": "Centro",
        "amenity": "school",
        "name": "Instituto Pe. João",
        "id": "way/681875900"
      },
      "geometry": {
        "type": "Polygon",
        "coordinates": [
          [
            [
              -35.6791176,
              -7.1835135
            ],
            [
              -35.679203,
              -7.1833865
            ],
            [
              -35.6792721,
              -7.1834389
            ],
            [
              -35.6791826,
              -7.1835599
            ],
            [
              -35.6791176,
              -7.1835135
            ]
          ]
        ]
      }
    },
    {
      "type": "Feature",
      "id": "way/681875901",
      "properties": {
        "timestamp": "2019-04-05T14:12:39Z",
        "version": 1,
        "changeset": 68923556,
        "addr:city": "Serra Redonda",
        "addr:postcode": "58385-000",
        "addr:street": "Rua Trinta de Dezembro",
        "addr:suburb": "Centro",
        "amenity": "school",
        "name": "Escola Eduardo Medeiros",
        "id": "way/681875901"
      },
      "geometry": {
        "type": "Polygon",
        "coordinates": [
          [
            [
              -35.6801096,
              -7.186452
            ],
            [
              -35.6798392,
              -7.1862483
            ],
            [
              -35.6798758,
              -7.1862059
            ],
            [
              -35.6799592,
              -7.1861071
            ],
            [
              -35.6799348,
              -7.1860869
            ],
            [
              -35.6799856,
              -7.1860264
            ],
            [
              -35.6802681,
              -7.1862564
            ],
            [
              -35.6801096,
              -7.186452
            ]
          ]
        ]
      }
    },
    {
      "type": "Feature",
      "id": "node/2672447951",
      "properties": {
        "timestamp": "2016-12-12T20:38:47Z",
        "version": 3,
        "changeset": 44357422,
        "addr:city": "Serra Redonda",
        "addr:postcode": "58385-000",
        "addr:street": "Rua Trinta de Dezembro",
        "amenity": "school",
        "name": "Grupo Escolar Eduardo Medeiros",
        "id": "node/2672447951"
      },
      "geometry": {
        "type": "Point",
        "coordinates": [
          -35.679924,
          -7.1862659
        ]
      }
    },
    {
      "type": "Feature",
      "id": "node/6385733183",
      "properties": {
        "timestamp": "2019-04-05T14:15:22Z",
        "version": 2,
        "changeset": 68923658,
        "addr:city": "Serra Redonda",
        "addr:postcode": "58385-000",
        "addr:street": "Rua São Miguel",
        "addr:suburb": "Centro",
        "amenity": "school",
        "name": "Ruy Carneiro",
        "id": "node/6385733183"
      },
      "geometry": {
        "type": "Point",
        "coordinates": [
          -35.6785025,
          -7.1812131
        ]
      }
    }
  ]
}
