{
  "type": "FeatureCollection",
  "features": [
    {
      "type": "Feature",
      "id": "way/261639350",
      "properties": {
        "timestamp": "2019-04-05T14:12:40Z",
        "version": 7,
        "changeset": 68923556,
        "addr:city": "Serra Redonda",
        "addr:postcode": "58385-000",
        "addr:street": "Rua Francisco Clementino Andrade",
        "addr:suburb": "Centro",
        "fee": "no",
        "leisure": "sports_centre",
        "name": "Estádio de Futebol - O Gilbertão",
        "sport": "soccer;athletics;walk;foot",
        "id": "way/261639350"
      },
      "geometry": {
        "type": "Polygon",
        "coordinates": [
          [
            [
              -35.6787567,
              -7.1796088
            ],
            [
              -35.6793785,
              -7.179791
            ],
            [
              -35.6790886,
              -7.1806269
            ],
            [
              -35.6784782,
              -7.1804152
            ],
            [
              -35.6787567,
              -7.1796088
            ]
          ]
        ]
      }
    },
    {
      "type": "Feature",
      "id": "way/681286014",
      "properties": {
        "timestamp": "2019-04-05T14:12:40Z",
        "version": 2,
        "changeset": 68923556,
        "addr:city": "Serra Redonda",
        "addr:postcode": "58385-000",
        "addr:street": "Rua Epitácio Pessoa",
        "addr:suburb": "Centro",
        "landuse": "recreation_ground",
        "name": "Pátio São Pedro",
        "sport": "athletics,foot,walk",
        "id": "way/681286014"
      },
      "geometry": {
        "type": "Polygon",
        "coordinates": [
          [
            [
              -35.6785545,
              -7.1833277
            ],
            [
              -35.6788054,
              -7.1835067
            ],
            [
              -35.6786544,
              -7.1836672
            ],
            [
              -35.6784094,
              -7.1834838
            ],
            [
              -35.6785545,
              -7.1833277
            ]
          ]
        ]
      }
    },
    {
      "type": "Feature",
      "id": "way/681875896",
      "properties": {
        "timestamp": "2019-04-05T14:12:39Z",
        "version": 1,
        "changeset": 68923556,
        "addr:city": "Serra Redonda",
        "addr:postcode": "58385-000",
        "addr:street": "Rua José Cabral",
        "addr:suburb": "Centro",
        "building": "yes",
        "leisure": "fitness_centre",
        "name": "Academia Serra Fitness",
        "sport": "running;bodybuilding",
        "id": "way/681875896"
      },
      "geometry": {
        "type": "Polygon",
        "coordinates": [
          [
            [
              -35.6789635,
              -7.183384
            ],
            [
              -35.6790375,
              -7.1832556
            ],
            [
              -35.679096,
              -7.1832877
            ],
            [
              -35.6790128,
              -7.1834161
            ],
            [
              -35.6789635,
              -7.183384
            ]
          ]
        ]
      }
    }
  ]
}
