{
  "type": "FeatureCollection",
  "features": [
    {
      "type": "Feature",
      "id": "way/1034232926",
      "properties": {
        "timestamp": "2025-01-26T14:38:48Z",
        "version": 4,
        "changeset": 161782696,
        "addr:city": "São Francisco do Sul",
        "addr:housenumber": "720",
        "addr:postcode": "89240-000",
        "addr:street": "Rua Blandina Steiner Beckhauser",
        "addr:suburb": "Ubatuba",
        "building": "hotel",
        "email": "caprihotel@gmail.com",
        "name": "Capri Hotel",
        "phone": "+55 47 99611-4608",
        "tourism": "hotel",
        "website": "https://www.facebook.com/profile.php?id=100054327800128",
        "id": "way/1034232926"
      },
      "geometry": {
        "type": "Polygon",
        "coordinates": [
          [
            [
              -48.5708333,
              -26.1873366
            ],
            [
              -48.5707075,
              -26.1874838
            ],
            [
              -48.5705255,
              -26.1873585
            ],
            [
              -48.5706513,
              -26.1872113
            ],
            [
              -48.5708333,
              -26.1873366
            ]
          ]
        ]
      }
    },
    {
      "type": "Feature",
      "id": "way/1081030416",
      "properties": {
        "timestamp": "2025-01-26T12:13:06Z",
        "version": 3,
        "changeset": 161777660,
        "access": "private",
        "addr:city": "São Francisco do Sul",
        "addr:postcode": "89240-000",
        "addr:street": "Estrada do Forte",
        "addr:suburb": "Ubatuba",
        "building": "yes",
        "name": "Hotel de Trânsito Forte Marechal Luz",
        "nohousenumber": "yes",
        "tourism": "hotel",
        "id": "way/1081030416"
      },
      "geometry": {
        "type": "Polygon",
        "coordinates": [
          [
            [
              -48.5342086,
              -26.1680086
            ],
            [
              -48.5341357,
              -26.168111
            ],
            [
              -48.5339488,
              -26.1680037
            ],
            [
              -48.5340106,
              -26.1679169
            ],
            [
              -48.5340217,
              -26.1679013
            ],
            [
              -48.5342086,
              -26.1680086
            ]
          ]
        ]
      }
    },
    {
      "type": "Feature",
      "id": "way/1356959957",
      "properties": {
        "timestamp": "2025-02-05T16:37:51Z",
        "version": 1,
        "changeset": 162173012,
        "addr:street": "Avenida José Raimundo Batista",
        "building": "yes",
        "name": "Hotel e Restaurante Jaci Zinho",
        "tourism": "hotel",
        "id": "way/1356959957"
      },
      "geometry": {
        "type": "Polygon",
        "coordinates": [
          [
            [
              -48.7000866,
              -26.248097
            ],
            [
              -48.7000375,
              -26.2482378
            ],
            [
              -48.6999183,
              -26.2481869
            ],
            [
              -48.6999732,
              -26.2480478
            ],
            [
              -48.7000866,
              -26.248097
            ]
          ]
        ]
      }
    },
    {
      "type": "Feature",
      "id": "node/1765735738",
      "properties": {
        "timestamp": "2024-04-18T18:06:21Z",
        "version": 3,
        "changeset": 150188561,
        "addr:city": "São Francisco do Sul/SC",
        "addr:housenumber": "1135",
        "addr:postcode": "89240-000",
        "addr:street": "Rua Francisco Machado de Souza",
        "addr:suburb": "Paulas",
        "air_conditioning": "yes",
        "bar": "yes",
        "brand": "Hotéis VillaReal",
        "email": "saofrancisco@villareal.com.br",
        "image": "https://www.hoteisvillareal.com.br/wp-content/uploads/2023/11/piscina-hotel-villa-real-em-sao-francisco-do-sul.png",
        "internet_access": "wlan",
        "internet_access:fee": "customers",
        "level": "6",
        "mobile": "+55 47 9985-0720",
        "name": "Hotel Villa Real",
        "phone": "+55 47 3471-5800",
        "reservation": "recommended",
        "rooms": "71",
        "source": "IBGE",
        "stars": "4",
        "tourism": "hotel",
        "website": "https://www.hoteisvillareal.com.br/sao-francisco-do-sul/",
        "wheelchair": "yes",
        "id": "node/1765735738"
      },
      "geometry": {
        "type": "Point",
        "coordinates": [
          -48.627357,
          -26.2302296
        ]
      }
    },
    {
      "type": "Feature",
      "id": "node/3442208544",
      "properties": {
        "timestamp": "2022-05-26T16:05:39Z",
        "version": 10,
        "changeset": 121534734,
        "addr:city": "São Francisco do Sul",
        "addr:housenumber": "555",
        "addr:postcode": "89240-000",
        "addr:street": "Rua Roma",
        "addr:suburb": "Itaguaçu",
        "name": "Hotel Porto de Paz",
        "phone": "+55 47 3442-5706",
        "tourism": "hotel",
        "website": "https://hotelportodepaz.com.br/",
        "id": "node/3442208544"
      },
      "geometry": {
        "type": "Point",
        "coordinates": [
          -48.5299832,
          -26.1853969
        ]
      }
    },
    {
      "type": "Feature",
      "id": "node/3495630926",
      "properties": {
        "timestamp": "2017-03-27T21:54:29Z",
        "version": 5,
        "changeset": 47213643,
        "addr:city": "São Francisco do Sul",
        "addr:housenumber": "27",
        "addr:postcode": "89240-000",
        "addr:street": "Rua Fernandes Dias",
        "addr:suburb": "Centro",
        "email": "contato@hotelzibamba.com.br",
        "name": "Hotel Zibamba",
        "phone": "+55 47 3444 2020",
        "source": "Bing;survey",
        "tourism": "hotel",
        "website": "http://www.hotelzibamba.com.br/",
        "id": "node/3495630926"
      },
      "geometry": {
        "type": "Point",
        "coordinates": [
          -48.6397106,
          -26.2422356
        ]
      }
    },
    {
      "type": "Feature",
      "id": "node/3525969275",
      "properties": {
        "timestamp": "2025-02-08T20:13:30Z",
        "version": 8,
        "changeset": 162293259,
        "addr:city": "São Francisco do Sul",
        "addr:housenumber": "512",
        "addr:postcode": "89240-000",
        "addr:street": "Rua Ancara",
        "addr:suburb": "Ubatuba",
        "name": "Macs Hotel",
        "phone": "+55 47 3442 5050",
        "source": "Bing;survey",
        "tourism": "hotel",
        "website": "http://www.macshotel.com.br/",
        "id": "node/3525969275"
      },
      "geometry": {
        "type": "Point",
        "coordinates": [
          -48.5292054,
          -26.2067419
        ]
      }
    },
    {
      "type": "Feature",
      "id": "node/3526251543",
      "properties": {
        "timestamp": "2023-03-04T20:40:40Z",
        "version": 5,
        "changeset": 133305630,
        "addr:city": "São Francisco do Sul",
        "addr:housenumber": "2662",
        "addr:postcode": "89240-000",
        "addr:street": "Rodovia Duque de Caxias",
        "addr:suburb": "Ubatuba",
        "name": "Hotel e Pousada Bom Abrigo",
        "phone": "+55 47 3442 3741",
        "source": "Bing;survey",
        "tourism": "hotel",
        "website": "http://www.pousadabomabrigo.blogspot.com",
        "id": "node/3526251543"
      },
      "geometry": {
        "type": "Point",
        "coordinates": [
          -48.5280637,
          -26.2073997
        ]
      }
    },
    {
      "type": "Feature",
      "id": "node/3723146655",
      "properties": {
        "timestamp": "2023-10-22T20:00:48Z",
        "version": 5,
        "changeset": 142984897,
        "addr:city": "São Francisco do Sul",
        "addr:postcode": "89240-000",
        "addr:street": "Estrada do Forte",
        "email": "informacoes@pousadadomorrosaochico.com",
        "name": "Pousada do Morro",
        "phone": "+55 47 3442-2944",
        "source": "Bing;survey",
        "tourism": "hotel",
        "website": "https://pousadadomorrosaochico.com/",
        "id": "node/3723146655"
      },
      "geometry": {
        "type": "Point",
        "coordinates": [
          -48.5332053,
          -26.1739565
        ]
      }
    },
    {
      "type": "Feature",
      "id": "node/4755141367",
      "properties": {
        "timestamp": "2025-01-26T21:11:30Z",
        "version": 2,
        "changeset": 161795699,
        "addr:city": "São Francisco do Sul",
        "addr:postcode": "89240-000",
        "addr:street": "Avenida Atlântica",
        "addr:suburb": "Praia do Ervino",
        "name": "São Francisco Praia Flat",
        "tourism": "hotel",
        "id": "node/4755141367"
      },
      "geometry": {
        "type": "Point",
        "coordinates": [
          -48.5841882,
          -26.3885259
        ]
      }
    },
    {
      "type": "Feature",
      "id": "node/7242373756",
      "properties": {
        "timestamp": "2024-07-18T01:13:36Z",
        "version": 2,
        "changeset": 154079926,
        "addr:city": "São Francisco do Sul",
        "addr:housenumber": "26",
        "addr:postcode": "89240-000",
        "addr:street": "Rua Aurora",
        "addr:suburb": "Ubatuba",
        "name": "Sindicato dos Metalúrgicos Colônia de Férias",
        "tourism": "hotel",
        "website": "https://www.metalurgicosjoinville.com.br/colonia-de-ferias/",
        "id": "node/7242373756"
      },
      "geometry": {
        "type": "Point",
        "coordinates": [
          -48.5288723,
          -26.2151509
        ]
      }
    },
    {
      "type": "Feature",
      "id": "node/7242387410",
      "properties": {
        "timestamp": "2023-09-13T11:32:10Z",
        "version": 2,
        "changeset": 141206279,
        "addr:city": "São Francisco do Sul",
        "addr:street": "Estrada do Forte",
        "addr:suburb": "Itaguaçu",
        "name": "Sindicato dos Mecânicos Colônia de Férias",
        "phone": "+55 47 3442-3202",
        "tourism": "hotel",
        "id": "node/7242387410"
      },
      "geometry": {
        "type": "Point",
        "coordinates": [
          -48.5333982,
          -26.1819217
        ]
      }
    },
    {
      "type": "Feature",
      "id": "node/8394051815",
      "properties": {
        "timestamp": "2021-02-04T13:54:31Z",
        "version": 1,
        "changeset": 98709549,
        "addr:city": "São Francisco do Sul",
        "addr:housenumber": "2657",
        "addr:postcode": "89240-000",
        "addr:street": "Avenida Jaime Ernesto de Oliveira",
        "addr:suburb": "Itaguaçu",
        "email": "contato@recantodaval.com.br",
        "internet_access": "yes",
        "name": "Recanto da Val",
        "phone": "+55 47 3804-3963",
        "tourism": "hotel",
        "website": "https://www.recantodaval.com.br/",
        "id": "node/8394051815"
      },
      "geometry": {
        "type": "Point",
        "coordinates": [
          -48.5287875,
          -26.1877635
        ]
      }
    },
    {
      "type": "Feature",
      "id": "node/8408662564",
      "properties": {
        "timestamp": "2023-03-04T20:40:40Z",
        "version": 2,
        "changeset": 133305630,
        "addr:city": "São Francisco do Sul",
        "addr:housenumber": "545",
        "addr:postcode": "89240-000",
        "addr:street": "Rua Oslo",
        "addr:suburb": "Itaguaçu",
        "name": "Pousada Canto das Ondas",
        "tourism": "hotel",
        "id": "node/8408662564"
      },
      "geometry": {
        "type": "Point",
        "coordinates": [
          -48.530007,
          -26.1865279
        ]
      }
    },
    {
      "type": "Feature",
      "id": "node/10542008038",
      "properties": {
        "timestamp": "2024-07-18T01:13:36Z",
        "version": 2,
        "changeset": 154079926,
        "addr:city": "São Francisco do Sul",
        "addr:housenumber": "73",
        "addr:postcode": "89240-000",
        "addr:street": "Avenida Santa Catarina",
        "addr:suburb": "Enseada",
        "name": "Gaivotas Praia Hotel",
        "phone": "+55 47 3449-2024",
        "tourism": "hotel",
        "website": "https://www.hotelgaivotas.com.br/",
        "id": "node/10542008038"
      },
      "geometry": {
        "type": "Point",
        "coordinates": [
          -48.515251,
          -26.2248195
        ]
      }
    },
    {
      "type": "Feature",
      "id": "node/10542008039",
      "properties": {
        "timestamp": "2024-07-18T01:13:36Z",
        "version": 3,
        "changeset": 154079926,
        "addr:city": "São Francisco do Sul",
        "addr:housenumber": "195",
        "addr:postcode": "89240-000",
        "addr:street": "Rua Agronômica",
        "addr:suburb": "Ubatuba",
        "name": "Hostel da Ilha de São Francisco do Sul",
        "phone": "+55 47 99960-8363",
        "tourism": "hotel",
        "id": "node/10542008039"
      },
      "geometry": {
        "type": "Point",
        "coordinates": [
          -48.5287015,
          -26.2125459
        ]
      }
    },
    {
      "type": "Feature",
      "id": "node/12444608252",
      "properties": {
        "timestamp": "2025-01-21T00:56:29Z",
        "version": 2,
        "changeset": 161582960,
        "addr:city": "São Francisco do Sul",
        "addr:housenumber": "95",
        "addr:postcode": "89240-000",
        "addr:street": "Rua Comandante Cabo",
        "addr:suburb": "Centro",
        "name": "Hotel Solar da Beira",
        "phone": "+55 47 3444-5835",
        "rooms": "28",
        "tourism": "hotel",
        "website": "https://www.hotelsolardabeira.com.br/",
        "id": "node/12444608252"
      },
      "geometry": {
        "type": "Point",
        "coordinates": [
          -48.6418735,
          -26.247574
        ]
      }
    }
  ]
}
