{
  "type": "FeatureCollection",
  "features": [
    {
      "type": "Feature",
      "id": "way/390026792",
      "properties": {
        "timestamp": "2016-01-07T11:19:25Z",
        "version": 2,
        "changeset": 36421855,
        "addr:city": "Novo Hamburgo",
        "addr:housenumber": "2460",
        "addr:postcode": "93490-720",
        "addr:street": "Estrada do Quilombo",
        "addr:suburb": "Lomba Grande",
        "building": "yes",
        "name": "Sítio da Bike",
        "shop": "bicycle",
        "id": "way/390026792"
      },
      "geometry": {
        "type": "Polygon",
        "coordinates": [
          [
            [
              -51.063705,
              -29.770947
            ],
            [
              -51.0636141,
              -29.7709569
            ],
            [
              -51.0635954,
              -29.7708266
            ],
            [
              -51.0634911,
              -29.7708379
            ],
            [
              -51.0634813,
              -29.7707698
            ],
            [
              -51.0635992,
              -29.770757
            ],
            [
              -51.0635898,
              -29.7706921
            ],
            [
              -51.0636604,
              -29.7706845
            ],
            [
              -51.0636682,
              -29.7707384
            ],
            [
              -51.063707,
              -29.7707342
            ],
            [
              -51.0637298,
              -29.7708929
            ],
            [
              -51.0636977,
              -29.7708963
            ],
            [
              -51.063705,
              -29.770947
            ]
          ]
        ]
      }
    },
    {
      "type": "Feature",
      "id": "way/1209630441",
      "properties": {
        "timestamp": "2023-09-21T02:51:29Z",
        "version": 1,
        "changeset": 141537275,
        "addr:city": "Novo Hamburgo",
        "addr:housenumber": "616",
        "addr:postcode": "93510-078",
        "addr:street": "Avenida Nicolau Becker",
        "addr:suburb": "Guarani",
        "building": "yes",
        "building:levels": "2",
        "name": "Stefani Bike",
        "phone": "+55 51 3035 7970",
        "shop": "bicycle",
        "website": "https://stefanibike.com.br",
        "id": "way/1209630441"
      },
      "geometry": {
        "type": "Polygon",
        "coordinates": [
          [
            [
              -51.1298243,
              -29.6806113
            ],
            [
              -51.1299274,
              -29.6806737
            ],
            [
              -51.1298657,
              -29.6809091
            ],
            [
              -51.129772,
              -29.6808502
            ],
            [
              -51.1298243,
              -29.6806113
            ]
          ]
        ]
      }
    },
    {
      "type": "Feature",
      "id": "node/5064481222",
      "properties": {
        "timestamp": "2017-09-02T14:52:32Z",
        "version": 2,
        "changeset": 51671769,
        "addr:housenumber": "2886",
        "addr:street": "Nações Unidas",
        "name": "Casa Ciclista",
        "name:en": "Cicle Verão",
        "shop": "bicycle",
        "id": "node/5064481222"
      },
      "geometry": {
        "type": "Point",
        "coordinates": [
          -51.1344177,
          -29.7094783
        ]
      }
    }
  ]
}
