{
  "type": "FeatureCollection",
  "features": [
    {
      "type": "Feature",
      "id": "node/10104525658",
      "properties": {
        "timestamp": "2022-10-15T22:31:05Z",
        "version": 1,
        "changeset": 127591369,
        "addr:city": "Novo Hamburgo",
        "addr:housenumber": "2001",
        "addr:street": "Avenida Nações Unidas",
        "addr:suburb": "Rio Branco",
        "air_conditioning": "yes",
        "amenity": "cinema",
        "brand": "Cinemark",
        "brand:wikidata": "Q707530",
        "cinema:3D": "yes",
        "level": "2",
        "name": "Cinemark",
        "payment:app": "yes",
        "payment:cash": "yes",
        "payment:credit_cards": "yes",
        "payment:debit_cards": "yes",
        "screen": "4",
        "website": "https://www.cinemark.com.br/novo-hamburgo",
        "wheelchair": "yes",
        "id": "node/10104525658"
      },
      "geometry": {
        "type": "Point",
        "coordinates": [
          -51.1340976,
          -29.6859951
        ]
      }
    }
  ]
}
