{
  "type": "FeatureCollection",
  "features": [
    {
      "type": "Feature",
      "id": "way/681300988",
      "properties": {
        "timestamp": "2019-04-10T00:56:26Z",
        "version": 2,
        "changeset": 69065119,
        "building": "yes",
        "office": "government",
        "id": "way/681300988"
      },
      "geometry": {
        "type": "Polygon",
        "coordinates": [
          [
            [
              -51.1282884,
              -29.7007554
            ],
            [
              -51.1282025,
              -29.7015476
            ],
            [
              -51.1273925,
              -29.7015103
            ],
            [
              -51.1273442,
              -29.7008067
            ],
            [
              -51.1282884,
              -29.7007554
            ]
          ]
        ]
      }
    },
    {
      "type": "Feature",
      "id": "way/681304029",
      "properties": {
        "timestamp": "2019-04-03T05:12:58Z",
        "version": 1,
        "changeset": 68822753,
        "addr:city": "Novo Hamburgo",
        "addr:housenumber": "636",
        "addr:street": "Rua Confraternização",
        "addr:suburb": "Pátria Nova",
        "building": "yes",
        "government": "register_office",
        "name": "CRVA Novo Hamburgo",
        "office": "government",
        "id": "way/681304029"
      },
      "geometry": {
        "type": "Polygon",
        "coordinates": [
          [
            [
              -51.1292999,
              -29.6972865
            ],
            [
              -51.1294485,
              -29.6975048
            ],
            [
              -51.1291371,
              -29.6976401
            ],
            [
              -51.1289813,
              -29.6974249
            ],
            [
              -51.1292999,
              -29.6972865
            ]
          ]
        ]
      }
    },
    {
      "type": "Feature",
      "id": "way/681304164",
      "properties": {
        "timestamp": "2019-04-03T05:14:44Z",
        "version": 1,
        "changeset": 68822787,
        "addr:city": "Novo Hamburgo",
        "addr:housenumber": "3713",
        "addr:street": "Avenida Pedro Adams Filho",
        "addr:suburb": "Pátria Nova",
        "building": "yes",
        "government": "register_office",
        "name": "76ª Zona Eleitoral",
        "office": "government",
        "id": "way/681304164"
      },
      "geometry": {
        "type": "Polygon",
        "coordinates": [
          [
            [
              -51.1313098,
              -29.699084
            ],
            [
              -51.1314251,
              -29.6993216
            ],
            [
              -51.131055,
              -29.6994078
            ],
            [
              -51.1309772,
              -29.6991609
            ],
            [
              -51.1313098,
              -29.699084
            ]
          ]
        ]
      }
    },
    {
      "type": "Feature",
      "id": "node/10133840611",
      "properties": {
        "timestamp": "2022-10-27T20:33:39Z",
        "version": 2,
        "changeset": 128146244,
        "addr:city": "Novo Hamburgo",
        "addr:housenumber": "60",
        "addr:street": "Travessa Nicolau Edmundo Blauth",
        "addr:suburb": "Centro",
        "check_date": "2022-10-27",
        "government": "administrative",
        "name": "IBGE - Agencia Novo Hamburgo",
        "office": "government",
        "id": "node/10133840611"
      },
      "geometry": {
        "type": "Point",
        "coordinates": [
          -51.1295348,
          -29.6819241
        ]
      }
    }
  ]
}
