{
  "type": "FeatureCollection",
  "features": [
    {
      "type": "Feature",
      "id": "way/1016759331",
      "properties": {
        "timestamp": "2023-04-04T12:09:15Z",
        "version": 4,
        "changeset": 134493132,
        "addr:city": "Novo Hamburgo",
        "addr:housenumber": "652",
        "addr:postcode": "93310-330",
        "addr:street": "Rua Pedro Álvares Cabral",
        "addr:suburb": "Vila Rosa",
        "amenity": "kindergarten",
        "building": "school",
        "building:levels": "1",
        "check_date": "2023-04-04",
        "name": "Escola de Educação Infantil Super Kids",
        "preschool": "yes",
        "id": "way/1016759331"
      },
      "geometry": {
        "type": "Polygon",
        "coordinates": [
          [
            [
              -51.1349838,
              -29.6800866
            ],
            [
              -51.1349508,
              -29.6802897
            ],
            [
              -51.1348442,
              -29.6802767
            ],
            [
              -51.1348772,
              -29.6800736
            ],
            [
              -51.1349838,
              -29.6800866
            ]
          ]
        ]
      }
    },
    {
      "type": "Feature",
      "id": "way/1154150336",
      "properties": {
        "timestamp": "2023-03-14T00:00:27Z",
        "version": 1,
        "changeset": 133645690,
        "addr:city": "Novo Hamburgo",
        "addr:housenumber": "675",
        "addr:street": "Rua Doutor Magalhães Calvet",
        "addr:suburb": "Operário",
        "amenity": "kindergarten",
        "building:levels": "1",
        "name": "Castelo do Gigante",
        "phone": "+55 51 3594 8142",
        "preschool": "yes",
        "id": "way/1154150336"
      },
      "geometry": {
        "type": "Polygon",
        "coordinates": [
          [
            [
              -51.1317539,
              -29.678201
            ],
            [
              -51.1317752,
              -29.6783907
            ],
            [
              -51.1316595,
              -29.6784005
            ],
            [
              -51.1316571,
              -29.6783787
            ],
            [
              -51.1315733,
              -29.6783858
            ],
            [
              -51.1315761,
              -29.6784113
            ],
            [
              -51.131466,
              -29.6784205
            ],
            [
              -51.131449,
              -29.6782683
            ],
            [
              -51.1315632,
              -29.6782586
            ],
            [
              -51.1315691,
              -29.6783116
            ],
            [
              -51.131644,
              -29.6783052
            ],
            [
              -51.1316335,
              -29.6782112
            ],
            [
              -51.1317539,
              -29.678201
            ]
          ]
        ]
      }
    },
    {
      "type": "Feature",
      "id": "node/1251594123",
      "properties": {
        "timestamp": "2011-04-19T18:51:52Z",
        "version": 1,
        "changeset": 7909471,
        "amenity": "kindergarten",
        "name": "Escola Anjinhos",
        "id": "node/1251594123"
      },
      "geometry": {
        "type": "Point",
        "coordinates": [
          -51.1261885,
          -29.68782
        ]
      }
    },
    {
      "type": "Feature",
      "id": "node/9494238635",
      "properties": {
        "timestamp": "2022-10-17T23:33:43Z",
        "version": 2,
        "changeset": 127697995,
        "addr:city": "Novo Hamburgo",
        "addr:housenumber": "604",
        "addr:postcode": "93310-320",
        "addr:street": "Rua Cristóvão Colombo",
        "addr:suburb": "Vila Rosa",
        "amenity": "kindergarten",
        "contact:email": "escolainfantilsapeka@gmail.com",
        "contact:facebook": "https://www.facebook.com/www.escolasapeka.com.br/",
        "contact:phone": "+55 51 3066 5639",
        "contact:website": "https://escola-de-educacao-infantil-sapeka.negocio.site/https://escola-de-educacao-infantil-sapeka.negocio.site/",
        "name": "Sapeka",
        "opening_hours": "Mo-Fr 07:00-19:00",
        "phone": "+55 51 99286 0586",
        "id": "node/9494238635"
      },
      "geometry": {
        "type": "Point",
        "coordinates": [
          -51.1327319,
          -29.6808699
        ]
      }
    },
    {
      "type": "Feature",
      "id": "node/9509591140",
      "properties": {
        "timestamp": "2022-02-16T03:34:48Z",
        "version": 1,
        "changeset": 117458077,
        "addr:city": "Novo Hamburgo",
        "addr:housenumber": "418",
        "addr:postcode": "93315-010",
        "addr:street": "Rua Cristóvão Colombo",
        "addr:suburb": "Vila Rosa",
        "amenity": "kindergarten",
        "contact:instagram": "https://www.instagram.com/gentemiudinha.nh/",
        "contact:phone": "+55 51 3586 7448",
        "contact:whatsapp": "+55 51 99575 9316",
        "name": "Escola Gente Miudinha",
        "preschool": "yes",
        "id": "node/9509591140"
      },
      "geometry": {
        "type": "Point",
        "coordinates": [
          -51.1316259,
          -29.6807306
        ]
      }
    }
  ]
}
