{
  "type": "FeatureCollection",
  "features": [
    {
      "type": "Feature",
      "id": "way/107641500",
      "properties": {
        "timestamp": "2023-10-29T07:21:24Z",
        "version": 2,
        "changeset": 143298713,
        "addr:city": "Novo Hamburgo",
        "addr:country": "BR",
        "addr:housenumber": "485",
        "addr:street": "Rua Rincão",
        "amenity": "social_facility",
        "landuse": "residential",
        "name": "Casa Viva Bem",
        "social_facility": "assisted_living",
        "social_facility:for": "senior",
        "website": "https://www.casavivabem.com.br/",
        "id": "way/107641500"
      },
      "geometry": {
        "type": "Polygon",
        "coordinates": [
          [
            [
              -51.140375,
              -29.6700621
            ],
            [
              -51.1402902,
              -29.6695319
            ],
            [
              -51.1406046,
              -29.6694939
            ],
            [
              -51.1406454,
              -29.6697489
            ],
            [
              -51.1406657,
              -29.6698759
            ],
            [
              -51.1406894,
              -29.6700242
            ],
            [
              -51.140375,
              -29.6700621
            ]
          ]
        ]
      }
    },
    {
      "type": "Feature",
      "id": "way/1154149786",
      "properties": {
        "timestamp": "2023-03-13T23:51:44Z",
        "version": 1,
        "changeset": 133645576,
        "addr:city": "Novo Hamburgo",
        "addr:housenumber": "6059",
        "addr:postcode": "93520-627",
        "addr:street": "Avenida Pedro Adams Filho",
        "addr:suburb": "Guarani",
        "amenity": "social_facility",
        "building": "yes",
        "building:levels": "1",
        "check_date": "2023-03-10",
        "contact:instagram": "https://www.instagram.com/idosos.aconchego/",
        "contact:whatsapp": "+55 51 98032 2878",
        "name": "Casa Lar Aconchego do Idoso",
        "opening_hours": "09:00-18:00",
        "phone": "+55 51 3097 4675",
        "social_facility": "group_home",
        "social_facility:for": "senior",
        "website": "https://casa-lar-aconchego-do-idoso.business.site/",
        "wheelchair": "yes",
        "id": "way/1154149786"
      },
      "geometry": {
        "type": "Polygon",
        "coordinates": [
          [
            [
              -51.1308728,
              -29.6781181
            ],
            [
              -51.1308158,
              -29.6783623
            ],
            [
              -51.1305897,
              -29.6783225
            ],
            [
              -51.1306153,
              -29.6782126
            ],
            [
              -51.1307212,
              -29.6782312
            ],
            [
              -51.1307526,
              -29.6780969
            ],
            [
              -51.1308728,
              -29.6781181
            ]
          ]
        ]
      }
    },
    {
      "type": "Feature",
      "id": "node/9509591243",
      "properties": {
        "timestamp": "2022-10-27T17:31:24Z",
        "version": 2,
        "changeset": 128139985,
        "addr:city": "Novo Hamburgo",
        "addr:housenumber": "160",
        "addr:postcode": "93315-040",
        "addr:street": "Rua Carlos Gomes",
        "addr:suburb": "Vila Rosa",
        "amenity": "social_facility",
        "check_date": "2022-10-27",
        "contact:email": "relacionamento.sinfonia@gmail.com",
        "contact:phone": "+55 51 3939 2300",
        "contact:website": "https://sinfoniavaledosinos.com.br/",
        "name": "Sinfonia Hotel Residência",
        "opening_hours": "24/7",
        "social_facility": "nursing_home",
        "social_facility:for": "senior",
        "wheelchair": "yes",
        "id": "node/9509591243"
      },
      "geometry": {
        "type": "Point",
        "coordinates": [
          -51.1332422,
          -29.6819026
        ]
      }
    },
    {
      "type": "Feature",
      "id": "node/10163974977",
      "properties": {
        "timestamp": "2022-11-06T22:38:32Z",
        "version": 1,
        "changeset": 128572776,
        "addr:housenumber": "321",
        "addr:street": "Rua Carlos Gomes",
        "amenity": "social_facility",
        "check_date": "2022-11-05",
        "name": "Lar Bom Jardim",
        "social_facility": "nursing_home",
        "social_facility:for": "senior",
        "wheelchair": "yes",
        "id": "node/10163974977"
      },
      "geometry": {
        "type": "Point",
        "coordinates": [
          -51.1346754,
          -29.681841
        ]
      }
    }
  ]
}
