{
  "type": "FeatureCollection",
  "features": [
    {
      "type": "Feature",
      "id": "node/7804666518",
      "properties": {
        "timestamp": "2022-10-04T14:27:21Z",
        "version": 2,
        "changeset": 126998924,
        "addr:city": "Sabin처polis",
        "addr:housenumber": "115",
        "addr:postcode": "39750-000",
        "addr:street": "Rua Urias Souza Os처rio",
        "addr:suburb": "Centro",
        "name": "Hotel S찾o Joaquim",
        "phone": "+55 33 3423 1447",
        "tourism": "hotel",
        "id": "node/7804666518"
      },
      "geometry": {
        "type": "Point",
        "coordinates": [
          -43.0812584,
          -18.6672241
        ]
      }
    },
    {
      "type": "Feature",
      "id": "node/7804666519",
      "properties": {
        "timestamp": "2020-08-11T18:39:32Z",
        "version": 1,
        "changeset": 89265767,
        "tourism": "hotel",
        "id": "node/7804666519"
      },
      "geometry": {
        "type": "Point",
        "coordinates": [
          -43.0814327,
          -18.6672978
        ]
      }
    },
    {
      "type": "Feature",
      "id": "node/10075189138",
      "properties": {
        "timestamp": "2022-10-04T14:27:21Z",
        "version": 1,
        "changeset": 126998924,
        "addr:city": "Sabin처polis",
        "addr:housenumber": "168",
        "addr:postcode": "39750-000",
        "addr:street": "Rua Humberto de Pinho",
        "addr:suburb": "Centro",
        "name": "Humberto'S Hotel e Restaurante",
        "phone": "+55 33 3423 1053",
        "tourism": "hotel",
        "id": "node/10075189138"
      },
      "geometry": {
        "type": "Point",
        "coordinates": [
          -43.0823936,
          -18.6653067
        ]
      }
    }
  ]
}
