{
  "type": "FeatureCollection",
  "features": [
    {
      "type": "Feature",
      "id": "node/10075189144",
      "properties": {
        "timestamp": "2022-10-04T14:27:21Z",
        "version": 1,
        "changeset": 126998924,
        "addr:city": "Sabinópolis",
        "addr:housenumber": "91",
        "addr:postcode": "39750-000",
        "addr:street": "Rua Balbino Cândido Araújo",
        "addr:suburb": "Centro",
        "amenity": "pharmacy",
        "dispensing": "yes",
        "healthcare": "pharmacy",
        "name": "Drogaria Almeida Barroso",
        "operator": "Farmácia Barroso Limitada",
        "id": "node/10075189144"
      },
      "geometry": {
        "type": "Point",
        "coordinates": [
          -43.0830869,
          -18.6671213
        ]
      }
    },
    {
      "type": "Feature",
      "id": "node/10075189146",
      "properties": {
        "timestamp": "2022-10-04T14:27:21Z",
        "version": 1,
        "changeset": 126998924,
        "addr:city": "Sabinópolis",
        "addr:housenumber": "141",
        "addr:postcode": "39750-000",
        "addr:street": "Rua Alencar José Pimenta",
        "addr:suburb": "Centro",
        "amenity": "pharmacy",
        "dispensing": "yes",
        "healthcare": "pharmacy",
        "name": "Drogaria Sabinópolis",
        "operator": "Drogaria N & A Limitada",
        "id": "node/10075189146"
      },
      "geometry": {
        "type": "Point",
        "coordinates": [
          -43.0832866,
          -18.6670011
        ]
      }
    },
    {
      "type": "Feature",
      "id": "node/10075189147",
      "properties": {
        "timestamp": "2022-10-04T14:27:21Z",
        "version": 1,
        "changeset": 126998924,
        "addr:city": "Sabinópolis",
        "addr:housenumber": "51",
        "addr:postcode": "39750-000",
        "addr:street": "Rua Alencar José Pimenta",
        "addr:suburb": "Centro",
        "amenity": "pharmacy",
        "dispensing": "yes",
        "healthcare": "pharmacy",
        "name": "Drogaria Azevedo",
        "operator": "Drogaria Azevedo Sabinopolis LTDA",
        "id": "node/10075189147"
      },
      "geometry": {
        "type": "Point",
        "coordinates": [
          -43.0828645,
          -18.6662247
        ]
      }
    },
    {
      "type": "Feature",
      "id": "node/10075189148",
      "properties": {
        "timestamp": "2022-10-04T14:27:21Z",
        "version": 1,
        "changeset": 126998924,
        "addr:city": "Sabinópolis",
        "addr:housenumber": "145",
        "addr:postcode": "39750-000",
        "addr:street": "Rua Morel Maria de Pinho",
        "addr:suburb": "Centro",
        "amenity": "pharmacy",
        "dispensing": "yes",
        "healthcare": "pharmacy",
        "name": "Drogaria Fernandes Guerra",
        "id": "node/10075189148"
      },
      "geometry": {
        "type": "Point",
        "coordinates": [
          -43.0823013,
          -18.6659389
        ]
      }
    },
    {
      "type": "Feature",
      "id": "node/10075189149",
      "properties": {
        "timestamp": "2022-10-04T14:27:21Z",
        "version": 1,
        "changeset": 126998924,
        "addr:city": "Sabinópolis",
        "addr:housenumber": "384",
        "addr:postcode": "39750-000",
        "addr:street": "Rua Inácio Barroso",
        "addr:suburb": "Centro",
        "amenity": "pharmacy",
        "dispensing": "yes",
        "healthcare": "pharmacy",
        "name": "Pharma Vida",
        "operator": "Drogaria Pires Miranda Eireli",
        "id": "node/10075189149"
      },
      "geometry": {
        "type": "Point",
        "coordinates": [
          -43.0816204,
          -18.664716
        ]
      }
    }
  ]
}
