{
  "type": "FeatureCollection",
  "features": [
    {
      "type": "Feature",
      "id": "way/476621812",
      "properties": {
        "timestamp": "2022-10-03T22:42:19Z",
        "version": 2,
        "changeset": 126961910,
        "addr:city": "Sabinópolis",
        "addr:housenumber": "280",
        "addr:postcode": "39751-000",
        "addr:street": "Rua dos Clementes",
        "addr:suburb": "Euxenita",
        "amenity": "school",
        "email": "escola.45055@educacao.mg.gov.br",
        "name": "Escola Estadual Elpidio de Pinho Tavares",
        "phone": "+55 33 3423 4042",
        "id": "way/476621812"
      },
      "geometry": {
        "type": "Polygon",
        "coordinates": [
          [
            [
              -43.025518,
              -18.5439508
            ],
            [
              -43.0254071,
              -18.5446041
            ],
            [
              -43.0249018,
              -18.5442799
            ],
            [
              -43.0251452,
              -18.5437862
            ],
            [
              -43.025518,
              -18.5439508
            ]
          ]
        ]
      }
    },
    {
      "type": "Feature",
      "id": "node/5007349638",
      "properties": {
        "timestamp": "2022-10-03T00:55:13Z",
        "version": 2,
        "changeset": 126913344,
        "addr:city": "Sabinópolis",
        "addr:postcode": "39750-000",
        "addr:street": "Rua Augusto Aurélio",
        "addr:suburb": "Centro",
        "amenity": "school",
        "name": "Escola Estadual Professor Patrício Paes de Carvalho",
        "id": "node/5007349638"
      },
      "geometry": {
        "type": "Point",
        "coordinates": [
          -43.0821078,
          -18.6701861
        ]
      }
    },
    {
      "type": "Feature",
      "id": "node/10068501816",
      "properties": {
        "timestamp": "2022-10-02T11:32:41Z",
        "version": 1,
        "changeset": 126889529,
        "addr:city": "Sabinópolis",
        "addr:housenumber": "450",
        "addr:postcode": "39750-000",
        "addr:street": "Rua Joaquim Alves Barroso",
        "addr:suburb": "Centro",
        "amenity": "school",
        "name": "Escola Estadual Monsenhor José Amantino dos Santos",
        "id": "node/10068501816"
      },
      "geometry": {
        "type": "Point",
        "coordinates": [
          -43.0821232,
          -18.6611199
        ]
      }
    },
    {
      "type": "Feature",
      "id": "node/10068501820",
      "properties": {
        "timestamp": "2022-10-03T00:55:13Z",
        "version": 2,
        "changeset": 126913344,
        "addr:city": "Sabinópolis",
        "addr:postcode": "39750-000",
        "addr:street": "Rua Joaquim Alves Barroso",
        "amenity": "school",
        "email": "escola.45004@educacao.mg.gov.br",
        "name": "Escola Estadual Sabino Barroso",
        "phone": "+55 33 3423 1164",
        "id": "node/10068501820"
      },
      "geometry": {
        "type": "Point",
        "coordinates": [
          -43.0800587,
          -18.6591879
        ]
      }
    },
    {
      "type": "Feature",
      "id": "node/10073472453",
      "properties": {
        "timestamp": "2022-10-03T17:41:54Z",
        "version": 1,
        "changeset": 126951218,
        "addr:city": "Sabinópolis",
        "addr:housenumber": "1390",
        "addr:postcode": "39750-000",
        "addr:street": "Rua Clarindo Campos",
        "addr:suburb": "Monsenhor Amantino",
        "amenity": "school",
        "name": "Escola Municipal Olimpio Campos Rocha",
        "operator": "Município de Sabinópolis",
        "operator:type": "public",
        "id": "node/10073472453"
      },
      "geometry": {
        "type": "Point",
        "coordinates": [
          -43.0718505,
          -18.6556021
        ]
      }
    },
    {
      "type": "Feature",
      "id": "node/10073564453",
      "properties": {
        "timestamp": "2022-10-03T18:30:04Z",
        "version": 1,
        "changeset": 126952937,
        "addr:city": "Sabinópolis",
        "addr:housenumber": "42",
        "addr:postcode": "39750-000",
        "addr:street": "Praça Monsenhor Amantino",
        "addr:suburb": "Centro",
        "amenity": "school",
        "name": "Escola Municipal Marcos dos Santos",
        "operator": "Município de Sabinópolis",
        "operator:type": "public",
        "id": "node/10073564453"
      },
      "geometry": {
        "type": "Point",
        "coordinates": [
          -43.0840263,
          -18.6652815
        ]
      }
    },
    {
      "type": "Feature",
      "id": "node/10074812973",
      "properties": {
        "timestamp": "2022-10-04T10:43:03Z",
        "version": 1,
        "changeset": 126987106,
        "addr:city": "Sabinópolis",
        "addr:housenumber": "101",
        "addr:postcode": "39753-000",
        "addr:street": "Rua Jofre João Fernandes",
        "addr:suburb": "Quilombo",
        "amenity": "school",
        "email": "escola.45071@educacao.mg.gov.br",
        "name": "Escola Estadual do Quilombo",
        "operator": "Secretaria de Educação do Estado de Minas Gerais",
        "operator:type": "public",
        "id": "node/10074812973"
      },
      "geometry": {
        "type": "Point",
        "coordinates": [
          -43.1570895,
          -18.8178932
        ]
      }
    }
  ]
}
