{
  "type": "FeatureCollection",
  "features": [
    {
      "type": "Feature",
      "id": "node/3681603725",
      "properties": {
        "timestamp": "2022-05-10T12:00:07Z",
        "version": 4,
        "changeset": 120790331,
        "addr:city": "Pato Branco",
        "amenity": "clinic",
        "healthcare": "clinic",
        "name": "Posto de Saúde",
        "id": "node/3681603725"
      },
      "geometry": {
        "type": "Point",
        "coordinates": [
          -52.6738113,
          -26.2333809
        ]
      }
    },
    {
      "type": "Feature",
      "id": "node/3803743093",
      "properties": {
        "timestamp": "2021-05-05T03:24:14Z",
        "version": 3,
        "changeset": 104153251,
        "addr:city": "Pato Branco",
        "addr:housenumber": "399",
        "addr:street": "Avenida Brasil",
        "amenity": "clinic",
        "healthcare": "clinic",
        "name": "Ortopédia",
        "id": "node/3803743093"
      },
      "geometry": {
        "type": "Point",
        "coordinates": [
          -52.6742776,
          -26.2307879
        ]
      }
    },
    {
      "type": "Feature",
      "id": "node/3803746313",
      "properties": {
        "timestamp": "2021-05-05T03:24:14Z",
        "version": 3,
        "changeset": 104153251,
        "addr:city": "Pato Branco",
        "addr:street": "Avenida Brasil",
        "amenity": "clinic",
        "healthcare": "clinic",
        "name": "Clínica do Aparelho Digestivo",
        "id": "node/3803746313"
      },
      "geometry": {
        "type": "Point",
        "coordinates": [
          -52.6744985,
          -26.229737
        ]
      }
    },
    {
      "type": "Feature",
      "id": "node/3803746314",
      "properties": {
        "timestamp": "2021-05-05T03:24:14Z",
        "version": 3,
        "changeset": 104153251,
        "addr:city": "Pato Branco",
        "addr:housenumber": "532",
        "addr:street": "Avenida Brasil",
        "amenity": "clinic",
        "healthcare": "clinic",
        "name": "Ortosul Clínicas",
        "id": "node/3803746314"
      },
      "geometry": {
        "type": "Point",
        "coordinates": [
          -52.6746617,
          -26.229414
        ]
      }
    },
    {
      "type": "Feature",
      "id": "node/3803746343",
      "properties": {
        "timestamp": "2021-05-05T03:24:14Z",
        "version": 3,
        "changeset": 104153251,
        "addr:city": "Pato Branco",
        "addr:housenumber": "581",
        "addr:street": "Avenida Brasil",
        "amenity": "clinic",
        "healthcare": "clinic",
        "name": "Uniclinicas",
        "id": "node/3803746343"
      },
      "geometry": {
        "type": "Point",
        "coordinates": [
          -52.6753003,
          -26.2290349
        ]
      }
    },
    {
      "type": "Feature",
      "id": "node/3803748855",
      "properties": {
        "timestamp": "2021-05-05T03:24:14Z",
        "version": 3,
        "changeset": 104153251,
        "addr:city": "Pato Branco",
        "addr:housenumber": "580",
        "addr:street": "Avenida Brasil",
        "amenity": "clinic",
        "healthcare": "clinic",
        "name": "Clinicenter",
        "id": "node/3803748855"
      },
      "geometry": {
        "type": "Point",
        "coordinates": [
          -52.6750602,
          -26.2289445
        ]
      }
    },
    {
      "type": "Feature",
      "id": "node/3803749157",
      "properties": {
        "timestamp": "2021-05-05T03:24:14Z",
        "version": 3,
        "changeset": 104153251,
        "addr:city": "Pato Branco",
        "addr:housenumber": "649",
        "addr:street": "Avenida Brasil",
        "amenity": "clinic",
        "healthcare": "clinic",
        "name": "Clínica Betiol",
        "id": "node/3803749157"
      },
      "geometry": {
        "type": "Point",
        "coordinates": [
          -52.6757562,
          -26.2282535
        ]
      }
    },
    {
      "type": "Feature",
      "id": "node/3803749158",
      "properties": {
        "timestamp": "2021-05-05T03:24:14Z",
        "version": 3,
        "changeset": 104153251,
        "addr:city": "Pato Branco",
        "addr:housenumber": "671",
        "addr:street": "Avenida Brasil",
        "amenity": "clinic",
        "healthcare": "clinic",
        "name": "Clínica de Cirurgia Plástica e Fisioterapia",
        "id": "node/3803749158"
      },
      "geometry": {
        "type": "Point",
        "coordinates": [
          -52.6758492,
          -26.2276482
        ]
      }
    },
    {
      "type": "Feature",
      "id": "node/6529426248",
      "properties": {
        "timestamp": "2021-05-05T03:24:14Z",
        "version": 2,
        "changeset": 104153251,
        "amenity": "clinic",
        "description": "Fisioterapia e Nutrição",
        "healthcare": "clinic",
        "name": "Equilibrium Clínica Integrada",
        "id": "node/6529426248"
      },
      "geometry": {
        "type": "Point",
        "coordinates": [
          -52.6752725,
          -26.2291039
        ]
      }
    }
  ]
}
