{
  "type": "FeatureCollection",
  "features": [
    {
      "type": "Feature",
      "id": "node/3725659450",
      "properties": {
        "timestamp": "2015-09-02T09:06:27Z",
        "version": 2,
        "changeset": 33746344,
        "addr:city": "Pato Branco",
        "addr:street": "Avenida Tupy",
        "name": "Hotel Menegatti",
        "tourism": "hotel",
        "id": "node/3725659450"
      },
      "geometry": {
        "type": "Point",
        "coordinates": [
          -52.6720927,
          -26.233001
        ]
      }
    },
    {
      "type": "Feature",
      "id": "node/3725660721",
      "properties": {
        "timestamp": "2015-09-02T09:06:29Z",
        "version": 2,
        "changeset": 33746344,
        "addr:housenumber": "2566",
        "name": "Hotel San Pietro",
        "tourism": "hotel",
        "id": "node/3725660721"
      },
      "geometry": {
        "type": "Point",
        "coordinates": [
          -52.6716565,
          -26.2284058
        ]
      }
    },
    {
      "type": "Feature",
      "id": "node/3780208439",
      "properties": {
        "timestamp": "2015-10-09T22:31:01Z",
        "version": 2,
        "changeset": 34540287,
        "addr:city": "Pato Branco",
        "addr:street": "Rua Bar√£o do Rio Branco",
        "name": "Fenix Hotel",
        "tourism": "hotel",
        "id": "node/3780208439"
      },
      "geometry": {
        "type": "Point",
        "coordinates": [
          -52.6734963,
          -26.2360089
        ]
      }
    },
    {
      "type": "Feature",
      "id": "node/3786429025",
      "properties": {
        "timestamp": "2017-10-19T22:38:44Z",
        "version": 3,
        "changeset": 53083907,
        "addr:city": "Pato Branco",
        "addr:housenumber": "579",
        "addr:street": "Rua Tamoio",
        "name": "City Hotel",
        "tourism": "hotel",
        "id": "node/3786429025"
      },
      "geometry": {
        "type": "Point",
        "coordinates": [
          -52.6740064,
          -26.2290275
        ]
      }
    },
    {
      "type": "Feature",
      "id": "node/3786443083",
      "properties": {
        "timestamp": "2015-10-14T18:34:41Z",
        "version": 2,
        "changeset": 34639068,
        "addr:city": "Pato Branco",
        "addr:housenumber": "584",
        "addr:street": "Rua Tamoio",
        "name": "Luz Hotel",
        "tourism": "hotel",
        "id": "node/3786443083"
      },
      "geometry": {
        "type": "Point",
        "coordinates": [
          -52.6738695,
          -26.2288209
        ]
      }
    },
    {
      "type": "Feature",
      "id": "node/3786444297",
      "properties": {
        "timestamp": "2018-06-16T23:04:59Z",
        "version": 5,
        "changeset": 59904011,
        "addr:city": "Pato Branco",
        "addr:street": "Rua Tamoio",
        "internet_access": "yes",
        "internet_access:ssid": "Regente Hospedes",
        "name": "Hotel Regente",
        "phone": "+55 46 3220-5100",
        "smoking": "outside",
        "tourism": "hotel",
        "id": "node/3786444297"
      },
      "geometry": {
        "type": "Point",
        "coordinates": [
          -52.6738732,
          -26.2292037
        ]
      }
    },
    {
      "type": "Feature",
      "id": "node/8866966731",
      "properties": {
        "timestamp": "2021-06-25T23:30:26Z",
        "version": 1,
        "changeset": 106987041,
        "name": "Merion Hotel",
        "tourism": "hotel",
        "website": "https://www.hotelmerion.com.br/",
        "id": "node/8866966731"
      },
      "geometry": {
        "type": "Point",
        "coordinates": [
          -52.6724259,
          -26.2266556
        ]
      }
    }
  ]
}
