{
  "type": "FeatureCollection",
  "features": [
    {
      "type": "Feature",
      "id": "node/3681603734",
      "properties": {
        "timestamp": "2021-05-05T03:24:14Z",
        "version": 6,
        "changeset": 104153251,
        "amenity": "pharmacy",
        "brand": "Droga Raia",
        "brand:wikidata": "Q10357101",
        "brand:wikipedia": "pt:RaiaDrogasil",
        "healthcare": "pharmacy",
        "name": "Droga Raia",
        "opening_hours": "Su-Mo 07:00-24:00, Tu-Sa 00:00-24:00",
        "id": "node/3681603734"
      },
      "geometry": {
        "type": "Point",
        "coordinates": [
          -52.6720971,
          -26.2265822
        ]
      }
    },
    {
      "type": "Feature",
      "id": "node/3681603735",
      "properties": {
        "timestamp": "2021-05-05T03:24:14Z",
        "version": 5,
        "changeset": 104153251,
        "addr:city": "Pato Branco",
        "amenity": "pharmacy",
        "healthcare": "pharmacy",
        "id": "node/3681603735"
      },
      "geometry": {
        "type": "Point",
        "coordinates": [
          -52.6712512,
          -26.2273958
        ]
      }
    },
    {
      "type": "Feature",
      "id": "node/3681603736",
      "properties": {
        "timestamp": "2021-05-05T03:24:14Z",
        "version": 4,
        "changeset": 104153251,
        "amenity": "pharmacy",
        "healthcare": "pharmacy",
        "name": "Farmácia Popular",
        "id": "node/3681603736"
      },
      "geometry": {
        "type": "Point",
        "coordinates": [
          -52.6728308,
          -26.2260115
        ]
      }
    },
    {
      "type": "Feature",
      "id": "node/3725660933",
      "properties": {
        "timestamp": "2021-05-05T03:24:14Z",
        "version": 5,
        "changeset": 104153251,
        "addr:city": "Pato Branco",
        "addr:street": "Rua Guarani",
        "amenity": "pharmacy",
        "healthcare": "pharmacy",
        "id": "node/3725660933"
      },
      "geometry": {
        "type": "Point",
        "coordinates": [
          -52.6723893,
          -26.2271213
        ]
      }
    },
    {
      "type": "Feature",
      "id": "node/3725660938",
      "properties": {
        "timestamp": "2021-05-05T03:24:14Z",
        "version": 3,
        "changeset": 104153251,
        "addr:city": "Pato Branco",
        "addr:housenumber": "489",
        "addr:street": "Rua Guarani",
        "amenity": "pharmacy",
        "healthcare": "pharmacy",
        "name": "Farmácia Guarani",
        "id": "node/3725660938"
      },
      "geometry": {
        "type": "Point",
        "coordinates": [
          -52.673924,
          -26.2246002
        ]
      }
    },
    {
      "type": "Feature",
      "id": "node/3725807560",
      "properties": {
        "timestamp": "2021-05-05T03:24:14Z",
        "version": 2,
        "changeset": 104153251,
        "addr:city": "Pato Branco",
        "addr:street": "Rua Guarani",
        "amenity": "pharmacy",
        "healthcare": "pharmacy",
        "id": "node/3725807560"
      },
      "geometry": {
        "type": "Point",
        "coordinates": [
          -52.6719332,
          -26.2279249
        ]
      }
    },
    {
      "type": "Feature",
      "id": "node/3740586414",
      "properties": {
        "timestamp": "2021-05-05T03:24:14Z",
        "version": 3,
        "changeset": 104153251,
        "addr:city": "Pato Branco",
        "addr:housenumber": "562",
        "addr:street": "Rua Caramuru",
        "amenity": "pharmacy",
        "healthcare": "pharmacy",
        "name": "Vida Ativa",
        "id": "node/3740586414"
      },
      "geometry": {
        "type": "Point",
        "coordinates": [
          -52.6740352,
          -26.2260945
        ]
      }
    },
    {
      "type": "Feature",
      "id": "node/3780208757",
      "properties": {
        "timestamp": "2021-05-05T03:24:14Z",
        "version": 3,
        "changeset": 104153251,
        "addr:city": "Pato Branco",
        "addr:housenumber": "772",
        "addr:street": "Rua Ibiporã",
        "amenity": "pharmacy",
        "healthcare": "pharmacy",
        "name": "Drogaline",
        "id": "node/3780208757"
      },
      "geometry": {
        "type": "Point",
        "coordinates": [
          -52.6700914,
          -26.2258262
        ]
      }
    },
    {
      "type": "Feature",
      "id": "node/3786443086",
      "properties": {
        "timestamp": "2021-05-05T03:24:14Z",
        "version": 3,
        "changeset": 104153251,
        "addr:city": "Pato Branco",
        "addr:housenumber": "443",
        "addr:street": "Rua Caramuru",
        "amenity": "pharmacy",
        "healthcare": "pharmacy",
        "name": "Cooperfarma",
        "id": "node/3786443086"
      },
      "geometry": {
        "type": "Point",
        "coordinates": [
          -52.6736155,
          -26.2271968
        ]
      }
    },
    {
      "type": "Feature",
      "id": "node/3786444296",
      "properties": {
        "timestamp": "2021-05-05T03:24:14Z",
        "version": 3,
        "changeset": 104153251,
        "addr:housenumber": "Farmácia",
        "amenity": "pharmacy",
        "healthcare": "pharmacy",
        "id": "node/3786444296"
      },
      "geometry": {
        "type": "Point",
        "coordinates": [
          -52.673926,
          -26.2337054
        ]
      }
    },
    {
      "type": "Feature",
      "id": "node/3786511158",
      "properties": {
        "timestamp": "2021-05-05T03:24:14Z",
        "version": 4,
        "changeset": 104153251,
        "addr:city": "Pato Branco",
        "addr:housenumber": "584",
        "addr:street": "Rua Tamoio",
        "amenity": "pharmacy",
        "healthcare": "pharmacy",
        "id": "node/3786511158"
      },
      "geometry": {
        "type": "Point",
        "coordinates": [
          -52.6739046,
          -26.2287966
        ]
      }
    },
    {
      "type": "Feature",
      "id": "node/3797237266",
      "properties": {
        "timestamp": "2021-05-05T03:24:14Z",
        "version": 3,
        "changeset": 104153251,
        "addr:city": "Pato Branco",
        "amenity": "pharmacy",
        "healthcare": "pharmacy",
        "name": "Cooperfarma",
        "id": "node/3797237266"
      },
      "geometry": {
        "type": "Point",
        "coordinates": [
          -52.6701412,
          -26.2267481
        ]
      }
    },
    {
      "type": "Feature",
      "id": "node/3803746315",
      "properties": {
        "timestamp": "2021-05-05T03:24:14Z",
        "version": 5,
        "changeset": 104153251,
        "addr:city": "Pato Branco",
        "addr:street": "Avenida Brasil",
        "amenity": "pharmacy",
        "healthcare": "pharmacy",
        "id": "node/3803746315"
      },
      "geometry": {
        "type": "Point",
        "coordinates": [
          -52.6748771,
          -26.2291746
        ]
      }
    },
    {
      "type": "Feature",
      "id": "node/3803746866",
      "properties": {
        "timestamp": "2021-05-05T03:24:14Z",
        "version": 5,
        "changeset": 104153251,
        "amenity": "pharmacy",
        "healthcare": "pharmacy",
        "id": "node/3803746866"
      },
      "geometry": {
        "type": "Point",
        "coordinates": [
          -52.6748634,
          -26.2289531
        ]
      }
    }
  ]
}
