{
  "type": "FeatureCollection",
  "features": [
    {
      "type": "Feature",
      "id": "node/3430461828",
      "properties": {
        "timestamp": "2015-08-25T02:02:10Z",
        "version": 2,
        "changeset": 33560479,
        "addr:city": "Pato Branco",
        "addr:street": "Via do Conhecimento",
        "amenity": "university",
        "description": "Campus Pato Branco",
        "name": "Universidade Tecnológica Federal do Paraná",
        "old_name": "Cefet-PR",
        "ref": "UTFPR",
        "short_name": "UTFPR Pato Branco",
        "website": "http://www.utfpr.edu.br/patobranco",
        "id": "node/3430461828"
      },
      "geometry": {
        "type": "Point",
        "coordinates": [
          -52.6895685,
          -26.1964874
        ]
      }
    },
    {
      "type": "Feature",
      "id": "node/3681596496",
      "properties": {
        "timestamp": "2022-05-10T12:00:07Z",
        "version": 3,
        "changeset": 120790331,
        "addr:city": "Pato Branco",
        "addr:housenumber": "200",
        "addr:street": "Rua Mato Grosso",
        "amenity": "university",
        "name": "Faculdade Mater Dei",
        "phone": "+55 46 2101 8200",
        "id": "node/3681596496"
      },
      "geometry": {
        "type": "Point",
        "coordinates": [
          -52.671758,
          -26.2336564
        ]
      }
    }
  ]
}
