{
  "type": "FeatureCollection",
  "features": [
    {
      "type": "Feature",
      "id": "way/368663694",
      "properties": {
        "timestamp": "2022-03-03T18:37:02Z",
        "version": 2,
        "changeset": 118066512,
        "addr:postcode": "77780-000",
        "amenity": "school",
        "id": "way/368663694"
      },
      "geometry": {
        "type": "Polygon",
        "coordinates": [
          [
            [
              -49.065091,
              -7.6598914
            ],
            [
              -49.0651926,
              -7.6602393
            ],
            [
              -49.0648539,
              -7.6603364
            ],
            [
              -49.0647524,
              -7.6599885
            ],
            [
              -49.065091,
              -7.6598914
            ]
          ]
        ]
      }
    },
    {
      "type": "Feature",
      "id": "way/1036890889",
      "properties": {
        "timestamp": "2022-03-03T18:37:02Z",
        "version": 1,
        "changeset": 118066512,
        "addr:city": "Arapoema",
        "addr:housenumber": "215",
        "addr:postcode": "77780-000",
        "addr:street": "Rua Francisco Frutuoso de Aguiar",
        "addr:suburb": "Terezianos",
        "amenity": "school",
        "name": "Escola Municipal Irma Rita",
        "id": "way/1036890889"
      },
      "geometry": {
        "type": "Polygon",
        "coordinates": [
          [
            [
              -49.0654947,
              -7.6517274
            ],
            [
              -49.0655791,
              -7.6520752
            ],
            [
              -49.0650815,
              -7.652215
            ],
            [
              -49.064956,
              -7.651833
            ],
            [
              -49.0654947,
              -7.6517274
            ]
          ]
        ]
      }
    },
    {
      "type": "Feature",
      "id": "way/1036891223",
      "properties": {
        "timestamp": "2022-03-03T18:38:51Z",
        "version": 1,
        "changeset": 118066574,
        "addr:city": "Arapoema",
        "addr:housenumber": "641",
        "addr:postcode": "77780-000",
        "addr:street": "Rua dos Cristais",
        "addr:suburb": "Centro",
        "amenity": "school",
        "name": "Esc Est Antonio Delfino Guimaraes",
        "id": "way/1036891223"
      },
      "geometry": {
        "type": "Polygon",
        "coordinates": [
          [
            [
              -49.0653832,
              -7.6549394
            ],
            [
              -49.0655919,
              -7.655612
            ],
            [
              -49.0648227,
              -7.6558465
            ],
            [
              -49.064614,
              -7.6551738
            ],
            [
              -49.0653832,
              -7.6549394
            ]
          ]
        ]
      }
    },
    {
      "type": "Feature",
      "id": "way/1036891532",
      "properties": {
        "timestamp": "2022-03-03T18:40:51Z",
        "version": 1,
        "changeset": 118066673,
        "addr:city": "Arapoema",
        "addr:housenumber": "905",
        "addr:postcode": "77780-000",
        "addr:street": "Avenida dos Garimpeiros",
        "addr:suburb": "Centro",
        "amenity": "school",
        "name": "Escola Municipal Professor Francisco Jose Pereira",
        "id": "way/1036891532"
      },
      "geometry": {
        "type": "Polygon",
        "coordinates": [
          [
            [
              -49.0656427,
              -7.6569621
            ],
            [
              -49.0657694,
              -7.6573702
            ],
            [
              -49.0653066,
              -7.6575114
            ],
            [
              -49.0651798,
              -7.6571034
            ],
            [
              -49.0656427,
              -7.6569621
            ]
          ]
        ]
      }
    },
    {
      "type": "Feature",
      "id": "node/9552466133",
      "properties": {
        "timestamp": "2022-03-03T18:39:54Z",
        "version": 1,
        "changeset": 118066618,
        "addr:city": "Arapoema",
        "addr:housenumber": "704",
        "addr:postcode": "77780-000",
        "addr:street": "Rua Marechal Emilio Ribas Junior",
        "addr:suburb": "Centro",
        "amenity": "school",
        "name": "Colegio Messias Santos",
        "id": "node/9552466133"
      },
      "geometry": {
        "type": "Point",
        "coordinates": [
          -49.0647121,
          -7.6561598
        ]
      }
    }
  ]
}
