{
  "type": "FeatureCollection",
  "features": [
    {
      "type": "Feature",
      "id": "way/1036620243",
      "properties": {
        "timestamp": "2022-03-02T17:55:47Z",
        "version": 1,
        "changeset": 118028603,
        "addr:city": "Aguiarnópolis",
        "addr:postcode": "77908-000",
        "addr:street": "Rua da Prata",
        "addr:suburb": "Setor Hidroferroviário",
        "amenity": "school",
        "name": "Escola Municipal Degraus Do Saber",
        "phone": "+55 63 3454 1249",
        "id": "way/1036620243"
      },
      "geometry": {
        "type": "Polygon",
        "coordinates": [
          [
            [
              -47.4810282,
              -6.5580314
            ],
            [
              -47.4810352,
              -6.5580864
            ],
            [
              -47.4808427,
              -6.5583959
            ],
            [
              -47.4807666,
              -6.5584165
            ],
            [
              -47.4804273,
              -6.5581896
            ],
            [
              -47.4806821,
              -6.5578058
            ],
            [
              -47.4810282,
              -6.5580314
            ]
          ]
        ]
      }
    },
    {
      "type": "Feature",
      "id": "way/1036620244",
      "properties": {
        "timestamp": "2022-03-02T17:56:42Z",
        "version": 2,
        "changeset": 118028619,
        "addr:city": "Aguiarnópolis",
        "addr:postcode": "77908-000",
        "addr:street": "Avenida Pará",
        "addr:suburb": "Setor Hidroferroviário",
        "amenity": "school",
        "name": "Creche Municipal Proinfancia Professora Maria Amelia Morais Da Silva Fernandes",
        "phone": "+55 63 3454 1249",
        "id": "way/1036620244"
      },
      "geometry": {
        "type": "Polygon",
        "coordinates": [
          [
            [
              -47.4805443,
              -6.5583797
            ],
            [
              -47.4803671,
              -6.5586569
            ],
            [
              -47.4798951,
              -6.5583591
            ],
            [
              -47.4800723,
              -6.5580819
            ],
            [
              -47.4805443,
              -6.5583797
            ]
          ]
        ]
      }
    },
    {
      "type": "Feature",
      "id": "way/1036620245",
      "properties": {
        "timestamp": "2022-03-02T17:55:47Z",
        "version": 1,
        "changeset": 118028603,
        "amenity": "school",
        "id": "way/1036620245"
      },
      "geometry": {
        "type": "Polygon",
        "coordinates": [
          [
            [
              -47.4805443,
              -6.5583797
            ],
            [
              -47.480725,
              -6.5585018
            ],
            [
              -47.4807375,
              -6.5585651
            ],
            [
              -47.4805783,
              -6.5588223
            ],
            [
              -47.4803671,
              -6.5586569
            ],
            [
              -47.4805443,
              -6.5583797
            ]
          ]
        ]
      }
    },
    {
      "type": "Feature",
      "id": "way/1036620246",
      "properties": {
        "timestamp": "2022-03-02T17:57:20Z",
        "version": 2,
        "changeset": 118028634,
        "addr:city": "Aguiarnópolis",
        "addr:postcode": "77908-000",
        "addr:street": "Rua Maranhão",
        "addr:suburb": "Centro",
        "amenity": "school",
        "name": "Colegio Estadual Girassol De Tempo Integral Nazare Nunes Da Silva",
        "phone": "+55 63 3454 1165",
        "id": "way/1036620246"
      },
      "geometry": {
        "type": "Polygon",
        "coordinates": [
          [
            [
              -47.4784628,
              -6.5599672
            ],
            [
              -47.4783513,
              -6.5603179
            ],
            [
              -47.4773371,
              -6.5599949
            ],
            [
              -47.4774894,
              -6.559445
            ],
            [
              -47.4784628,
              -6.5599672
            ]
          ]
        ]
      }
    },
    {
      "type": "Feature",
      "id": "node/9550285282",
      "properties": {
        "timestamp": "2022-03-02T17:58:04Z",
        "version": 1,
        "changeset": 118028664,
        "addr:city": "Aguiarnópolis",
        "addr:postcode": "77908-000",
        "addr:street": "Rua Quinze de Novembro",
        "addr:suburb": "Centro",
        "amenity": "school",
        "name": "Esc Mul Antonio Jose R Filho",
        "phone": "+55 63 3454 1166",
        "id": "node/9550285282"
      },
      "geometry": {
        "type": "Point",
        "coordinates": [
          -47.466727,
          -6.5632794
        ]
      }
    }
  ]
}
