{
  "type": "FeatureCollection",
  "features": [
    {
      "type": "Feature",
      "id": "node/9024079663",
      "properties": {
        "timestamp": "2021-08-21T01:56:04Z",
        "version": 1,
        "changeset": 110010534,
        "addr:street": "Rua Nove de Julho",
        "government": "public_service",
        "name": "Conselho Tutelar",
        "office": "government",
        "phone": "+55 19 3646 9972",
        "id": "node/9024079663"
      },
      "geometry": {
        "type": "Point",
        "coordinates": [
          -46.8245713,
          -21.7097983
        ]
      }
    },
    {
      "type": "Feature",
      "id": "node/9024079664",
      "properties": {
        "timestamp": "2021-08-21T01:56:04Z",
        "version": 1,
        "changeset": 110010534,
        "addr:postcode": "13790-000",
        "addr:street": "Rua Nove de Julho",
        "addr:suburb": "Centro",
        "government": "administrative",
        "name": "Central de Ambulância",
        "office": "government",
        "phone": "+55 19 3646 9967",
        "id": "node/9024079664"
      },
      "geometry": {
        "type": "Point",
        "coordinates": [
          -46.8245882,
          -21.7097561
        ]
      }
    },
    {
      "type": "Feature",
      "id": "node/9024079665",
      "properties": {
        "timestamp": "2021-08-21T01:56:04Z",
        "version": 1,
        "changeset": 110010534,
        "addr:postcode": "13790-000",
        "addr:street": "Rua Nove de Julho",
        "addr:suburb": "Centro",
        "government": "administrative",
        "name": "Vigilância Sanitária",
        "office": "government",
        "phone": "+55 19 3646 9971",
        "id": "node/9024079665"
      },
      "geometry": {
        "type": "Point",
        "coordinates": [
          -46.8245998,
          -21.7097208
        ]
      }
    },
    {
      "type": "Feature",
      "id": "node/9024079666",
      "properties": {
        "timestamp": "2021-08-21T01:56:04Z",
        "version": 1,
        "changeset": 110010534,
        "addr:postcode": "13790-000",
        "addr:street": "Rua Nove de Julho",
        "addr:suburb": "Centro",
        "description": "Programa de Treinamento e Capacitação para o mercado de trabalho",
        "government": "administrative",
        "name": "PROCAP",
        "office": "government",
        "phone": "+55 19 3646 9966",
        "id": "node/9024079666"
      },
      "geometry": {
        "type": "Point",
        "coordinates": [
          -46.824623,
          -21.7096952
        ]
      }
    }
  ]
}
