{
  "type": "FeatureCollection",
  "features": [
    {
      "type": "Feature",
      "id": "node/9180943686",
      "properties": {
        "timestamp": "2021-10-18T18:18:05Z",
        "version": 1,
        "changeset": 112664745,
        "addr:city": "Santa Maria de Jetibá",
        "addr:postcode": "29645-000",
        "addr:street": "Rodovia Luiz Stange",
        "addr:suburb": "Recreio",
        "amenity": "pharmacy",
        "dispensing": "yes",
        "healthcare": "pharmacy",
        "name": "Farmácia Dias",
        "id": "node/9180943686"
      },
      "geometry": {
        "type": "Point",
        "coordinates": [
          -40.6851972,
          -20.0207359
        ]
      }
    },
    {
      "type": "Feature",
      "id": "node/9609025066",
      "properties": {
        "timestamp": "2022-03-26T13:10:00Z",
        "version": 1,
        "changeset": 118946847,
        "addr:city": "Santa Maria de Jetibá",
        "addr:postcode": "29645-000",
        "addr:street": "Avenida Alvano Gilberto Gonçalves",
        "addr:suburb": "Garrafão",
        "amenity": "pharmacy",
        "dispensing": "yes",
        "healthcare": "pharmacy",
        "name": "Farmácia Schmidt",
        "id": "node/9609025066"
      },
      "geometry": {
        "type": "Point",
        "coordinates": [
          -40.8858042,
          -20.1529246
        ]
      }
    }
  ]
}
