{
  "type": "FeatureCollection",
  "features": [
    {
      "type": "Feature",
      "id": "way/385929345",
      "properties": {
        "timestamp": "2016-03-09T19:10:11Z",
        "version": 2,
        "changeset": 37716865,
        "IJSN:administra": "Privada",
        "addr:city": "Santa Maria de Jetibá",
        "addr:country": "BR",
        "addr:housenumber": "469",
        "addr:postcode": "29645-000",
        "addr:state": "ES",
        "addr:street": "Rua Henrique João Júlio Kuster",
        "addr:suburb": "São Luis",
        "alt_name": "Centro de Atendimento Educacional Especializado",
        "amenity": "school",
        "contact:phone": "(27) 9969-8291",
        "name": "CAEE Neues Leben",
        "short_name": "APAE",
        "source": "IJSN",
        "id": "way/385929345"
      },
      "geometry": {
        "type": "Polygon",
        "coordinates": [
          [
            [
              -40.7375486,
              -20.0033889
            ],
            [
              -40.7370411,
              -20.003288
            ],
            [
              -40.7371871,
              -20.0027364
            ],
            [
              -40.7376302,
              -20.0028095
            ],
            [
              -40.7375486,
              -20.0033889
            ]
          ]
        ]
      }
    },
    {
      "type": "Feature",
      "id": "way/385929351",
      "properties": {
        "timestamp": "2021-09-14T23:26:53Z",
        "version": 3,
        "changeset": 111217795,
        "IJSN:administra": "Estadual",
        "addr:city": "Santa Maria de Jetibá",
        "addr:country": "BR",
        "addr:housenumber": "3",
        "addr:postcode": "29645-000",
        "addr:state": "ES",
        "addr:street": "Rua Germano Marquardt",
        "addr:suburb": "Alto Rio Possmoser",
        "alt_name": "Escola Estadual de Ensino Fundamental e Médio",
        "amenity": "school",
        "building": "school",
        "building:levels": "2",
        "contact:phone": "(27) 3263-5096",
        "name": "Escola Estadual de Ensino Fundamental e Médio Alto Rio Possmoser",
        "source": "IJSN",
        "id": "way/385929351"
      },
      "geometry": {
        "type": "Polygon",
        "coordinates": [
          [
            [
              -40.8438814,
              -20.06618
            ],
            [
              -40.8438431,
              -20.0663613
            ],
            [
              -40.8438461,
              -20.0663618
            ],
            [
              -40.8438044,
              -20.0665589
            ],
            [
              -40.8434953,
              -20.0665013
            ],
            [
              -40.843512,
              -20.0664222
            ],
            [
              -40.8436868,
              -20.0664548
            ],
            [
              -40.8437001,
              -20.0663917
            ],
            [
              -40.8433854,
              -20.066333
            ],
            [
              -40.8434245,
              -20.0661479
            ],
            [
              -40.8436834,
              -20.0661962
            ],
            [
              -40.8436942,
              -20.0661451
            ],
            [
              -40.8438814,
              -20.06618
            ]
          ]
        ]
      }
    },
    {
      "type": "Feature",
      "id": "way/385929352",
      "properties": {
        "timestamp": "2021-09-28T14:30:13Z",
        "version": 3,
        "changeset": 111822132,
        "IJSN:administra": "Estadual",
        "addr:city": "Santa Maria de Jetibá",
        "addr:country": "BR",
        "addr:postcode": "29645-000",
        "addr:state": "ES",
        "addr:street": "Rua Arthur Lemke",
        "addr:suburb": "Comunidade de Caramurú",
        "alt_name": "Escola Estadual de Ensino Fundamental e Médio",
        "amenity": "school",
        "contact:phone": "(27) 9954-0240",
        "name": "EEEFM Frederico Boldt",
        "source": "IJSN",
        "id": "way/385929352"
      },
      "geometry": {
        "type": "Polygon",
        "coordinates": [
          [
            [
              -40.6757028,
              -20.0959611
            ],
            [
              -40.6760909,
              -20.0963063
            ],
            [
              -40.6759464,
              -20.0964586
            ],
            [
              -40.6760591,
              -20.0965815
            ],
            [
              -40.6759787,
              -20.0968473
            ],
            [
              -40.6755857,
              -20.0967377
            ],
            [
              -40.6757225,
              -20.0964304
            ],
            [
              -40.6755601,
              -20.0962859
            ],
            [
              -40.6757028,
              -20.0959611
            ]
          ]
        ]
      }
    },
    {
      "type": "Feature",
      "id": "way/385929353",
      "properties": {
        "timestamp": "2021-09-08T13:51:31Z",
        "version": 3,
        "changeset": 110922285,
        "IJSN:administra": "Estadual",
        "addr:city": "Santa Maria de Jetibá",
        "addr:country": "BR",
        "addr:housenumber": "131",
        "addr:postcode": "29645-000",
        "addr:state": "ES",
        "addr:street": "Rua Hermann Röelke",
        "addr:suburb": "Centro",
        "alt_name": "Escola Estadual de Ensino Fundamental e Médio",
        "amenity": "school",
        "contact:phone": "(27) 3263-2666",
        "name": "Escola Estadual de Ensino Fundamental e Médio Graça Aranha",
        "source": "IJSN",
        "id": "way/385929353"
      },
      "geometry": {
        "type": "Polygon",
        "coordinates": [
          [
            [
              -40.7425257,
              -20.030154
            ],
            [
              -40.7427244,
              -20.0295454
            ],
            [
              -40.7428013,
              -20.0290207
            ],
            [
              -40.743037,
              -20.0290508
            ],
            [
              -40.7429452,
              -20.0296119
            ],
            [
              -40.7427733,
              -20.0302295
            ],
            [
              -40.7425257,
              -20.030154
            ]
          ]
        ]
      }
    },
    {
      "type": "Feature",
      "id": "way/385929354",
      "properties": {
        "timestamp": "2025-03-05T02:04:38Z",
        "version": 5,
        "changeset": 163225524,
        "IJSN:administra": "Estadual",
        "addr:city": "Santa Maria de Jetibá",
        "addr:country": "BR",
        "addr:milestone": "5",
        "addr:postcode": "29645-000",
        "addr:state": "ES",
        "addr:street": "Rodovia Estadual Doutor Afonso Schwab",
        "addr:suburb": "Comunidade de São Sebastião de Belém",
        "alt_name": "Escola Estadual de Ensino Fundamental e Médio",
        "amenity": "school",
        "building": "school",
        "building:levels": "2",
        "contact:phone": "+55 27 3263-1933",
        "name": "EEEFM Professor Hermann Berger",
        "source": "IJSN",
        "id": "way/385929354"
      },
      "geometry": {
        "type": "Polygon",
        "coordinates": [
          [
            [
              -40.7036021,
              -20.0492191
            ],
            [
              -40.7038305,
              -20.0493369
            ],
            [
              -40.7037386,
              -20.0494942
            ],
            [
              -40.7035102,
              -20.0493763
            ],
            [
              -40.7036021,
              -20.0492191
            ]
          ]
        ]
      }
    },
    {
      "type": "Feature",
      "id": "way/385929355",
      "properties": {
        "timestamp": "2016-03-09T19:10:41Z",
        "version": 2,
        "changeset": 37716865,
        "IJSN:administra": "Estadual",
        "addr:city": "Santa Maria de Jetibá",
        "addr:country": "BR",
        "addr:housenumber": "335",
        "addr:postcode": "29645-000",
        "addr:state": "ES",
        "addr:street": "Rua Henrique João Júlio Kuster",
        "addr:suburb": "São Luis",
        "alt_name": "Escola Estadual de Ensino Fundamental e Médio",
        "amenity": "school",
        "contact:phone": "(27) 3263-1582",
        "name": "EEEFM São Luis",
        "source": "IJSN",
        "id": "way/385929355"
      },
      "geometry": {
        "type": "Polygon",
        "coordinates": [
          [
            [
              -40.7383531,
              -20.0031089
            ],
            [
              -40.7384622,
              -20.0034667
            ],
            [
              -40.7380131,
              -20.0035876
            ],
            [
              -40.7379041,
              -20.0032297
            ],
            [
              -40.7383531,
              -20.0031089
            ]
          ]
        ]
      }
    },
    {
      "type": "Feature",
      "id": "way/385929356",
      "properties": {
        "timestamp": "2021-09-10T22:12:49Z",
        "version": 4,
        "changeset": 111043812,
        "IJSN:administra": "Municipal",
        "addr:city": "Santa Maria de Jetibá",
        "addr:country": "BR",
        "addr:postcode": "29645-000",
        "addr:state": "ES",
        "addr:street": "Rua Francisco Guilherme",
        "addr:suburb": "São João de Garrafão",
        "alt_name": "Escola Municipal de Ensino Infantil e Fundamental",
        "amenity": "school",
        "contact:phone": "(27) 3263-4107",
        "name": "Escola Municipal de Ensino Fundamental João Lauvers",
        "operator": "Município de Santa Maria de Jetibá",
        "operator:type": "public",
        "source": "IJSN",
        "id": "way/385929356"
      },
      "geometry": {
        "type": "Polygon",
        "coordinates": [
          [
            [
              -40.9438726,
              -20.1529701
            ],
            [
              -40.943842,
              -20.1529364
            ],
            [
              -40.9437946,
              -20.1529742
            ],
            [
              -40.9437203,
              -20.1528922
            ],
            [
              -40.9437668,
              -20.152855
            ],
            [
              -40.943602,
              -20.1526731
            ],
            [
              -40.9435528,
              -20.1527124
            ],
            [
              -40.9434997,
              -20.1526539
            ],
            [
              -40.9437023,
              -20.1524921
            ],
            [
              -40.944025,
              -20.1528484
            ],
            [
              -40.9438726,
              -20.1529701
            ]
          ]
        ]
      }
    },
    {
      "type": "Feature",
      "id": "way/385929357",
      "properties": {
        "timestamp": "2016-03-09T19:11:09Z",
        "version": 2,
        "changeset": 37716865,
        "IJSN:administra": "Municipal",
        "addr:city": "Santa Maria de Jetibá",
        "addr:country": "BR",
        "addr:postcode": "29645-000",
        "addr:state": "ES",
        "addr:street": "Rua Projetada",
        "addr:suburb": "Vila Jetibá",
        "alt_name": "Escola Municipal de Ensino Fundamental",
        "amenity": "school",
        "contact:phone": "(27) 3263-2159",
        "name": "EMEF Vila de Jetibá",
        "source": "IJSN",
        "id": "way/385929357"
      },
      "geometry": {
        "type": "Polygon",
        "coordinates": [
          [
            [
              -40.7613096,
              -20.0190796
            ],
            [
              -40.7610832,
              -20.0190299
            ],
            [
              -40.760497,
              -20.0190359
            ],
            [
              -40.760406,
              -20.0185527
            ],
            [
              -40.7606557,
              -20.0185149
            ],
            [
              -40.7614006,
              -20.018678
            ],
            [
              -40.7613096,
              -20.0190796
            ]
          ]
        ]
      }
    },
    {
      "type": "Feature",
      "id": "way/385929359",
      "properties": {
        "timestamp": "2016-03-09T19:11:10Z",
        "version": 2,
        "changeset": 37716865,
        "IJSN:administra": "Municipal",
        "addr:city": "Santa Maria de Jetibá",
        "addr:country": "BR",
        "addr:postcode": "29645-000",
        "addr:state": "ES",
        "addr:suburb": "Garrafão",
        "alt_name": "Escola Municipal de Ensino Infantil e Fundamental",
        "amenity": "school",
        "name": "EMEIEF Antônio Gonçalves",
        "source": "IJSN",
        "id": "way/385929359"
      },
      "geometry": {
        "type": "Polygon",
        "coordinates": [
          [
            [
              -40.8850672,
              -20.1529055
            ],
            [
              -40.8852873,
              -20.1528783
            ],
            [
              -40.8853501,
              -20.1533254
            ],
            [
              -40.88513,
              -20.1533527
            ],
            [
              -40.8850672,
              -20.1529055
            ]
          ]
        ]
      }
    },
    {
      "type": "Feature",
      "id": "way/385929360",
      "properties": {
        "timestamp": "2021-09-15T14:28:35Z",
        "version": 3,
        "changeset": 111248247,
        "IJSN:administra": "Municipal",
        "addr:city": "Santa Maria de Jetibá",
        "addr:country": "BR",
        "addr:postcode": "29645-000",
        "addr:state": "ES",
        "addr:suburb": "Rio Possmouser",
        "alt_name": "Escola Municipal de Ensino Infantil e Fundamental",
        "amenity": "school",
        "contact:phone": "(27) 3263-2690",
        "name": "Escola Municipal de Ensino Infantil e Fundamental Luiz Guilherme Henrique Potratz",
        "source": "IJSN",
        "id": "way/385929360"
      },
      "geometry": {
        "type": "Polygon",
        "coordinates": [
          [
            [
              -40.8008323,
              -20.0646562
            ],
            [
              -40.8007918,
              -20.0650929
            ],
            [
              -40.8004486,
              -20.0650712
            ],
            [
              -40.8003943,
              -20.0650042
            ],
            [
              -40.8006689,
              -20.0647006
            ],
            [
              -40.8007353,
              -20.0646552
            ],
            [
              -40.8008323,
              -20.0646562
            ]
          ]
        ]
      }
    },
    {
      "type": "Feature",
      "id": "way/385929361",
      "properties": {
        "timestamp": "2021-10-18T18:18:05Z",
        "version": 4,
        "changeset": 112664745,
        "IJSN:administra": "Municipal",
        "addr:city": "Santa Maria de Jetibá",
        "addr:country": "BR",
        "addr:postcode": "29645-000",
        "addr:state": "ES",
        "addr:street": "Avenida Otto Thom",
        "addr:suburb": "Recreio",
        "alt_name": "Escola Municipal de Ensino Infantil e Fundamental",
        "amenity": "school",
        "building": "school",
        "building:levels": "2",
        "contact:phone": "(27) 3330-1015",
        "name": "EMEIEF Recreio",
        "source": "IJSN",
        "id": "way/385929361"
      },
      "geometry": {
        "type": "Polygon",
        "coordinates": [
          [
            [
              -40.6839971,
              -20.0219345
            ],
            [
              -40.6839963,
              -20.0220974
            ],
            [
              -40.683623,
              -20.0220958
            ],
            [
              -40.6836239,
              -20.0219329
            ],
            [
              -40.6839971,
              -20.0219345
            ]
          ]
        ]
      }
    },
    {
      "type": "Feature",
      "id": "way/385929364",
      "properties": {
        "timestamp": "2016-03-09T19:11:15Z",
        "version": 2,
        "changeset": 37716865,
        "IJSN:administra": "Municipal",
        "addr:city": "Santa Maria de Jetibá",
        "addr:country": "BR",
        "addr:postcode": "29645-000",
        "addr:state": "ES",
        "addr:suburb": "Comunidade de Baixo Rio Lamego",
        "alt_name": "Escola Municipal Pluridocente de Ensino Infantil e Ensino Fundamental",
        "amenity": "school",
        "name": "EMPEIEF Carlos Zietlow",
        "source": "IJSN",
        "id": "way/385929364"
      },
      "geometry": {
        "type": "Polygon",
        "coordinates": [
          [
            [
              -40.8212519,
              -20.142932
            ],
            [
              -40.8213207,
              -20.1431047
            ],
            [
              -40.8210786,
              -20.1431897
            ],
            [
              -40.8210098,
              -20.143017
            ],
            [
              -40.8212519,
              -20.142932
            ]
          ]
        ]
      }
    },
    {
      "type": "Feature",
      "id": "way/385929365",
      "properties": {
        "timestamp": "2016-03-09T19:11:15Z",
        "version": 2,
        "changeset": 37716865,
        "IJSN:administra": "Municipal",
        "addr:city": "Santa Maria de Jetibá",
        "addr:country": "BR",
        "addr:postcode": "29645-000",
        "addr:state": "ES",
        "addr:suburb": "Comunidade Rio Santa Maria",
        "alt_name": "Escola Municipal Pluridocente de Ensino Infantil e Ensino Fundamental",
        "amenity": "school",
        "name": "EMPEIEF Fazenda Gustavo Rogge",
        "source": "IJSN",
        "id": "way/385929365"
      },
      "geometry": {
        "type": "Polygon",
        "coordinates": [
          [
            [
              -40.8027819,
              -20.1124562
            ],
            [
              -40.8027605,
              -20.1126588
            ],
            [
              -40.8024535,
              -20.1126188
            ],
            [
              -40.802476,
              -20.1124618
            ],
            [
              -40.8025175,
              -20.1124362
            ],
            [
              -40.8027819,
              -20.1124562
            ]
          ]
        ]
      }
    },
    {
      "type": "Feature",
      "id": "way/385929366",
      "properties": {
        "timestamp": "2016-03-09T19:11:15Z",
        "version": 2,
        "changeset": 37716865,
        "IJSN:administra": "Municipal",
        "addr:city": "Santa Maria de Jetibá",
        "addr:country": "BR",
        "addr:postcode": "29645-000",
        "addr:state": "ES",
        "addr:suburb": "Comunidade de Rio Taquara",
        "alt_name": "Escola Municipal Pluridocente de Ensino Infantil e Ensino Fundamental",
        "amenity": "school",
        "name": "EMPEIEF Rio Taquara",
        "source": "IJSN",
        "id": "way/385929366"
      },
      "geometry": {
        "type": "Polygon",
        "coordinates": [
          [
            [
              -40.9764415,
              -20.1425305
            ],
            [
              -40.9765553,
              -20.142623
            ],
            [
              -40.9762682,
              -20.1429344
            ],
            [
              -40.9761543,
              -20.1428419
            ],
            [
              -40.9764415,
              -20.1425305
            ]
          ]
        ]
      }
    },
    {
      "type": "Feature",
      "id": "way/385929367",
      "properties": {
        "timestamp": "2016-03-09T19:11:15Z",
        "version": 2,
        "changeset": 37716865,
        "IJSN:administra": "Municipal",
        "addr:city": "Santa Maria de Jetibá",
        "addr:country": "BR",
        "addr:postcode": "29645-000",
        "addr:state": "ES",
        "addr:suburb": "Comunidade Santa Luzia do Recreio",
        "alt_name": "Escola Municipal Pluridocente de Ensino Infantil e Ensino Fundamental",
        "amenity": "school",
        "name": "EMPEIEF Santa Luzia",
        "source": "IJSN",
        "id": "way/385929367"
      },
      "geometry": {
        "type": "Polygon",
        "coordinates": [
          [
            [
              -40.7086798,
              -20.0206847
            ],
            [
              -40.7084126,
              -20.020788
            ],
            [
              -40.708285,
              -20.020497
            ],
            [
              -40.7085523,
              -20.0203936
            ],
            [
              -40.7086798,
              -20.0206847
            ]
          ]
        ]
      }
    },
    {
      "type": "Feature",
      "id": "way/385929368",
      "properties": {
        "timestamp": "2021-10-10T20:53:22Z",
        "version": 3,
        "changeset": 112348854,
        "IJSN:administra": "Municipal",
        "addr:city": "Santa Maria de Jetibá",
        "addr:country": "BR",
        "addr:postcode": "29645-000",
        "addr:state": "ES",
        "addr:suburb": "Alto Recreio",
        "alt_name": "Escola Municipal Unidocente de Ensino Fundamental",
        "amenity": "school",
        "building": "school",
        "building:levels": "1",
        "name": "EMUEF Alto Recreio",
        "source": "IJSN",
        "id": "way/385929368"
      },
      "geometry": {
        "type": "Polygon",
        "coordinates": [
          [
            [
              -40.7096841,
              -19.9939095
            ],
            [
              -40.7096228,
              -19.9939932
            ],
            [
              -40.7095621,
              -19.993954
            ],
            [
              -40.7095796,
              -19.9939301
            ],
            [
              -40.7094837,
              -19.993868
            ],
            [
              -40.7095276,
              -19.9938082
            ],
            [
              -40.7096841,
              -19.9939095
            ]
          ]
        ]
      }
    },
    {
      "type": "Feature",
      "id": "way/385929369",
      "properties": {
        "timestamp": "2016-03-09T19:11:17Z",
        "version": 2,
        "changeset": 37716865,
        "IJSN:administra": "Municipal",
        "addr:city": "Santa Maria de Jetibá",
        "addr:country": "BR",
        "addr:postcode": "29645-000",
        "addr:state": "ES",
        "addr:suburb": "Baixo Rio Pantoja",
        "alt_name": "Escola Municipal Unidocente de Ensino Fundamental",
        "amenity": "school",
        "name": "EMUEF Baixo Rio Pantoja",
        "source": "IJSN",
        "id": "way/385929369"
      },
      "geometry": {
        "type": "Polygon",
        "coordinates": [
          [
            [
              -40.9063468,
              -20.091204
            ],
            [
              -40.9063375,
              -20.0912759
            ],
            [
              -40.9061884,
              -20.0912589
            ],
            [
              -40.9061977,
              -20.091187
            ],
            [
              -40.9063468,
              -20.091204
            ]
          ]
        ]
      }
    },
    {
      "type": "Feature",
      "id": "way/385929370",
      "properties": {
        "timestamp": "2016-03-09T19:11:18Z",
        "version": 2,
        "changeset": 37716865,
        "IJSN:administra": "Municipal",
        "addr:city": "Santa Maria de Jetibá",
        "addr:country": "BR",
        "addr:postcode": "29645-000",
        "addr:state": "ES",
        "addr:suburb": "Comunidade de Rio do Queijo",
        "alt_name": "Escola Municipal Unidocente de Ensino Fundamental",
        "amenity": "school",
        "name": "EMUEF Rio do Queijo",
        "source": "IJSN",
        "id": "way/385929370"
      },
      "geometry": {
        "type": "Polygon",
        "coordinates": [
          [
            [
              -40.9625632,
              -20.1285506
            ],
            [
              -40.9626344,
              -20.1285724
            ],
            [
              -40.9627387,
              -20.1288165
            ],
            [
              -40.962593,
              -20.1288794
            ],
            [
              -40.9625052,
              -20.1286602
            ],
            [
              -40.9625632,
              -20.1285506
            ]
          ]
        ]
      }
    },
    {
      "type": "Feature",
      "id": "way/385929371",
      "properties": {
        "timestamp": "2016-03-09T19:11:20Z",
        "version": 2,
        "changeset": 37716865,
        "IJSN:administra": "Privada",
        "addr:city": "Santa Maria de Jetibá",
        "addr:country": "BR",
        "addr:postcode": "29645-000",
        "addr:state": "ES",
        "addr:street": "Avenida Frederico Grulke",
        "addr:suburb": "Centro",
        "alt_name": "Escola de Primerio e Segundo Grau",
        "amenity": "school",
        "contact:phone": "(27) 3263-1544",
        "name": "EPSG Cooperação",
        "source": "IJSN",
        "id": "way/385929371"
      },
      "geometry": {
        "type": "Polygon",
        "coordinates": [
          [
            [
              -40.7476753,
              -20.0187832
            ],
            [
              -40.747601,
              -20.0194179
            ],
            [
              -40.747166,
              -20.0194035
            ],
            [
              -40.7472272,
              -20.0186456
            ],
            [
              -40.7474458,
              -20.018623
            ],
            [
              -40.7474851,
              -20.0187935
            ],
            [
              -40.7476753,
              -20.0187832
            ]
          ]
        ]
      }
    },
    {
      "type": "Feature",
      "id": "way/979865891",
      "properties": {
        "timestamp": "2021-09-05T19:13:45Z",
        "version": 1,
        "changeset": 110762570,
        "IJSN:administra": "Municipal",
        "addr:city": "Santa Maria de Jetibá",
        "addr:country": "BR",
        "addr:postcode": "29645-000",
        "addr:state": "ES",
        "addr:suburb": "Comunidade de São bento",
        "alt_name": "Escola Municipal Pluridocente de Ensino Infantil e Ensino Fundamental",
        "amenity": "school",
        "building": "yes",
        "name": "EMPEIEF Cabeceira do Rio Santa Maria",
        "source": "IJSN",
        "id": "way/979865891"
      },
      "geometry": {
        "type": "Polygon",
        "coordinates": [
          [
            [
              -40.9798241,
              -20.192837
            ],
            [
              -40.9797529,
              -20.1927245
            ],
            [
              -40.9799598,
              -20.192609
            ],
            [
              -40.9799906,
              -20.1926576
            ],
            [
              -40.9800721,
              -20.1926121
            ],
            [
              -40.9801126,
              -20.192676
            ],
            [
              -40.9798241,
              -20.192837
            ]
          ]
        ]
      }
    },
    {
      "type": "Feature",
      "id": "way/981021834",
      "properties": {
        "timestamp": "2021-09-08T19:10:10Z",
        "version": 1,
        "changeset": 110935111,
        "IJSN:administra": "Municipal",
        "addr:city": "Santa Maria de Jetibá",
        "addr:country": "BR",
        "addr:postcode": "29645-000",
        "addr:state": "ES",
        "addr:suburb": "Rio Lamego",
        "alt_name": "Escola Municipal Pluridocente de Ensino Infantil e Ensino Fundamental",
        "amenity": "school",
        "building": "house",
        "building:levels": "1",
        "name": "EMPEIEF Cabeceira do Rio Lamego",
        "source": "IJSN",
        "id": "way/981021834"
      },
      "geometry": {
        "type": "Polygon",
        "coordinates": [
          [
            [
              -40.9123607,
              -20.1917986
            ],
            [
              -40.9125942,
              -20.1917287
            ],
            [
              -40.9126206,
              -20.1918062
            ],
            [
              -40.9125536,
              -20.1918262
            ],
            [
              -40.9125614,
              -20.191849
            ],
            [
              -40.9123948,
              -20.1918989
            ],
            [
              -40.9123607,
              -20.1917986
            ]
          ]
        ]
      }
    },
    {
      "type": "Feature",
      "id": "way/981456711",
      "properties": {
        "timestamp": "2021-09-10T22:12:49Z",
        "version": 2,
        "changeset": 111043812,
        "IJSN:administra": "Privada",
        "addr:city": "Santa Maria de Jetibá",
        "addr:country": "BR",
        "addr:postcode": "29649-000",
        "addr:state": "ES",
        "addr:street": "Rodovia Estadual Dalmácio Espíndula",
        "addr:suburb": "São João de Garrafão",
        "alt_name": "Escola Família Agrícola",
        "amenity": "school",
        "building": "yes",
        "building:levels": "3",
        "contact:phone": "(27) 3263-4004",
        "name": "Escola Família Agrícola São João do Garrafão",
        "source": "IJSN",
        "id": "way/981456711"
      },
      "geometry": {
        "type": "Polygon",
        "coordinates": [
          [
            [
              -40.9413425,
              -20.1564038
            ],
            [
              -40.9411586,
              -20.1563388
            ],
            [
              -40.94124,
              -20.1561357
            ],
            [
              -40.9414238,
              -20.1562006
            ],
            [
              -40.9413425,
              -20.1564038
            ]
          ]
        ]
      }
    },
    {
      "type": "Feature",
      "id": "way/981866223",
      "properties": {
        "timestamp": "2021-09-10T22:12:49Z",
        "version": 1,
        "changeset": 111043812,
        "IJSN:administra": "Estadual",
        "addr:city": "Santa Maria de Jetibá",
        "addr:country": "BR",
        "addr:postcode": "29645-000",
        "addr:state": "ES",
        "addr:street": "Avenida João Pedro Lauvers",
        "addr:suburb": "São João de Garrafão",
        "alt_name": "Escola Estadual de Ensino Médio",
        "amenity": "school",
        "building": "yes",
        "building:levels": "1",
        "name": "Escola Estadual de Ensino Médio Francisco Guilherme",
        "operator": "Estado do Espírito Santo",
        "operator:type": "public",
        "source": "IJSN",
        "id": "way/981866223"
      },
      "geometry": {
        "type": "Polygon",
        "coordinates": [
          [
            [
              -40.9451218,
              -20.1539502
            ],
            [
              -40.9450398,
              -20.1538426
            ],
            [
              -40.9450232,
              -20.1538538
            ],
            [
              -40.9449975,
              -20.1538201
            ],
            [
              -40.9453337,
              -20.153594
            ],
            [
              -40.945347,
              -20.1536114
            ],
            [
              -40.9453314,
              -20.1536219
            ],
            [
              -40.9454057,
              -20.1537193
            ],
            [
              -40.9454364,
              -20.1536987
            ],
            [
              -40.9454674,
              -20.1537393
            ],
            [
              -40.9454176,
              -20.1537728
            ],
            [
              -40.9454068,
              -20.1537585
            ],
            [
              -40.9451218,
              -20.1539502
            ]
          ]
        ]
      }
    },
    {
      "type": "Feature",
      "id": "way/983073923",
      "properties": {
        "timestamp": "2021-09-15T12:50:03Z",
        "version": 2,
        "changeset": 111243966,
        "IJSN:administra": "Municipal",
        "addr:city": "Santa Maria de Jetibá",
        "addr:country": "BR",
        "addr:postcode": "29645-000",
        "addr:state": "ES",
        "addr:suburb": "Barracão do Rio Possmoser",
        "alt_name": "Escola Municipal Pluridocente de Ensino Infantil e Ensino Fundamental",
        "amenity": "school",
        "name": "Escola Municipal Pluridocente de Ensino Infantil e Ensino Fundamental Barracão do Rio Possmoser",
        "source": "IJSN",
        "id": "way/983073923"
      },
      "geometry": {
        "type": "Polygon",
        "coordinates": [
          [
            [
              -40.8897625,
              -20.0595781
            ],
            [
              -40.8895671,
              -20.0596879
            ],
            [
              -40.8895344,
              -20.0596366
            ],
            [
              -40.8894802,
              -20.0596671
            ],
            [
              -40.8894446,
              -20.0596112
            ],
            [
              -40.8895319,
              -20.0595621
            ],
            [
              -40.8895512,
              -20.0595925
            ],
            [
              -40.889596,
              -20.0595674
            ],
            [
              -40.8895771,
              -20.0595378
            ],
            [
              -40.8896947,
              -20.0594718
            ],
            [
              -40.8897625,
              -20.0595781
            ]
          ]
        ]
      }
    },
    {
      "type": "Feature",
      "id": "way/983406536",
      "properties": {
        "timestamp": "2021-09-14T21:57:48Z",
        "version": 1,
        "changeset": 111216227,
        "IJSN:administra": "Municipal",
        "addr:city": "Santa Maria de Jetibá",
        "addr:country": "BR",
        "addr:postcode": "29645-000",
        "addr:state": "ES",
        "addr:suburb": "Alto Rio Plantojo",
        "alt_name": "Escola Municipal Pluridocente de Ensino Fundamental",
        "amenity": "school",
        "building": "yes",
        "building:levels": "1",
        "name": "Escola Municipal Pluridocente de Ensino Fundamental Frederico Schultz",
        "source": "IJSN",
        "id": "way/983406536"
      },
      "geometry": {
        "type": "Polygon",
        "coordinates": [
          [
            [
              -40.9532245,
              -20.092338
            ],
            [
              -40.9530666,
              -20.0923975
            ],
            [
              -40.9530213,
              -20.0922915
            ],
            [
              -40.9531792,
              -20.092232
            ],
            [
              -40.9532245,
              -20.092338
            ]
          ]
        ]
      }
    },
    {
      "type": "Feature",
      "id": "way/983726301",
      "properties": {
        "timestamp": "2021-09-26T23:47:59Z",
        "version": 2,
        "changeset": 111743544,
        "addr:city": "Santa Maria de Jetibá",
        "addr:postcode": "29645-000",
        "addr:suburb": "Alto Rio Possmouser",
        "amenity": "school",
        "building": "school",
        "building:levels": "1",
        "name": "Centro Municipal de Educação Infantil Rayane Luiza Berger",
        "id": "way/983726301"
      },
      "geometry": {
        "type": "Polygon",
        "coordinates": [
          [
            [
              -40.8402823,
              -20.0668114
            ],
            [
              -40.8402697,
              -20.0670262
            ],
            [
              -40.8401846,
              -20.0670218
            ],
            [
              -40.8401837,
              -20.0670365
            ],
            [
              -40.8400948,
              -20.0670319
            ],
            [
              -40.8400951,
              -20.0670267
            ],
            [
              -40.8400239,
              -20.0670231
            ],
            [
              -40.8400361,
              -20.0668152
            ],
            [
              -40.8401119,
              -20.0668191
            ],
            [
              -40.8401129,
              -20.0668027
            ],
            [
              -40.8402823,
              -20.0668114
            ]
          ]
        ]
      }
    },
    {
      "type": "Feature",
      "id": "way/986764198",
      "properties": {
        "timestamp": "2021-09-24T19:01:55Z",
        "version": 1,
        "changeset": 111663065,
        "IJSN:administra": "Municipal",
        "addr:city": "Santa Maria de Jetibá",
        "addr:country": "BR",
        "addr:postcode": "29645-000",
        "addr:state": "ES",
        "addr:street": "Estrada Municipal Guilherme João Frederico Kruger",
        "addr:suburb": "Alto Jequitibá",
        "alt_name": "Escola Municipal Unidocente de Ensino Fundamental",
        "amenity": "school",
        "building": "yes",
        "building:levels": "1",
        "name": "EMUEF Adolpho Pagung",
        "source": "IJSN",
        "id": "way/986764198"
      },
      "geometry": {
        "type": "Polygon",
        "coordinates": [
          [
            [
              -40.7255957,
              -20.1425638
            ],
            [
              -40.725578,
              -20.142604
            ],
            [
              -40.7256538,
              -20.1426333
            ],
            [
              -40.7256263,
              -20.1426961
            ],
            [
              -40.7254379,
              -20.1426234
            ],
            [
              -40.7254831,
              -20.1425203
            ],
            [
              -40.7255957,
              -20.1425638
            ]
          ]
        ]
      }
    },
    {
      "type": "Feature",
      "id": "way/990536115",
      "properties": {
        "timestamp": "2021-10-06T19:11:59Z",
        "version": 1,
        "changeset": 112183799,
        "IJSN:administra": "Estadual",
        "addr:city": "Santa Maria de Jetibá",
        "addr:country": "BR",
        "addr:postcode": "29645-000",
        "addr:state": "ES",
        "addr:suburb": "Alto Santa Maria",
        "alt_name": "Escola Estadual de Ensino Fundamental",
        "amenity": "school",
        "building": "yes",
        "building:levels": "1",
        "contact:phone": "(27) 9969-8291",
        "name": "EEEF Fazenda Emílio Schroeder",
        "source": "IJSN",
        "id": "way/990536115"
      },
      "geometry": {
        "type": "Polygon",
        "coordinates": [
          [
            [
              -40.8322997,
              -20.1111313
            ],
            [
              -40.8323097,
              -20.1113142
            ],
            [
              -40.8321182,
              -20.1113234
            ],
            [
              -40.8321262,
              -20.1114685
            ],
            [
              -40.8320392,
              -20.1114727
            ],
            [
              -40.8320327,
              -20.1113538
            ],
            [
              -40.831986,
              -20.1113561
            ],
            [
              -40.8319746,
              -20.111147
            ],
            [
              -40.8322997,
              -20.1111313
            ]
          ]
        ]
      }
    },
    {
      "type": "Feature",
      "id": "node/3892676644",
      "properties": {
        "timestamp": "2016-03-09T19:13:14Z",
        "version": 2,
        "changeset": 37716865,
        "IJSN:administra": "Municipal",
        "addr:city": "Santa Maria de Jetibá",
        "addr:country": "BR",
        "addr:postcode": "29645-000",
        "addr:state": "ES",
        "addr:suburb": "Alto São Sebastião",
        "alt_name": "Escola Municipal de Ensino Fundamental",
        "amenity": "school",
        "name": "EMEF São Sabastião",
        "source": "IJSN",
        "id": "node/3892676644"
      },
      "geometry": {
        "type": "Point",
        "coordinates": [
          -40.7934466,
          -20.0163662
        ]
      }
    },
    {
      "type": "Feature",
      "id": "node/3892676648",
      "properties": {
        "timestamp": "2016-03-09T19:13:19Z",
        "version": 2,
        "changeset": 37716865,
        "IJSN:administra": "Municipal",
        "addr:city": "Santa Maria de Jetibá",
        "addr:country": "BR",
        "addr:postcode": "29645-000",
        "addr:state": "ES",
        "addr:suburb": "Comunidade de São Sebastião do Recreio",
        "alt_name": "Escola Municipal Pluridocente de Ensino Fundamental",
        "amenity": "school",
        "name": "EMPEF Adolfo Stange",
        "source": "IJSN",
        "id": "node/3892676648"
      },
      "geometry": {
        "type": "Point",
        "coordinates": [
          -40.6734814,
          -19.9951326
        ]
      }
    },
    {
      "type": "Feature",
      "id": "node/3892676649",
      "properties": {
        "timestamp": "2016-03-09T19:13:20Z",
        "version": 2,
        "changeset": 37716865,
        "IJSN:administra": "Municipal",
        "addr:city": "Santa Maria de Jetibá",
        "addr:country": "BR",
        "addr:postcode": "29645-000",
        "addr:state": "ES",
        "addr:suburb": "Alto São Sebastião",
        "alt_name": "Escola Municipal Pluridocente de Ensino Fundamental",
        "amenity": "school",
        "name": "EMPEF Fazenda Kruger",
        "source": "IJSN",
        "id": "node/3892676649"
      },
      "geometry": {
        "type": "Point",
        "coordinates": [
          -40.8031883,
          -19.9905555
        ]
      }
    },
    {
      "type": "Feature",
      "id": "node/3892676651",
      "properties": {
        "timestamp": "2016-03-09T19:13:20Z",
        "version": 2,
        "changeset": 37716865,
        "IJSN:administra": "Municipal",
        "addr:city": "Santa Maria de Jetibá",
        "addr:country": "BR",
        "addr:postcode": "29645-000",
        "addr:state": "ES",
        "addr:suburb": "Comunidade de Baixo São Sebastião",
        "alt_name": "Escola Municipal Pluridocente de Ensino Infantil e Ensino Fundamental",
        "amenity": "school",
        "name": "EMPEIEF Alcides Pimentel",
        "source": "IJSN",
        "id": "node/3892676651"
      },
      "geometry": {
        "type": "Point",
        "coordinates": [
          -40.6887769,
          -20.0562279
        ]
      }
    },
    {
      "type": "Feature",
      "id": "node/3892676654",
      "properties": {
        "timestamp": "2016-03-09T19:13:21Z",
        "version": 2,
        "changeset": 37716865,
        "IJSN:administra": "Municipal",
        "addr:city": "Santa Maria de Jetibá",
        "addr:country": "BR",
        "addr:postcode": "29645-000",
        "addr:state": "ES",
        "addr:suburb": "Comunidade de Rio Taquarinha",
        "alt_name": "Escola Municipal Pluridocente de Ensino Infantil e Ensino Fundamental",
        "amenity": "school",
        "name": "EMPEIEF Carlos Zummach",
        "source": "IJSN",
        "id": "node/3892676654"
      },
      "geometry": {
        "type": "Point",
        "coordinates": [
          -41.0153639,
          -20.1368665
        ]
      }
    },
    {
      "type": "Feature",
      "id": "node/3892676655",
      "properties": {
        "timestamp": "2016-03-09T19:13:21Z",
        "version": 2,
        "changeset": 37716865,
        "IJSN:administra": "Municipal",
        "addr:city": "Santa Maria de Jetibá",
        "addr:country": "BR",
        "addr:postcode": "29645-000",
        "addr:state": "ES",
        "addr:suburb": "São Sebastião de Cima",
        "alt_name": "Escola Municipal Pluridocente de Ensino Infantil e Ensino Fundamental",
        "amenity": "school",
        "name": "EMPEIEF Córrego São Sebastião",
        "source": "IJSN",
        "id": "node/3892676655"
      },
      "geometry": {
        "type": "Point",
        "coordinates": [
          -40.7824203,
          -20.0494054
        ]
      }
    },
    {
      "type": "Feature",
      "id": "node/3892676656",
      "properties": {
        "timestamp": "2016-03-09T19:13:21Z",
        "version": 2,
        "changeset": 37716865,
        "IJSN:administra": "Municipal",
        "addr:city": "Santa Maria de Jetibá",
        "addr:country": "BR",
        "addr:postcode": "29645-000",
        "addr:state": "ES",
        "addr:suburb": "Comunidade do Córrego Plaster",
        "alt_name": "Escola Municipal Pluridocente de Ensino Infantil e Ensino Fundamental",
        "amenity": "school",
        "name": "EMPEIEF Fazenda Arthur Plaster",
        "source": "IJSN",
        "id": "node/3892676656"
      },
      "geometry": {
        "type": "Point",
        "coordinates": [
          -40.8111897,
          -20.1643426
        ]
      }
    },
    {
      "type": "Feature",
      "id": "node/3892681557",
      "properties": {
        "timestamp": "2016-03-09T19:13:21Z",
        "version": 2,
        "changeset": 37716865,
        "IJSN:administra": "Municipal",
        "addr:city": "Santa Maria de Jetibá",
        "addr:country": "BR",
        "addr:postcode": "29645-000",
        "addr:state": "ES",
        "addr:suburb": "Córrego Aparecida",
        "alt_name": "Escola Municipal Pluridocente de Ensino Infantil e Ensino Fundamental",
        "amenity": "school",
        "name": "EMPEIEF Fazenda Franz Schneider",
        "source": "IJSN",
        "id": "node/3892681557"
      },
      "geometry": {
        "type": "Point",
        "coordinates": [
          -40.8549473,
          -20.0385392
        ]
      }
    },
    {
      "type": "Feature",
      "id": "node/3892681558",
      "properties": {
        "timestamp": "2016-03-09T19:13:22Z",
        "version": 2,
        "changeset": 37716865,
        "IJSN:administra": "Municipal",
        "addr:city": "Santa Maria de Jetibá",
        "addr:country": "BR",
        "addr:postcode": "29645-000",
        "addr:state": "ES",
        "addr:suburb": "Comunidade de Baixo Rio Lamego",
        "alt_name": "Escola Municipal Pluridocente de Ensino Infantil e Ensino Fundamental",
        "amenity": "school",
        "name": "EMPEIEF Rio Lamego",
        "source": "IJSN",
        "id": "node/3892681558"
      },
      "geometry": {
        "type": "Point",
        "coordinates": [
          -40.8499688,
          -20.1720532
        ]
      }
    },
    {
      "type": "Feature",
      "id": "node/3892681559",
      "properties": {
        "timestamp": "2016-03-09T19:13:22Z",
        "version": 2,
        "changeset": 37716865,
        "IJSN:administra": "Municipal",
        "addr:city": "Santa Maria de Jetibá",
        "addr:country": "BR",
        "addr:postcode": "29645-000",
        "addr:state": "ES",
        "addr:suburb": "Rio das Pedras",
        "alt_name": "Escola Municipal Pluridocente de Ensino Infantil e Ensino Fundamental",
        "amenity": "school",
        "contact:phone": "(27) 3330-1002",
        "name": "EMPEIEF Rio Triunfo",
        "source": "IJSN",
        "id": "node/3892681559"
      },
      "geometry": {
        "type": "Point",
        "coordinates": [
          -40.7379859,
          -20.0822887
        ]
      }
    },
    {
      "type": "Feature",
      "id": "node/3892681561",
      "properties": {
        "timestamp": "2016-03-09T19:13:22Z",
        "version": 2,
        "changeset": 37716865,
        "IJSN:administra": "Municipal",
        "addr:city": "Santa Maria de Jetibá",
        "addr:country": "BR",
        "addr:postcode": "29645-000",
        "addr:state": "ES",
        "addr:suburb": "Comunidade Rio das Pedras",
        "alt_name": "Escola Municipal Unidocente de Ensino Fundamental",
        "amenity": "school",
        "name": "EMUEF Alberto Schulz",
        "source": "IJSN",
        "id": "node/3892681561"
      },
      "geometry": {
        "type": "Point",
        "coordinates": [
          -40.7484277,
          -20.1109359
        ]
      }
    },
    {
      "type": "Feature",
      "id": "node/3892681562",
      "properties": {
        "timestamp": "2016-03-09T19:13:23Z",
        "version": 2,
        "changeset": 37716865,
        "IJSN:administra": "Municipal",
        "addr:city": "Santa Maria de Jetibá",
        "addr:country": "BR",
        "addr:postcode": "29645-000",
        "addr:state": "ES",
        "addr:suburb": "Alto Rio Triunfo",
        "alt_name": "Escola Municipal Unidocente de Ensino Fundamental",
        "amenity": "school",
        "name": "EMUEF Alto Rio Triunfo",
        "source": "IJSN",
        "id": "node/3892681562"
      },
      "geometry": {
        "type": "Point",
        "coordinates": [
          -40.7737078,
          -20.11135
        ]
      }
    },
    {
      "type": "Feature",
      "id": "node/3892681563",
      "properties": {
        "timestamp": "2016-03-09T19:13:23Z",
        "version": 2,
        "changeset": 37716865,
        "IJSN:administra": "Municipal",
        "addr:city": "Santa Maria de Jetibá",
        "addr:country": "BR",
        "addr:postcode": "29645-000",
        "addr:state": "ES",
        "addr:suburb": "Cabeceira do Rio Possmoser",
        "alt_name": "Escola Municipal Unidocente de Ensino Fundamental",
        "amenity": "school",
        "name": "EMUEF Cabeceira do Rio Possmoser",
        "source": "IJSN",
        "id": "node/3892681563"
      },
      "geometry": {
        "type": "Point",
        "coordinates": [
          -40.8815323,
          -20.071722
        ]
      }
    },
    {
      "type": "Feature",
      "id": "node/3892681564",
      "properties": {
        "timestamp": "2021-09-09T10:55:04Z",
        "version": 3,
        "changeset": 110969082,
        "IJSN:administra": "Municipal",
        "addr:city": "Santa Maria de Jetibá",
        "addr:country": "BR",
        "addr:postcode": "29645-000",
        "addr:state": "ES",
        "addr:suburb": "Comunidade do Córrego Simão",
        "alt_name": "Escola Municipal Unidocente de Ensino Fundamental",
        "amenity": "school",
        "name": "EMUEF Córrego Simão",
        "source": "IJSN",
        "id": "node/3892681564"
      },
      "geometry": {
        "type": "Point",
        "coordinates": [
          -40.9133508,
          -20.1212488
        ]
      }
    },
    {
      "type": "Feature",
      "id": "node/3892681565",
      "properties": {
        "timestamp": "2016-03-09T19:13:24Z",
        "version": 2,
        "changeset": 37716865,
        "IJSN:administra": "Municipal",
        "addr:city": "Santa Maria de Jetibá",
        "addr:country": "BR",
        "addr:postcode": "29645-000",
        "addr:state": "ES",
        "addr:suburb": "Alto São Sebastião",
        "alt_name": "Escola Municipal Unidocente de Ensino Fundamental",
        "amenity": "school",
        "name": "EMUEF Fazenda Franz Boldt",
        "source": "IJSN",
        "id": "node/3892681565"
      },
      "geometry": {
        "type": "Point",
        "coordinates": [
          -40.830996,
          -20.0034936
        ]
      }
    },
    {
      "type": "Feature",
      "id": "node/3892681566",
      "properties": {
        "timestamp": "2016-03-09T19:13:25Z",
        "version": 2,
        "changeset": 37716865,
        "IJSN:administra": "Municipal",
        "addr:city": "Santa Maria de Jetibá",
        "addr:country": "BR",
        "addr:postcode": "29645-000",
        "addr:state": "ES",
        "addr:suburb": "Córrego do Ouro",
        "alt_name": "Escola Municipal Unidocente de Ensino Fundamental",
        "amenity": "school",
        "name": "EMUEF Fazenda Gustavo Berger",
        "source": "IJSN",
        "id": "node/3892681566"
      },
      "geometry": {
        "type": "Point",
        "coordinates": [
          -40.7578804,
          -20.0722713
        ]
      }
    },
    {
      "type": "Feature",
      "id": "node/3892681568",
      "properties": {
        "timestamp": "2016-03-09T19:13:25Z",
        "version": 2,
        "changeset": 37716865,
        "IJSN:administra": "Municipal",
        "addr:city": "Santa Maria de Jetibá",
        "addr:country": "BR",
        "addr:postcode": "29645-000",
        "addr:state": "ES",
        "addr:suburb": "Alto São Sebastião",
        "alt_name": "Escola Municipal Unidocente de Ensino Fundamental",
        "amenity": "school",
        "name": "EMUEF Fazenda Victor Ponath",
        "source": "IJSN",
        "id": "node/3892681568"
      },
      "geometry": {
        "type": "Point",
        "coordinates": [
          -40.8213894,
          -20.02036
        ]
      }
    },
    {
      "type": "Feature",
      "id": "node/3892681569",
      "properties": {
        "timestamp": "2021-10-17T20:13:27Z",
        "version": 3,
        "changeset": 112626017,
        "IJSN:administra": "Municipal",
        "addr:city": "Santa Maria de Jetibá",
        "addr:country": "BR",
        "addr:postcode": "29645-000",
        "addr:state": "ES",
        "addr:suburb": "Rio Novo",
        "alt_name": "Escola Municipal Unidocente de Ensino Fundamental",
        "amenity": "school",
        "name": "EMUEF Florêncio Bausen",
        "source": "IJSN",
        "id": "node/3892681569"
      },
      "geometry": {
        "type": "Point",
        "coordinates": [
          -40.6595044,
          -20.000354
        ]
      }
    },
    {
      "type": "Feature",
      "id": "node/3892681570",
      "properties": {
        "timestamp": "2016-03-09T19:13:25Z",
        "version": 2,
        "changeset": 37716865,
        "IJSN:administra": "Municipal",
        "addr:city": "Santa Maria de Jetibá",
        "addr:country": "BR",
        "addr:postcode": "29645-000",
        "addr:state": "ES",
        "addr:suburb": "Comunidade de Rio Taquara",
        "alt_name": "Escola Municipal Unidocente de Ensino Fundamental",
        "amenity": "school",
        "name": "EMUEF Guarino Schiavo",
        "source": "IJSN",
        "id": "node/3892681570"
      },
      "geometry": {
        "type": "Point",
        "coordinates": [
          -41.0066812,
          -20.1604255
        ]
      }
    },
    {
      "type": "Feature",
      "id": "node/3892681571",
      "properties": {
        "timestamp": "2016-03-09T19:13:26Z",
        "version": 2,
        "changeset": 37716865,
        "IJSN:administra": "Municipal",
        "addr:city": "Santa Maria de Jetibá",
        "addr:country": "BR",
        "addr:postcode": "29645-000",
        "addr:state": "ES",
        "addr:suburb": "Comunidade de Caramurú",
        "alt_name": "Escola Municipal Unidocente de Ensino Fundamental",
        "amenity": "school",
        "name": "EMUEF João Guilherme Gemano Borchardt",
        "source": "IJSN",
        "id": "node/3892681571"
      },
      "geometry": {
        "type": "Point",
        "coordinates": [
          -40.7080686,
          -20.1081638
        ]
      }
    },
    {
      "type": "Feature",
      "id": "node/3892681572",
      "properties": {
        "timestamp": "2016-03-09T19:13:26Z",
        "version": 2,
        "changeset": 37716865,
        "IJSN:administra": "Municipal",
        "addr:city": "Santa Maria de Jetibá",
        "addr:country": "BR",
        "addr:postcode": "29645-000",
        "addr:state": "ES",
        "addr:suburb": "Comunidade de Rio Claro",
        "alt_name": "Escola Municipal Unidocente de Ensino Fundamental",
        "amenity": "school",
        "name": "EMUEF Rio Claro",
        "source": "IJSN",
        "id": "node/3892681572"
      },
      "geometry": {
        "type": "Point",
        "coordinates": [
          -40.7722378,
          -20.1477484
        ]
      }
    },
    {
      "type": "Feature",
      "id": "node/3892681573",
      "properties": {
        "timestamp": "2016-03-09T19:13:27Z",
        "version": 2,
        "changeset": 37716865,
        "IJSN:administra": "Municipal",
        "addr:city": "Santa Maria de Jetibá",
        "addr:country": "BR",
        "addr:postcode": "29645-000",
        "addr:state": "ES",
        "addr:suburb": "Comunidade de Rio Sabino",
        "alt_name": "Escola Municipal Unidocente de Ensino Fundamental",
        "amenity": "school",
        "name": "EMUEF Rio Sabino",
        "source": "IJSN",
        "id": "node/3892681573"
      },
      "geometry": {
        "type": "Point",
        "coordinates": [
          -40.94377,
          -20.122672
        ]
      }
    },
    {
      "type": "Feature",
      "id": "node/3892681574",
      "properties": {
        "timestamp": "2016-03-09T19:13:27Z",
        "version": 2,
        "changeset": 37716865,
        "IJSN:administra": "Municipal",
        "addr:city": "Santa Maria de Jetibá",
        "addr:country": "BR",
        "addr:postcode": "29645-000",
        "addr:state": "ES",
        "addr:suburb": "Comunidade de Rio Taquarinha",
        "alt_name": "Escola Municipal Unidocente de Ensino Fundamental",
        "amenity": "school",
        "name": "EMUEF Rio Taquarinha",
        "source": "IJSN",
        "id": "node/3892681574"
      },
      "geometry": {
        "type": "Point",
        "coordinates": [
          -41.0040824,
          -20.1243606
        ]
      }
    },
    {
      "type": "Feature",
      "id": "node/3892681575",
      "properties": {
        "timestamp": "2016-03-09T19:13:28Z",
        "version": 2,
        "changeset": 37716865,
        "IJSN:administra": "Municipal",
        "addr:city": "Santa Maria de Jetibá",
        "addr:country": "BR",
        "addr:postcode": "29645-000",
        "addr:state": "ES",
        "addr:suburb": "Comunidade São José do Rio Claro",
        "alt_name": "Escola Municipal Unidocente de Ensino Fundamental",
        "amenity": "school",
        "name": "EMUEF São José do Rio Claro",
        "source": "IJSN",
        "id": "node/3892681575"
      },
      "geometry": {
        "type": "Point",
        "coordinates": [
          -40.6268285,
          -20.0167156
        ]
      }
    },
    {
      "type": "Feature",
      "id": "node/4024906589",
      "properties": {
        "timestamp": "2016-02-25T02:02:11Z",
        "version": 1,
        "changeset": 37426154,
        "IJSN:administra": "Municipal",
        "IJSN:classeCnae": "Fundamental",
        "addr:city": "Santa Teresa",
        "addr:postcode": "29650-000",
        "addr:suburb": "Comunidade Serra do Gelo",
        "alt_name": "Escola Municipal Unidocente de Ensino Fundamental",
        "amenity": "school",
        "name": "EMUEF Serra do Gelo",
        "source": "IJSN",
        "id": "node/4024906589"
      },
      "geometry": {
        "type": "Point",
        "coordinates": [
          -40.7583649,
          -19.978538
        ]
      }
    }
  ]
}
