{
  "type": "FeatureCollection",
  "features": [
    {
      "type": "Feature",
      "id": "way/124532431",
      "properties": {
        "timestamp": "2023-09-13T15:06:56Z",
        "version": 3,
        "changeset": 141216336,
        "addr:city": "Rol√¢ndia",
        "addr:housenumber": "400",
        "addr:postcode": "86600-000",
        "addr:street": "Rua Dom Pedro II",
        "addr:suburb": "Jardim Novo Horizonte",
        "amenity": "university",
        "name": "Faccar",
        "website": "https://vestibular.faccar.com.br/",
        "id": "way/124532431"
      },
      "geometry": {
        "type": "Polygon",
        "coordinates": [
          [
            [
              -51.3900467,
              -23.3123043
            ],
            [
              -51.3893827,
              -23.311556
            ],
            [
              -51.3908693,
              -23.3104557
            ],
            [
              -51.3915324,
              -23.3111976
            ],
            [
              -51.3900467,
              -23.3123043
            ]
          ]
        ]
      }
    }
  ]
}
