{
  "type": "FeatureCollection",
  "features": [
    {
      "type": "Feature",
      "id": "node/11649428691",
      "properties": {
        "timestamp": "2024-03-07T13:23:55Z",
        "version": 7,
        "changeset": 148341801,
        "addr:city": "Piumhi",
        "addr:housenumber": "114",
        "addr:postcode": "37925-0000",
        "addr:street": "Praça Tuiuti",
        "addr:suburb": "Centro",
        "amenity": "doctors",
        "check_date": "2024-02-22",
        "currency:XBT": "yes",
        "healthcare": "doctor",
        "healthcare:speciality": "paediatrics",
        "mobile": "+5537999568926",
        "name": "Consultório Dr Gabriel Tavares Pediatra",
        "opening_hours": "Mo-Sa 08:00-18:00",
        "payment:coins": "yes",
        "payment:contactless": "yes",
        "payment:cryptocurrencies": "yes",
        "payment:lightning": "yes",
        "payment:onchain": "yes",
        "id": "node/11649428691"
      },
      "geometry": {
        "type": "Point",
        "coordinates": [
          -45.9570485,
          -20.4707002
        ]
      }
    }
  ]
}
