{
  "type": "FeatureCollection",
  "features": [
    {
      "type": "Feature",
      "id": "way/1029073552",
      "properties": {
        "timestamp": "2022-02-07T19:12:05Z",
        "version": 1,
        "changeset": 117132259,
        "amenity": "school",
        "name": "Creche Tia Maria Helena",
        "id": "way/1029073552"
      },
      "geometry": {
        "type": "Polygon",
        "coordinates": [
          [
            [
              -42.6427246,
              -5.9081034
            ],
            [
              -42.6431129,
              -5.9080341
            ],
            [
              -42.6431962,
              -5.9084241
            ],
            [
              -42.6427952,
              -5.908497
            ],
            [
              -42.6427246,
              -5.9081034
            ]
          ]
        ]
      }
    },
    {
      "type": "Feature",
      "id": "way/1029073633",
      "properties": {
        "timestamp": "2022-02-07T19:12:53Z",
        "version": 1,
        "changeset": 117132284,
        "addr:city": "Água Branca",
        "amenity": "school",
        "name": "Escola Municipal Padre Joao Batista Gougeon",
        "id": "way/1029073633"
      },
      "geometry": {
        "type": "Polygon",
        "coordinates": [
          [
            [
              -42.6483515,
              -5.8965334
            ],
            [
              -42.6480027,
              -5.8971466
            ],
            [
              -42.6475396,
              -5.8968638
            ],
            [
              -42.6478617,
              -5.896297
            ],
            [
              -42.6483515,
              -5.8965334
            ]
          ]
        ]
      }
    },
    {
      "type": "Feature",
      "id": "way/1029074007",
      "properties": {
        "timestamp": "2022-02-07T19:15:06Z",
        "version": 1,
        "changeset": 117132351,
        "addr:city": "Água Branca",
        "addr:postcode": "64460-000",
        "addr:street": "Rua Quatro",
        "amenity": "school",
        "name": "Escola Municipal Joaquim Calado",
        "phone": "+55 86 3282 1414",
        "id": "way/1029074007"
      },
      "geometry": {
        "type": "Polygon",
        "coordinates": [
          [
            [
              -42.6424461,
              -5.8956567
            ],
            [
              -42.6422105,
              -5.8959931
            ],
            [
              -42.6417821,
              -5.8956964
            ],
            [
              -42.6420176,
              -5.8953599
            ],
            [
              -42.6424461,
              -5.8956567
            ]
          ]
        ]
      }
    },
    {
      "type": "Feature",
      "id": "way/1029074366",
      "properties": {
        "timestamp": "2022-02-07T19:18:47Z",
        "version": 1,
        "changeset": 117132458,
        "addr:city": "Água Branca",
        "addr:housenumber": "1505",
        "addr:postcode": "64460-000",
        "addr:street": "Avenida José Miguel",
        "addr:suburb": "Centro",
        "amenity": "school",
        "name": "U E Wall Ferraz",
        "phone": "+55 86 3282 2264",
        "id": "way/1029074366"
      },
      "geometry": {
        "type": "Polygon",
        "coordinates": [
          [
            [
              -42.6368679,
              -5.8956425
            ],
            [
              -42.6365943,
              -5.8961921
            ],
            [
              -42.6360579,
              -5.895888
            ],
            [
              -42.6362376,
              -5.8955731
            ],
            [
              -42.6364146,
              -5.8956638
            ],
            [
              -42.6365541,
              -5.8954477
            ],
            [
              -42.6368679,
              -5.8956425
            ]
          ]
        ]
      }
    },
    {
      "type": "Feature",
      "id": "way/1029075950",
      "properties": {
        "timestamp": "2022-02-07T19:24:31Z",
        "version": 1,
        "changeset": 117132671,
        "addr:city": "Água Branca",
        "addr:housenumber": "364",
        "addr:postcode": "64460-000",
        "addr:street": "Avenida Neco Teixeira",
        "addr:suburb": "Centro",
        "amenity": "school",
        "name": "Ceti Monsenhor Boson",
        "id": "way/1029075950"
      },
      "geometry": {
        "type": "Polygon",
        "coordinates": [
          [
            [
              -42.6323457,
              -5.8873662
            ],
            [
              -42.6323055,
              -5.8880146
            ],
            [
              -42.6316752,
              -5.8879479
            ],
            [
              -42.6317342,
              -5.8873582
            ],
            [
              -42.6323457,
              -5.8873662
            ]
          ]
        ]
      }
    },
    {
      "type": "Feature",
      "id": "way/1029076029",
      "properties": {
        "timestamp": "2022-02-07T19:25:03Z",
        "version": 1,
        "changeset": 117132690,
        "amenity": "school",
        "name": "Escola Municipal Adelaide Rosa",
        "id": "way/1029076029"
      },
      "geometry": {
        "type": "Polygon",
        "coordinates": [
          [
            [
              -42.6274802,
              -5.8915684
            ],
            [
              -42.6271798,
              -5.8920193
            ],
            [
              -42.626823,
              -5.8918032
            ],
            [
              -42.6271127,
              -5.8913576
            ],
            [
              -42.6274802,
              -5.8915684
            ]
          ]
        ]
      }
    },
    {
      "type": "Feature",
      "id": "way/1029076287",
      "properties": {
        "timestamp": "2022-02-07T19:25:53Z",
        "version": 1,
        "changeset": 117132717,
        "addr:city": "Água Branca",
        "addr:postcode": "64460-000",
        "addr:street": "Rua São Luís",
        "addr:suburb": "Poeirão",
        "amenity": "school",
        "name": "Unidade Operacional Pequeno Principe",
        "phone": "+55 86 3282 1414",
        "id": "way/1029076287"
      },
      "geometry": {
        "type": "Polygon",
        "coordinates": [
          [
            [
              -42.6262169,
              -5.8916111
            ],
            [
              -42.6260935,
              -5.8921501
            ],
            [
              -42.6256751,
              -5.892046
            ],
            [
              -42.6258413,
              -5.891403
            ],
            [
              -42.6262169,
              -5.8916111
            ]
          ]
        ]
      }
    },
    {
      "type": "Feature",
      "id": "way/1029405557",
      "properties": {
        "timestamp": "2022-02-08T19:49:47Z",
        "version": 1,
        "changeset": 117175111,
        "amenity": "school",
        "name": "Creche Cavalinho Azul",
        "phone": "+55 86 3282 1414",
        "id": "way/1029405557"
      },
      "geometry": {
        "type": "Polygon",
        "coordinates": [
          [
            [
              -42.6493193,
              -5.8860291
            ],
            [
              -42.6500828,
              -5.8856551
            ],
            [
              -42.6501434,
              -5.8857925
            ],
            [
              -42.6493709,
              -5.8861496
            ],
            [
              -42.6493193,
              -5.8860291
            ]
          ]
        ]
      }
    },
    {
      "type": "Feature",
      "id": "node/6405166240",
      "properties": {
        "timestamp": "2019-04-14T22:26:12Z",
        "version": 2,
        "changeset": 69215449,
        "addr:city": "Água Branca",
        "addr:housenumber": "649",
        "addr:postcode": "64460-000",
        "addr:street": "Avenida Neco Teixeira",
        "addr:suburb": "Centro",
        "amenity": "school",
        "name": "Estilo Cyber Café",
        "school": "internet_cafe",
        "id": "node/6405166240"
      },
      "geometry": {
        "type": "Point",
        "coordinates": [
          -42.6345101,
          -5.8893319
        ]
      }
    },
    {
      "type": "Feature",
      "id": "node/9472298572",
      "properties": {
        "timestamp": "2022-02-03T18:42:24Z",
        "version": 1,
        "changeset": 116976342,
        "amenity": "school",
        "name": "Escola Municipal Lourenco Lima",
        "phone": "+55 86 3282 1414",
        "id": "node/9472298572"
      },
      "geometry": {
        "type": "Point",
        "coordinates": [
          -42.6229258,
          -5.9281847
        ]
      }
    },
    {
      "type": "Feature",
      "id": "node/9487618203",
      "properties": {
        "timestamp": "2022-02-07T19:20:04Z",
        "version": 1,
        "changeset": 117132501,
        "addr:city": "Água Branca",
        "addr:housenumber": "1505",
        "addr:postcode": "64460-000",
        "addr:street": "Avenida José Miguel",
        "addr:suburb": "Centro",
        "amenity": "school",
        "name": "Escola Municipal Maria Do Carmo Ennes Fonseca",
        "phone": "+55 86 3282 1414",
        "id": "node/9487618203"
      },
      "geometry": {
        "type": "Point",
        "coordinates": [
          -42.633601,
          -5.8938736
        ]
      }
    },
    {
      "type": "Feature",
      "id": "node/9487648957",
      "properties": {
        "timestamp": "2022-02-07T19:17:37Z",
        "version": 1,
        "changeset": 117132426,
        "addr:city": "Água Branca",
        "addr:postcode": "64460-000",
        "addr:street": "Rua João Inácio Monteiro",
        "amenity": "school",
        "name": "Escola Municipal Anatalia Carneiro",
        "id": "node/9487648957"
      },
      "geometry": {
        "type": "Point",
        "coordinates": [
          -42.6366721,
          -5.8966083
        ]
      }
    },
    {
      "type": "Feature",
      "id": "node/9487655439",
      "properties": {
        "timestamp": "2022-02-07T19:11:40Z",
        "version": 1,
        "changeset": 117132248,
        "amenity": "school",
        "name": "Escola Municipal Jeremias Catarino",
        "phone": "+55 86 3282 1414",
        "id": "node/9487655439"
      },
      "geometry": {
        "type": "Point",
        "coordinates": [
          -42.6409046,
          -5.9351518
        ]
      }
    },
    {
      "type": "Feature",
      "id": "node/9487657426",
      "properties": {
        "timestamp": "2022-02-07T19:26:22Z",
        "version": 1,
        "changeset": 117132739,
        "amenity": "school",
        "name": "Escola Municipal Joao Justo",
        "phone": "+55 86 3282 1414",
        "id": "node/9487657426"
      },
      "geometry": {
        "type": "Point",
        "coordinates": [
          -42.646843,
          -5.8877745
        ]
      }
    },
    {
      "type": "Feature",
      "id": "node/9487659171",
      "properties": {
        "timestamp": "2022-02-07T19:15:53Z",
        "version": 1,
        "changeset": 117132370,
        "addr:city": "Água Branca",
        "addr:housenumber": "568",
        "addr:postcode": "64460-000",
        "addr:street": "Rua Virgílio Ferreira Soares",
        "addr:suburb": "Campo Novo",
        "amenity": "school",
        "name": "Creche Sao Jose",
        "phone": "+55 86 3282 1414",
        "id": "node/9487659171"
      },
      "geometry": {
        "type": "Point",
        "coordinates": [
          -42.639644,
          -5.8935108
        ]
      }
    },
    {
      "type": "Feature",
      "id": "node/9487662223",
      "properties": {
        "timestamp": "2022-02-07T19:16:33Z",
        "version": 1,
        "changeset": 117132387,
        "addr:city": "Água Branca",
        "addr:postcode": "64460-000",
        "addr:street": "Rua Bom Jesus",
        "addr:suburb": "Campo Novo",
        "amenity": "school",
        "name": "Escola Municipal Maria De Sousa",
        "phone": "+55 86 3282 1414",
        "id": "node/9487662223"
      },
      "geometry": {
        "type": "Point",
        "coordinates": [
          -42.6394482,
          -5.8930652
        ]
      }
    }
  ]
}
