{
  "type": "FeatureCollection",
  "features": [
    {
      "type": "Feature",
      "id": "way/612379143",
      "properties": {
        "timestamp": "2018-11-23T01:49:21Z",
        "version": 2,
        "changeset": 64797833,
        "addr:housenumber": "276",
        "addr:postcode": "14801-170",
        "addr:street": "Avenida Prudente de Morais",
        "amenity": "doctors",
        "building": "yes",
        "healthcare": "doctor",
        "healthcare:speciality": "ophthalmology",
        "name": "Clínica de Olhos",
        "phone": "+55 16 3332-7135;+55 16 3332-7136",
        "id": "way/612379143"
      },
      "geometry": {
        "type": "Polygon",
        "coordinates": [
          [
            [
              -48.1747708,
              -21.7864857
            ],
            [
              -48.1747359,
              -21.7866345
            ],
            [
              -48.1746528,
              -21.7866177
            ],
            [
              -48.1746876,
              -21.7864689
            ],
            [
              -48.1747708,
              -21.7864857
            ]
          ]
        ]
      }
    },
    {
      "type": "Feature",
      "id": "way/653416194",
      "properties": {
        "timestamp": "2022-09-15T18:17:22Z",
        "version": 2,
        "changeset": 126235376,
        "addr:city": "Araraquara",
        "addr:housenumber": "1407",
        "addr:street": "Rua Expedicionários do Brasil",
        "addr:suburb": "Centro",
        "amenity": "doctors",
        "building": "yes",
        "contact:phone": "+55 16 3397 2000",
        "healthcare": "doctor",
        "healthcare:speciality": "ophthalmology",
        "name": "HOA Hospital Oftalmológico Araraquara",
        "opening_hours": "Mo-Fr 08:00-18:00",
        "id": "way/653416194"
      },
      "geometry": {
        "type": "Polygon",
        "coordinates": [
          [
            [
              -48.1807451,
              -21.7953772
            ],
            [
              -48.1808751,
              -21.7954091
            ],
            [
              -48.1808189,
              -21.7956066
            ],
            [
              -48.1806889,
              -21.7955747
            ],
            [
              -48.1807451,
              -21.7953772
            ]
          ]
        ]
      }
    },
    {
      "type": "Feature",
      "id": "way/656820609",
      "properties": {
        "timestamp": "2022-02-23T02:32:08Z",
        "version": 2,
        "changeset": 117749532,
        "amenity": "doctors",
        "building": "yes",
        "healthcare": "doctor",
        "id": "way/656820609"
      },
      "geometry": {
        "type": "Polygon",
        "coordinates": [
          [
            [
              -48.1803322,
              -21.7863223
            ],
            [
              -48.18031,
              -21.7864189
            ],
            [
              -48.1802616,
              -21.7864093
            ],
            [
              -48.1802665,
              -21.7863879
            ],
            [
              -48.1801661,
              -21.7863679
            ],
            [
              -48.1801784,
              -21.7863148
            ],
            [
              -48.1802192,
              -21.7863229
            ],
            [
              -48.1802243,
              -21.7863008
            ],
            [
              -48.1803322,
              -21.7863223
            ]
          ]
        ]
      }
    },
    {
      "type": "Feature",
      "id": "node/4923125619",
      "properties": {
        "timestamp": "2023-07-17T07:03:22Z",
        "version": 6,
        "changeset": 138606390,
        "addr:city": "Araraquara",
        "addr:housenumber": "2097",
        "addr:postcode": "14801-360",
        "addr:street": "Rua Expedicionários do Brasil",
        "addr:suburb": "Centro",
        "amenity": "doctors",
        "emergency": "yes",
        "healthcare": "doctor",
        "name": "Consultório Pirani | Osteopatia Acupuntura",
        "opening_hours": "Mo-Fr 08:00-20:00; Sa 08:00-16:00",
        "phone": "+55 16 4042-0244",
        "website": "https://fb.me/consultoriopirani",
        "wheelchair": "yes",
        "id": "node/4923125619"
      },
      "geometry": {
        "type": "Point",
        "coordinates": [
          -48.1825676,
          -21.7894868
        ]
      }
    }
  ]
}
