{
  "type": "FeatureCollection",
  "features": [
    {
      "type": "Feature",
      "id": "way/806571621",
      "properties": {
        "timestamp": "2020-05-20T22:55:37Z",
        "version": 1,
        "changeset": 85520990,
        "addr:city": "Alto Longá",
        "addr:postcode": "64360-000",
        "addr:street": "Travessa Virgílio Campelo",
        "addr:suburb": "Centro",
        "amenity": "university",
        "name": "UAB - Alto Longá",
        "operator": "Estado do Piauí",
        "operator:type": "public",
        "id": "way/806571621"
      },
      "geometry": {
        "type": "Polygon",
        "coordinates": [
          [
            [
              -42.2093992,
              -5.2486777
            ],
            [
              -42.209415,
              -5.2487924
            ],
            [
              -42.2092382,
              -5.2488166
            ],
            [
              -42.2092224,
              -5.2487018
            ],
            [
              -42.2093992,
              -5.2486777
            ]
          ]
        ]
      }
    }
  ]
}
