{
  "type": "FeatureCollection",
  "features": [
    {
      "type": "Feature",
      "id": "way/943913842",
      "properties": {
        "timestamp": "2021-05-17T14:02:57Z",
        "version": 1,
        "changeset": 104830832,
        "addr:city": "Farias Brito",
        "addr:postcode": "63185000",
        "addr:street": "Rua Aracy Freitas Francelino",
        "addr:suburb": "Boa Vista",
        "amenity": "pharmacy",
        "building": "yes",
        "dispensing": "yes",
        "healthcare": "pharmacy",
        "name": "Centro de Atendimento FarmacÃªutico - CAF",
        "id": "way/943913842"
      },
      "geometry": {
        "type": "Polygon",
        "coordinates": [
          [
            [
              -39.5716132,
              -6.924516
            ],
            [
              -39.5714645,
              -6.9243332
            ],
            [
              -39.5715393,
              -6.9242854
            ],
            [
              -39.5716842,
              -6.9244778
            ],
            [
              -39.5716132,
              -6.924516
            ]
          ]
        ]
      }
    }
  ]
}
