{
  "type": "FeatureCollection",
  "features": [
    {
      "type": "Feature",
      "id": "node/12500753731",
      "properties": {
        "timestamp": "2025-01-14T12:46:53Z",
        "version": 1,
        "changeset": 161343977,
        "addr:city": "Pedra Azul",
        "addr:housenumber": "130",
        "addr:postcode": "39970-000",
        "addr:street": "Rua Professor Vicente Ferreira",
        "addr:suburb": "Centro",
        "government": "prosecutor",
        "name": "Promotoria de Justiça da Comarca de Pedra Azul",
        "office": "government",
        "opening_hours": "Mo-Fr 12:00-18:00",
        "operator": "Ministério Público do Estado de Minas Gerais",
        "phone": "+55 33 98448 9579",
        "id": "node/12500753731"
      },
      "geometry": {
        "type": "Point",
        "coordinates": [
          -41.2825302,
          -16.0048984
        ]
      }
    },
    {
      "type": "Feature",
      "id": "node/12500753758",
      "properties": {
        "timestamp": "2025-01-14T12:46:53Z",
        "version": 1,
        "changeset": 161343977,
        "addr:city": "Pedra Azul",
        "addr:housenumber": "260",
        "addr:postcode": "39970-000",
        "addr:street": "Avenida Doutor Antero de Lucena Ruas",
        "addr:suburb": "Cruzeiro",
        "government": "healthcare",
        "name": "Gerência Regional de Saúde em Pedra Azul",
        "office": "government",
        "id": "node/12500753758"
      },
      "geometry": {
        "type": "Point",
        "coordinates": [
          -41.28034,
          -16.0018219
        ]
      }
    },
    {
      "type": "Feature",
      "id": "node/12500865223",
      "properties": {
        "timestamp": "2025-01-14T14:14:59Z",
        "version": 1,
        "changeset": 161346899,
        "addr:city": "Pedra Azul",
        "addr:housenumber": "669",
        "addr:postcode": "39970-000",
        "addr:street": "Avenida Doutor Antero de Lucena Ruas",
        "addr:suburb": "Centro",
        "government": "social_security",
        "name": "Agência da Previdência Social em Pedra Azul",
        "office": "government",
        "operator": "Instituto Nacional do Seguro Social",
        "operator:short": "INSS",
        "operator:wikidata": "Q10302614",
        "id": "node/12500865223"
      },
      "geometry": {
        "type": "Point",
        "coordinates": [
          -41.2799538,
          -15.998177
        ]
      }
    }
  ]
}
