{
  "type": "FeatureCollection",
  "features": [
    {
      "type": "Feature",
      "id": "node/12501223522",
      "properties": {
        "timestamp": "2025-01-14T17:20:16Z",
        "version": 1,
        "changeset": 161353103,
        "addr:city": "Pedra Azul",
        "addr:housenumber": "60",
        "addr:postcode": "39970-000",
        "addr:street": "Rua Santos Dias do Nascimento",
        "addr:suburb": "Centro",
        "amenity": "pharmacy",
        "healthcare": "pharmacy",
        "name": "Rede de Farmácia Minas",
        "operator": "Secretaria de Saúde do Estado de Minas Gerais",
        "id": "node/12501223522"
      },
      "geometry": {
        "type": "Point",
        "coordinates": [
          -41.2779631,
          -16.0031123
        ]
      }
    },
    {
      "type": "Feature",
      "id": "node/12501223524",
      "properties": {
        "timestamp": "2025-01-14T17:20:16Z",
        "version": 1,
        "changeset": 161353103,
        "addr:city": "Pedra Azul",
        "addr:housenumber": "56",
        "addr:postcode": "39970-000",
        "addr:street": "Avenida Netércio de Almeida",
        "addr:suburb": "Centro",
        "amenity": "pharmacy",
        "healthcare": "pharmacy",
        "name": "Farmácia Indiana",
        "id": "node/12501223524"
      },
      "geometry": {
        "type": "Point",
        "coordinates": [
          -41.281869,
          -16.0044143
        ]
      }
    }
  ]
}
