{
  "type": "FeatureCollection",
  "features": [
    {
      "type": "Feature",
      "id": "node/5722861749",
      "properties": {
        "timestamp": "2025-01-14T17:20:16Z",
        "version": 2,
        "changeset": 161353103,
        "addr:city": "Pedra Azul",
        "addr:housenumber": "100",
        "addr:postcode": "39970-000",
        "addr:street": "Rua Adão Fernandes Souza",
        "addr:suburb": "Bela Vista",
        "amenity": "school",
        "name": "Escola Estadual Justino Ruas",
        "operator": "Secretaria de Estado de Educação de Minas Gerais",
        "operator:type": "government",
        "operator:wikidata": "Q61612780",
        "id": "node/5722861749"
      },
      "geometry": {
        "type": "Point",
        "coordinates": [
          -41.2830903,
          -15.9921172
        ]
      }
    },
    {
      "type": "Feature",
      "id": "node/5735077450",
      "properties": {
        "timestamp": "2025-01-14T14:14:59Z",
        "version": 2,
        "changeset": 161346899,
        "addr:city": "Pedra Azul",
        "addr:housenumber": "250",
        "addr:postcode": "39970-000",
        "addr:street": "Praça Pacifico Faria",
        "addr:suburb": "Centro",
        "amenity": "school",
        "name": "Escola Estadual Coronel Pacífico Faria",
        "operator": "Secretaria de Estado de Educação de Minas Gerais",
        "operator:type": "government",
        "operator:wikidata": "Q61612780",
        "id": "node/5735077450"
      },
      "geometry": {
        "type": "Point",
        "coordinates": [
          -41.2830573,
          -16.0040425
        ]
      }
    },
    {
      "type": "Feature",
      "id": "node/5735125292",
      "properties": {
        "timestamp": "2025-01-14T17:20:16Z",
        "version": 2,
        "changeset": 161353103,
        "addr:city": "Pedra Azul",
        "addr:housenumber": "271",
        "addr:postcode": "39970-000",
        "addr:street": "Rua João Medrado",
        "addr:suburb": "Novo Progresso",
        "amenity": "school",
        "name": "Escola Estadual Carlos Américo",
        "operator": "Secretaria de Estado de Educação de Minas Gerais",
        "operator:type": "government",
        "operator:wikidata": "Q61612780",
        "id": "node/5735125292"
      },
      "geometry": {
        "type": "Point",
        "coordinates": [
          -41.2806071,
          -16.0097269
        ]
      }
    },
    {
      "type": "Feature",
      "id": "node/5735125293",
      "properties": {
        "timestamp": "2025-01-14T14:14:59Z",
        "version": 2,
        "changeset": 161346899,
        "addr:city": "Pedra Azul",
        "addr:housenumber": "80",
        "addr:postcode": "39970-000",
        "addr:street": "Praça Hormínio de Almeida",
        "addr:suburb": "Centro",
        "amenity": "school",
        "name": "Escola Municipal Doutor Clemente Farias",
        "operator": "Município de Pedra Azul",
        "operator:type": "public",
        "id": "node/5735125293"
      },
      "geometry": {
        "type": "Point",
        "coordinates": [
          -41.2813908,
          -16.0060725
        ]
      }
    },
    {
      "type": "Feature",
      "id": "node/5736274291",
      "properties": {
        "timestamp": "2025-01-14T14:14:59Z",
        "version": 2,
        "changeset": 161346899,
        "addr:city": "Pedra Azul",
        "addr:housenumber": "235",
        "addr:postcode": "39970-000",
        "addr:street": "Avenida João de Almeida",
        "addr:suburb": "Cruzeiro",
        "amenity": "school",
        "name": "Escola Estadual João de Almeida",
        "operator": "Secretaria de Estado de Educação de Minas Gerais",
        "operator:type": "government",
        "operator:wikidata": "Q61612780",
        "id": "node/5736274291"
      },
      "geometry": {
        "type": "Point",
        "coordinates": [
          -41.2794126,
          -16.0042208
        ]
      }
    }
  ]
}
