{
  "type": "FeatureCollection",
  "features": [
    {
      "type": "Feature",
      "id": "node/12500865210",
      "properties": {
        "timestamp": "2025-01-14T14:14:59Z",
        "version": 1,
        "changeset": 161346899,
        "addr:city": "Pedra Azul",
        "addr:housenumber": "210",
        "addr:postcode": "39970-000",
        "addr:street": "Avenida João de Almeida",
        "addr:suburb": "Centro",
        "amenity": "social_facility",
        "name": "Apae de Pedra Azul",
        "operator": "Associação de Pais e Amigos dos Excepcionais",
        "operator:type": "ngo",
        "operator:wikidata": "Q16494876",
        "id": "node/12500865210"
      },
      "geometry": {
        "type": "Point",
        "coordinates": [
          -41.2797599,
          -16.0042889
        ]
      }
    },
    {
      "type": "Feature",
      "id": "node/12501223518",
      "properties": {
        "timestamp": "2025-01-19T15:17:19Z",
        "version": 2,
        "changeset": 161528583,
        "addr:city": "Pedra Azul",
        "addr:housenumber": "133",
        "addr:postcode": "39970-000",
        "addr:street": "Avenida Colatino Antunes",
        "addr:suburb": "Centro",
        "amenity": "social_facility",
        "name": "Centro de Referência em Assistência Social",
        "operator": "Município de Pedra Azul",
        "operator:type": "public",
        "id": "node/12501223518"
      },
      "geometry": {
        "type": "Point",
        "coordinates": [
          -41.2781475,
          -16.0077759
        ]
      }
    }
  ]
}
