{
  "type": "FeatureCollection",
  "features": [
    {
      "type": "Feature",
      "id": "node/4822872422",
      "properties": {
        "timestamp": "2017-04-28T12:38:53Z",
        "version": 1,
        "changeset": 48227258,
        "addr:street": "Rua Bom Jesus da Lapa",
        "name": "Elenice",
        "name:pt": "Elenice",
        "tourism": "guest_house",
        "id": "node/4822872422"
      },
      "geometry": {
        "type": "Point",
        "coordinates": [
          -45.8036312,
          -12.0781627
        ]
      }
    },
    {
      "type": "Feature",
      "id": "node/4952958021",
      "properties": {
        "timestamp": "2020-11-17T16:57:54Z",
        "version": 2,
        "changeset": 94293397,
        "addr:street": "Rua Ibitiara",
        "name": "Isabel queiroz hotel lumare",
        "name:pt": "Isabel queiroz hotel lumare",
        "tourism": "guest_house",
        "id": "node/4952958021"
      },
      "geometry": {
        "type": "Point",
        "coordinates": [
          -45.7932738,
          -12.0923699
        ]
      }
    },
    {
      "type": "Feature",
      "id": "node/4952958022",
      "properties": {
        "timestamp": "2021-11-30T15:19:08Z",
        "version": 3,
        "changeset": 114407095,
        "addr:street": "Rua Idalina Schwemgber",
        "name": "Baumann incoporadora",
        "name:pt": "Baumann incoporadora",
        "tourism": "guest_house",
        "id": "node/4952958022"
      },
      "geometry": {
        "type": "Point",
        "coordinates": [
          -45.7861192,
          -12.0797324
        ]
      }
    },
    {
      "type": "Feature",
      "id": "node/4965912421",
      "properties": {
        "timestamp": "2021-11-30T15:19:08Z",
        "version": 3,
        "changeset": 114407095,
        "addr:street": "Rua Para√≠ba",
        "name": "Maria simbiose",
        "name:pt": "Maria simbiose",
        "tourism": "guest_house",
        "id": "node/4965912421"
      },
      "geometry": {
        "type": "Point",
        "coordinates": [
          -45.797774,
          -12.0870059
        ]
      }
    }
  ]
}
