{
  "type": "FeatureCollection",
  "features": [
    {
      "type": "Feature",
      "id": "node/4980191321",
      "properties": {
        "timestamp": "2021-11-30T15:19:08Z",
        "version": 3,
        "changeset": 114407095,
        "addr:street": "Rua Rui Barbosa",
        "amenity": "veterinary",
        "name": "Planeta pet",
        "name:pt": "Planeta pet",
        "id": "node/4980191321"
      },
      "geometry": {
        "type": "Point",
        "coordinates": [
          -45.7917738,
          -12.0857463
        ]
      }
    },
    {
      "type": "Feature",
      "id": "node/4980191621",
      "properties": {
        "timestamp": "2022-04-28T14:00:41Z",
        "version": 2,
        "changeset": 120308022,
        "addr:street": "Rua São Francisco",
        "amenity": "veterinary",
        "name": "Helder coldog",
        "name:pt": "Helder coldog",
        "id": "node/4980191621"
      },
      "geometry": {
        "type": "Point",
        "coordinates": [
          -45.8076122,
          -12.0800584
        ]
      }
    },
    {
      "type": "Feature",
      "id": "node/4980191622",
      "properties": {
        "timestamp": "2017-07-19T18:01:06Z",
        "version": 1,
        "changeset": 50412741,
        "addr:street": "Rua Goiás",
        "amenity": "veterinary",
        "name": "Gilson fiuza",
        "name:pt": "Gilson fiuza",
        "id": "node/4980191622"
      },
      "geometry": {
        "type": "Point",
        "coordinates": [
          -45.8044779,
          -12.0891534
        ]
      }
    },
    {
      "type": "Feature",
      "id": "node/4989202521",
      "properties": {
        "timestamp": "2021-11-30T15:19:08Z",
        "version": 3,
        "changeset": 114407095,
        "addr:street": "Avenida Juscelino Kubitschek",
        "amenity": "veterinary",
        "name": "Dirceu carneiro neto animalia pet shop",
        "name:pt": "Dirceu carneiro neto animalia pet shop",
        "id": "node/4989202521"
      },
      "geometry": {
        "type": "Point",
        "coordinates": [
          -45.786687,
          -12.0821478
        ]
      }
    }
  ]
}
