{
  "type": "FeatureCollection",
  "features": [
    {
      "type": "Feature",
      "id": "node/5864275141",
      "properties": {
        "timestamp": "2024-08-14T22:10:19Z",
        "version": 3,
        "changeset": 155261219,
        "addr:housenumber": "747",
        "addr:street": "Rua Jeremias de Paula Eduardo",
        "amenity": "pharmacy",
        "healthcare": "pharmacy",
        "name": "Farmativa Farmácia de Manipulação e Drogaria",
        "opening_hours": "Mo-Fr 07:30-18:00; Sa 08:00-12:00",
        "phone": "01632413241",
        "website": "https://www.facebook.com/farmativamontealto",
        "id": "node/5864275141"
      },
      "geometry": {
        "type": "Point",
        "coordinates": [
          -48.4886166,
          -21.2619498
        ]
      }
    },
    {
      "type": "Feature",
      "id": "node/11905262521",
      "properties": {
        "timestamp": "2024-08-14T00:01:31Z",
        "version": 4,
        "changeset": 155217966,
        "addr:housenumber": "1473",
        "addr:street": "Rua Nhonhô Livramento",
        "amenity": "pharmacy",
        "healthcare": "pharmacy",
        "name": "Drogaria Droga Serve",
        "opening_hours": "Mo-Sa 07:30-19:00",
        "phone": "01632422088",
        "id": "node/11905262521"
      },
      "geometry": {
        "type": "Point",
        "coordinates": [
          -48.4958761,
          -21.2623713
        ]
      }
    },
    {
      "type": "Feature",
      "id": "node/11963479862",
      "properties": {
        "timestamp": "2024-08-14T00:02:22Z",
        "version": 4,
        "changeset": 155217977,
        "addr:housenumber": "1916",
        "addr:street": "Rua Jeremias de Paula Eduardo",
        "amenity": "pharmacy",
        "description": "Farmácia especializada em manipulação de Fórmulas, Homeopatia e Florais",
        "dispensing": "yes",
        "healthcare": "pharmacy",
        "name": "Farmácia Homeovida",
        "opening_hours": "Mo-Fr 08:00-18:00; Sa 08:00-12:00",
        "phone": "01632423030",
        "website": "facebook.com/Farmaciahomeovida",
        "id": "node/11963479862"
      },
      "geometry": {
        "type": "Point",
        "coordinates": [
          -48.4986924,
          -21.2637253
        ]
      }
    }
  ]
}
