{
  "type": "FeatureCollection",
  "features": [
    {
      "type": "Feature",
      "id": "node/10891543927",
      "properties": {
        "timestamp": "2023-05-12T18:33:22Z",
        "version": 1,
        "changeset": 136030454,
        "addr:city": "Castelo",
        "addr:housenumber": "217",
        "addr:postcode": "29360-000",
        "addr:state": "Espírito Santo",
        "addr:street": "Rua Soares",
        "addr:suburb": "Independência",
        "contact:phone": "+55 28 3542 2577;+55 28 99927 4849",
        "name": "Cicle Genovez",
        "opening_hours": "Mo-Sa 08:00-18:00",
        "operator": "Cicle Genovez Comercial Limitada",
        "service:bicycle:cleaning": "yes",
        "service:bicycle:pump": "yes",
        "service:bicycle:repair": "yes",
        "service:bicycle:retail": "yes",
        "shop": "bicycle",
        "wheelchair": "yes",
        "id": "node/10891543927"
      },
      "geometry": {
        "type": "Point",
        "coordinates": [
          -41.2041083,
          -20.5993627
        ]
      }
    },
    {
      "type": "Feature",
      "id": "node/10891590290",
      "properties": {
        "timestamp": "2023-05-16T10:53:42Z",
        "version": 2,
        "changeset": 136162865,
        "addr:city": "Castelo",
        "addr:housenumber": "44",
        "addr:postcode": "29360-000",
        "addr:street": "Rua Vereador Elias Mussi",
        "addr:suburb": "São Miguel",
        "name": "Cicle Samuray",
        "shop": "bicycle",
        "id": "node/10891590290"
      },
      "geometry": {
        "type": "Point",
        "coordinates": [
          -41.203833,
          -20.610814
        ]
      }
    },
    {
      "type": "Feature",
      "id": "node/10903266769",
      "properties": {
        "timestamp": "2023-05-16T19:38:16Z",
        "version": 1,
        "changeset": 136183909,
        "addr:city": "Castelo",
        "addr:housenumber": "1266",
        "addr:postcode": "29360-000",
        "addr:street": "Avenida Nossa Senhora Penha",
        "addr:suburb": "Bela Vista",
        "name": "Correia Bike",
        "shop": "bicycle",
        "id": "node/10903266769"
      },
      "geometry": {
        "type": "Point",
        "coordinates": [
          -41.2052594,
          -20.614554
        ]
      }
    },
    {
      "type": "Feature",
      "id": "node/10903266770",
      "properties": {
        "timestamp": "2023-05-16T19:38:16Z",
        "version": 1,
        "changeset": 136183909,
        "addr:city": "Castelo",
        "addr:housenumber": "36",
        "addr:postcode": "29360-000",
        "addr:street": "Rua das Araras",
        "addr:suburb": "Bela Vista",
        "name": "Buiu Bike",
        "operator": "Michele Basoni Pazini Callegario",
        "shop": "bicycle",
        "id": "node/10903266770"
      },
      "geometry": {
        "type": "Point",
        "coordinates": [
          -41.2053801,
          -20.6156486
        ]
      }
    }
  ]
}
