{
  "type": "FeatureCollection",
  "features": [
    {
      "type": "Feature",
      "id": "way/375445920",
      "properties": {
        "timestamp": "2019-07-07T03:34:18Z",
        "version": 2,
        "changeset": 71972740,
        "amenity": "clinic",
        "building": "yes",
        "healthcare": "clinic",
        "id": "way/375445920"
      },
      "geometry": {
        "type": "Polygon",
        "coordinates": [
          [
            [
              -41.2075281,
              -20.6148906
            ],
            [
              -41.2074892,
              -20.6149784
            ],
            [
              -41.2073859,
              -20.6149383
            ],
            [
              -41.2074248,
              -20.6148504
            ],
            [
              -41.2075281,
              -20.6148906
            ]
          ]
        ]
      }
    },
    {
      "type": "Feature",
      "id": "way/376529452",
      "properties": {
        "timestamp": "2023-05-15T22:41:54Z",
        "version": 5,
        "changeset": 136145018,
        "addr:city": "Castelo",
        "addr:housenumber": "574",
        "addr:postcode": "29360-000",
        "addr:street": "Avenida Nossa Senhora da Penha",
        "addr:suburb": "Centro",
        "amenity": "clinic",
        "healthcare": "hospital",
        "name": "Unidade Sanitária Solange Campanha",
        "operator": "Município de Castelo",
        "id": "way/376529452"
      },
      "geometry": {
        "type": "Polygon",
        "coordinates": [
          [
            [
              -41.204364,
              -20.6088831
            ],
            [
              -41.2041453,
              -20.6089006
            ],
            [
              -41.2041281,
              -20.6087121
            ],
            [
              -41.2041712,
              -20.6087086
            ],
            [
              -41.204166,
              -20.6086517
            ],
            [
              -41.2041286,
              -20.6086547
            ],
            [
              -41.2041148,
              -20.6085036
            ],
            [
              -41.2043277,
              -20.6084865
            ],
            [
              -41.204364,
              -20.6088831
            ]
          ]
        ]
      }
    },
    {
      "type": "Feature",
      "id": "way/548140481",
      "properties": {
        "timestamp": "2023-05-12T12:47:20Z",
        "version": 3,
        "changeset": 136017392,
        "addr:city": "Castelo",
        "addr:postcode": "29360-000",
        "addr:street": "Avenida Nossa Senhora da Penha",
        "addr:suburb": "Centro",
        "amenity": "clinic",
        "building": "yes",
        "healthcare": "clinic",
        "healthcare:speciality": "general",
        "id": "way/548140481"
      },
      "geometry": {
        "type": "Polygon",
        "coordinates": [
          [
            [
              -41.2034167,
              -20.6038503
            ],
            [
              -41.2034229,
              -20.6039558
            ],
            [
              -41.2032575,
              -20.6039643
            ],
            [
              -41.2032513,
              -20.6038587
            ],
            [
              -41.2034167,
              -20.6038503
            ]
          ]
        ]
      }
    },
    {
      "type": "Feature",
      "id": "node/10902727446",
      "properties": {
        "timestamp": "2023-05-19T14:31:27Z",
        "version": 2,
        "changeset": 136303407,
        "addr:city": "Castelo",
        "addr:postcode": "29360-000",
        "addr:street": "Avenida João Venturim Filho",
        "addr:suburb": "Cava Roxa",
        "alt_name": "Caps de Castelo",
        "amenity": "clinic",
        "healthcare": "clinic",
        "healthcare:speciality": "psychiatry;child_psychiatry;psychology;psychotherapist",
        "name": "Centro de Atendimento Psicossocial de Castelo",
        "operator": "Município de Castelo",
        "operator:type": "public",
        "phone": "+55 28 3542 4291",
        "id": "node/10902727446"
      },
      "geometry": {
        "type": "Point",
        "coordinates": [
          -41.1986324,
          -20.6256244
        ]
      }
    },
    {
      "type": "Feature",
      "id": "node/10909834979",
      "properties": {
        "timestamp": "2023-05-20T17:50:50Z",
        "version": 2,
        "changeset": 136347904,
        "addr:city": "Castelo",
        "addr:postcode": "29360-000",
        "addr:street": "Avenida Oscar Rangel",
        "addr:suburb": "Volta Redonda",
        "amenity": "clinic",
        "healthcare": "clinic",
        "healthcare:speciality": "general",
        "name": "Unidade de Saúde da Família Nivaldo Tessinari",
        "operator": "Município de Castelo",
        "operator:type": "public",
        "phone": "+55 28 3542 8558",
        "id": "node/10909834979"
      },
      "geometry": {
        "type": "Point",
        "coordinates": [
          -41.2136578,
          -20.6018903
        ]
      }
    }
  ]
}
