{
  "type": "FeatureCollection",
  "features": [
    {
      "type": "Feature",
      "id": "node/10920335854",
      "properties": {
        "timestamp": "2023-05-22T23:13:42Z",
        "version": 1,
        "changeset": 136432724,
        "addr:city": "Castelo",
        "addr:housenumber": "395",
        "addr:postcode": "29360-000",
        "addr:street": "Avenida Nossa Senhora da Penha",
        "addr:suburb": "Santo Andrezinho",
        "amenity": "dentist",
        "healthcare": "dentist",
        "healthcare:speciality": "orthodontics",
        "name": "Ana Maria Faé Faiao Moraes",
        "phone": "+55 28 3542 1640",
        "id": "node/10920335854"
      },
      "geometry": {
        "type": "Point",
        "coordinates": [
          -41.2037008,
          -20.6070572
        ]
      }
    },
    {
      "type": "Feature",
      "id": "node/10920335856",
      "properties": {
        "timestamp": "2023-05-22T23:13:42Z",
        "version": 1,
        "changeset": 136432724,
        "addr:city": "Castelo",
        "addr:postcode": "29360-000",
        "addr:street": "Praça do Convívio",
        "addr:suburb": "Centro",
        "amenity": "dentist",
        "healthcare": "dentist",
        "healthcare:speciality": "dentist",
        "name": "Andressa Fazolo Puppin",
        "id": "node/10920335856"
      },
      "geometry": {
        "type": "Point",
        "coordinates": [
          -41.2039137,
          -20.6025881
        ]
      }
    },
    {
      "type": "Feature",
      "id": "node/10921405446",
      "properties": {
        "timestamp": "2023-05-23T11:01:17Z",
        "version": 1,
        "changeset": 136451266,
        "addr:city": "Castelo",
        "addr:housenumber": "205",
        "addr:postcode": "29360-000",
        "addr:street": "Rua Fábio Moraes de Andrade",
        "addr:suburb": "Nossa Senhora Aparecida",
        "amenity": "dentist",
        "healthcare": "dentist",
        "healthcare:speciality": "dentist",
        "name": "Andreza de Mattos Albuquerque Correa",
        "phone": "+55 28 9977 3074",
        "id": "node/10921405446"
      },
      "geometry": {
        "type": "Point",
        "coordinates": [
          -41.2058826,
          -20.6076495
        ]
      }
    },
    {
      "type": "Feature",
      "id": "node/10921405448",
      "properties": {
        "timestamp": "2023-05-23T11:01:17Z",
        "version": 1,
        "changeset": 136451266,
        "addr:city": "Castelo",
        "addr:housenumber": "50",
        "addr:postcode": "29360-000",
        "addr:street": "Rua Aristeu Borges de Aguiar",
        "addr:suburb": "Centro",
        "amenity": "dentist",
        "healthcare": "dentist",
        "healthcare:speciality": "dentist",
        "name": "Antônio de Pádua Oslegher Lemos",
        "phone": "+55 28 3542 1966",
        "id": "node/10921405448"
      },
      "geometry": {
        "type": "Point",
        "coordinates": [
          -41.2036535,
          -20.6027021
        ]
      }
    },
    {
      "type": "Feature",
      "id": "node/10934829499",
      "properties": {
        "timestamp": "2023-05-28T19:05:12Z",
        "version": 1,
        "changeset": 136668888,
        "addr:city": "Castelo",
        "addr:housenumber": "141",
        "addr:postcode": "29360-000",
        "addr:street": "Rua Coronel Francisco Athayde",
        "addr:suburb": "Centro",
        "amenity": "dentist",
        "healthcare": "dentist",
        "name": "Cassia Melo Soares Zoboli",
        "id": "node/10934829499"
      },
      "geometry": {
        "type": "Point",
        "coordinates": [
          -41.2021751,
          -20.603701
        ]
      }
    }
  ]
}
