{
  "type": "FeatureCollection",
  "features": [
    {
      "type": "Feature",
      "id": "node/4270689502",
      "properties": {
        "timestamp": "2023-05-20T19:53:55Z",
        "version": 4,
        "changeset": 136351393,
        "addr:city": "Castelo",
        "addr:housenumber": "85",
        "addr:postcode": "29360-000",
        "addr:street": "Rua Carlos Lomba",
        "addr:suburb": "Centro",
        "amenity": "doctors",
        "healthcare": "doctor",
        "healthcare:speciality": "paediatrics",
        "name": "Herval Ribeiro Soares Filho",
        "phone": "+55 28 3542 2369",
        "id": "node/4270689502"
      },
      "geometry": {
        "type": "Point",
        "coordinates": [
          -41.2045005,
          -20.6034491
        ]
      }
    },
    {
      "type": "Feature",
      "id": "node/10899748095",
      "properties": {
        "timestamp": "2023-05-15T17:25:07Z",
        "version": 1,
        "changeset": 136136592,
        "addr:city": "Castelo",
        "addr:housenumber": "144",
        "addr:postcode": "29360-000",
        "addr:street": "Avenida Nossa Senhora da Penha",
        "addr:suburb": "Centro",
        "amenity": "doctors",
        "healthcare": "doctor",
        "healthcare:speciality": "general",
        "name": "Sasso Prevenção Ocupacional Limitada",
        "id": "node/10899748095"
      },
      "geometry": {
        "type": "Point",
        "coordinates": [
          -41.2037746,
          -20.6047444
        ]
      }
    },
    {
      "type": "Feature",
      "id": "node/10914713926",
      "properties": {
        "timestamp": "2023-05-20T19:53:55Z",
        "version": 1,
        "changeset": 136351393,
        "addr:city": "Castelo",
        "addr:housenumber": "235",
        "addr:postcode": "29360-000",
        "addr:street": "Rua Carlos Lomba",
        "addr:suburb": "Centro",
        "amenity": "doctors",
        "healthcare": "doctor",
        "healthcare:speciality": "general",
        "name": "Abilio Correia de Lima",
        "phone": "+55 28 3542 1083",
        "id": "node/10914713926"
      },
      "geometry": {
        "type": "Point",
        "coordinates": [
          -41.2064449,
          -20.6031482
        ]
      }
    },
    {
      "type": "Feature",
      "id": "node/10914713927",
      "properties": {
        "timestamp": "2023-06-01T17:16:42Z",
        "version": 2,
        "changeset": 136840027,
        "addr:city": "Castelo",
        "addr:housenumber": "233",
        "addr:postcode": "29360-000",
        "addr:street": "Rua Carlos Lomba",
        "addr:suburb": "Centro",
        "amenity": "doctors",
        "healthcare": "doctor",
        "healthcare:speciality": "orthopaedics",
        "name": "Fernando Luiz Ribeiro Nunes; Paulo Henrique Pariz",
        "phone": "+55 28 3542 2407",
        "id": "node/10914713927"
      },
      "geometry": {
        "type": "Point",
        "coordinates": [
          -41.2056456,
          -20.6032611
        ]
      }
    },
    {
      "type": "Feature",
      "id": "node/10916011575",
      "properties": {
        "timestamp": "2023-05-23T11:01:17Z",
        "version": 3,
        "changeset": 136451266,
        "addr:city": "Castelo",
        "addr:housenumber": "95",
        "addr:postcode": "29360-000",
        "addr:street": "Praça do Convívio",
        "addr:suburb": "Centro",
        "amenity": "doctors",
        "healthcare": "doctor",
        "healthcare:speciality": "general",
        "name": "Agliberto Baliano Careta",
        "phone": "+55 28 3542 1866",
        "id": "node/10916011575"
      },
      "geometry": {
        "type": "Point",
        "coordinates": [
          -41.2039231,
          -20.6026579
        ]
      }
    },
    {
      "type": "Feature",
      "id": "node/10920335853",
      "properties": {
        "timestamp": "2023-05-23T11:01:17Z",
        "version": 2,
        "changeset": 136451266,
        "addr:city": "Castelo",
        "addr:housenumber": "95",
        "addr:postcode": "29360-000",
        "addr:street": "Praça do Convívio",
        "addr:suburb": "Centro",
        "amenity": "doctors",
        "healthcare": "doctor",
        "healthcare:speciality": "paediatrics",
        "name": "Alan Piassi Careta",
        "phone": "+55 28 3542 1866",
        "id": "node/10920335853"
      },
      "geometry": {
        "type": "Point",
        "coordinates": [
          -41.2039284,
          -20.6026994
        ]
      }
    },
    {
      "type": "Feature",
      "id": "node/10920335855",
      "properties": {
        "timestamp": "2023-05-24T10:02:39Z",
        "version": 2,
        "changeset": 136491702,
        "addr:city": "Castelo",
        "addr:housenumber": "01",
        "addr:postcode": "29360-000",
        "addr:street": "Avenida Ministro Araripe",
        "addr:suburb": "Centro",
        "amenity": "doctors",
        "healthcare": "doctor",
        "healthcare:speciality": "ophthalmology;occupational",
        "name": "Alipia Banhos Soeiro",
        "phone": "+55 2 3452 3639",
        "id": "node/10920335855"
      },
      "geometry": {
        "type": "Point",
        "coordinates": [
          -41.2036481,
          -20.6023412
        ]
      }
    },
    {
      "type": "Feature",
      "id": "node/10921405447",
      "properties": {
        "timestamp": "2023-05-23T11:01:17Z",
        "version": 1,
        "changeset": 136451266,
        "addr:city": "Castelo",
        "addr:housenumber": "95",
        "addr:postcode": "29360-000",
        "addr:street": "Praça do Convívio",
        "addr:suburb": "Centro",
        "amenity": "doctors",
        "healthcare": "doctor",
        "healthcare:speciality": "paediatrics",
        "name": "Antonio Carlos Paulino Pereira",
        "phone": "+55 28 3542 1570",
        "id": "node/10921405447"
      },
      "geometry": {
        "type": "Point",
        "coordinates": [
          -41.2039407,
          -20.6027483
        ]
      }
    },
    {
      "type": "Feature",
      "id": "node/10921405449",
      "properties": {
        "timestamp": "2023-05-24T10:02:39Z",
        "version": 2,
        "changeset": 136491702,
        "addr:city": "Castelo",
        "addr:housenumber": "40",
        "addr:postcode": "29360-000",
        "addr:street": "Praça Três Irmãos",
        "addr:suburb": "Baixa Itália",
        "amenity": "doctors",
        "healthcare": "doctor",
        "healthcare:speciality": "ophthalmology",
        "name": "Bernardo Passamani Cola",
        "id": "node/10921405449"
      },
      "geometry": {
        "type": "Point",
        "coordinates": [
          -41.2030394,
          -20.6020321
        ]
      }
    },
    {
      "type": "Feature",
      "id": "node/10921568121",
      "properties": {
        "timestamp": "2023-05-23T12:44:26Z",
        "version": 1,
        "changeset": 136454990,
        "addr:city": "Castelo",
        "addr:housenumber": "233",
        "addr:postcode": "29360-000",
        "addr:street": "Rua Carlos Lomba",
        "addr:suburb": "Centro",
        "amenity": "doctors",
        "healthcare": "doctor",
        "healthcare:speciality": "general",
        "name": "Carlos Antonio Pousa Lima",
        "phone": "+55 28 3542 1083",
        "id": "node/10921568121"
      },
      "geometry": {
        "type": "Point",
        "coordinates": [
          -41.2055099,
          -20.6032781
        ]
      }
    },
    {
      "type": "Feature",
      "id": "node/10921568122",
      "properties": {
        "timestamp": "2023-05-23T12:44:26Z",
        "version": 1,
        "changeset": 136454990,
        "addr:city": "Castelo",
        "addr:housenumber": "90",
        "addr:postcode": "29360-000",
        "addr:street": "Rua Cruz Maia",
        "addr:suburb": "Baixa Itália",
        "amenity": "doctors",
        "healthcare": "doctor",
        "healthcare:speciality": "gynaecology",
        "name": "Carlos Eduardo Claure Borda",
        "phone": "+55 28 3542 3817",
        "id": "node/10921568122"
      },
      "geometry": {
        "type": "Point",
        "coordinates": [
          -41.2033704,
          -20.6015309
        ]
      }
    },
    {
      "type": "Feature",
      "id": "node/10936791024",
      "properties": {
        "timestamp": "2023-05-29T12:01:22Z",
        "version": 1,
        "changeset": 136696491,
        "addr:city": "Castelo",
        "addr:housenumber": "93",
        "addr:postcode": "29360-000",
        "addr:street": "Rua Nestor Gomes",
        "addr:suburb": "Centro",
        "amenity": "doctors",
        "healthcare": "doctor",
        "healthcare:speciality": "radiology",
        "name": "Cedima",
        "operator": "Cedima - Centro de Diagnóstico Por Imagem",
        "phone": "+55 28 3542 1464",
        "id": "node/10936791024"
      },
      "geometry": {
        "type": "Point",
        "coordinates": [
          -41.2039777,
          -20.6030554
        ]
      }
    }
  ]
}
