{
  "type": "FeatureCollection",
  "features": [
    {
      "type": "Feature",
      "id": "way/545291154",
      "properties": {
        "timestamp": "2023-11-13T22:29:59Z",
        "version": 4,
        "changeset": 143989089,
        "addr:city": "Castelo",
        "addr:housenumber": "800",
        "addr:postcode": "29360-000",
        "addr:street": "Avenida Nossa Senhora da Penha",
        "addr:suburb": "Santo Agostinho",
        "building": "yes",
        "email": "p.castelo@mpes.mp.br",
        "government": "prosecutor",
        "level": "2",
        "name": "Promotoria de Justiça de Castelo",
        "office": "government",
        "opening_hours": "Mo-Fr 12:00-18:00",
        "operator": "Ministério Público do Estado do Espírito Santo",
        "operator:wikidata": "Q20060323",
        "phone": "+55 28 3542 6091",
        "website": "https://www.mpes.mp.br/",
        "id": "way/545291154"
      },
      "geometry": {
        "type": "Polygon",
        "coordinates": [
          [
            [
              -41.2047099,
              -20.610789
            ],
            [
              -41.2045044,
              -20.610855
            ],
            [
              -41.2044887,
              -20.6108241
            ],
            [
              -41.2044938,
              -20.6108032
            ],
            [
              -41.2045374,
              -20.6107891
            ],
            [
              -41.2045271,
              -20.6107609
            ],
            [
              -41.204682,
              -20.6107162
            ],
            [
              -41.2047099,
              -20.610789
            ]
          ]
        ]
      }
    },
    {
      "type": "Feature",
      "id": "node/4024904392",
      "properties": {
        "timestamp": "2023-05-26T14:27:04Z",
        "version": 2,
        "changeset": 136590686,
        "addr:city": "Castelo",
        "addr:housenumber": "57",
        "addr:postcode": "29360-000",
        "addr:street": "Rua José Alves Rangel",
        "addr:suburb": "Santo Andrezinho",
        "email": "semsa@castelo.es.gov.br",
        "government": "healthcare",
        "name": "Secretaria Municipal de Saúde",
        "office": "government",
        "phone": "+55 28 3542 8559",
        "website": "http://www.castelo.es.gov.br/portal-transparencia/secretaria_saude.asp",
        "id": "node/4024904392"
      },
      "geometry": {
        "type": "Point",
        "coordinates": [
          -41.203082,
          -20.6060688
        ]
      }
    },
    {
      "type": "Feature",
      "id": "node/10903266773",
      "properties": {
        "timestamp": "2023-05-16T19:38:16Z",
        "version": 1,
        "changeset": 136183909,
        "addr:city": "Castelo",
        "addr:housenumber": "174",
        "addr:postcode": "29360-000",
        "addr:street": "Rua Vieira da Cunha",
        "addr:suburb": "Centro",
        "email": "glcastelo@idaf.es.gov.br",
        "government": "agriculture",
        "name": "Escritório Local do Idaf",
        "office": "government",
        "phone": "+55 28 3542 2771",
        "id": "node/10903266773"
      },
      "geometry": {
        "type": "Point",
        "coordinates": [
          -41.2049161,
          -20.6026113
        ]
      }
    },
    {
      "type": "Feature",
      "id": "node/10903266776",
      "properties": {
        "timestamp": "2023-05-16T19:38:16Z",
        "version": 1,
        "changeset": 136183909,
        "addr:city": "Castelo",
        "addr:housenumber": "396",
        "addr:postcode": "29360-000",
        "addr:street": "Avenida Nossa Senhora da Penha",
        "addr:suburb": "Santo Andrezinho",
        "government": "agriculture",
        "name": "Escritório Local de Desenvolvimento Rural do Incaper",
        "office": "government",
        "phone": "+55 28 3542 6333",
        "id": "node/10903266776"
      },
      "geometry": {
        "type": "Point",
        "coordinates": [
          -41.2040059,
          -20.607079
        ]
      }
    },
    {
      "type": "Feature",
      "id": "node/10908224225",
      "properties": {
        "timestamp": "2023-05-18T12:47:13Z",
        "version": 1,
        "changeset": 136253666,
        "addr:city": "Castelo",
        "addr:postcode": "29360-000",
        "addr:street": "Rua Antônio Fittipaldi",
        "addr:suburb": "Santo Agostinho",
        "government": "administrative",
        "name": "Secretaria Municipal de Obras",
        "office": "government",
        "id": "node/10908224225"
      },
      "geometry": {
        "type": "Point",
        "coordinates": [
          -41.2050684,
          -20.6111133
        ]
      }
    },
    {
      "type": "Feature",
      "id": "node/10929230928",
      "properties": {
        "timestamp": "2023-05-26T14:27:04Z",
        "version": 1,
        "changeset": 136590686,
        "addr:city": "Castelo",
        "addr:housenumber": "220",
        "addr:postcode": "29360-000",
        "addr:street": "Rua Vereador Elias Mussi",
        "addr:suburb": "São Miguel",
        "email": "educacao@castelo.es.gov.br",
        "government": "education",
        "name": "Secretaria Municipal de Educação",
        "office": "government",
        "phone": "+55 28 99978 6414",
        "website": "http://www.castelo.es.gov.br/portal-transparencia/secretaria_educacao.asp",
        "id": "node/10929230928"
      },
      "geometry": {
        "type": "Point",
        "coordinates": [
          -41.2021765,
          -20.6109007
        ]
      }
    },
    {
      "type": "Feature",
      "id": "node/10929230929",
      "properties": {
        "timestamp": "2023-05-26T14:27:04Z",
        "version": 1,
        "changeset": 136590686,
        "addr:city": "Castelo",
        "addr:housenumber": "200",
        "addr:postcode": "29360-000",
        "addr:street": "Rua Vereador Elias Mussi",
        "addr:suburb": "São Miguel",
        "government": "transportation",
        "name": "Posto de Atendimento Veicular do Departamento Estadual de Trânsito - Detran",
        "office": "government",
        "phone": "+55 28 3526 3465",
        "id": "node/10929230929"
      },
      "geometry": {
        "type": "Point",
        "coordinates": [
          -41.2023724,
          -20.6108866
        ]
      }
    },
    {
      "type": "Feature",
      "id": "node/10929230931",
      "properties": {
        "timestamp": "2023-05-26T14:27:04Z",
        "version": 1,
        "changeset": 136590686,
        "addr:city": "Castelo",
        "addr:postcode": "29360-000",
        "addr:street": "Avenida Geovani Piassi",
        "addr:suburb": "Exposição",
        "email": "semint@castelo.es.gov.br",
        "government": "agriculture",
        "name": "Secretaria Municipal de Interior",
        "office": "government",
        "phone": "+55 28 3542 8544",
        "website": "http://www.castelo.es.gov.br/portal-transparencia/secretaria_interior.asp",
        "id": "node/10929230931"
      },
      "geometry": {
        "type": "Point",
        "coordinates": [
          -41.2121498,
          -20.6090692
        ]
      }
    },
    {
      "type": "Feature",
      "id": "node/10929230932",
      "properties": {
        "timestamp": "2023-05-26T14:27:04Z",
        "version": 1,
        "changeset": 136590686,
        "addr:city": "Castelo",
        "addr:postcode": "29360-000",
        "addr:street": "Avenida Geovani Piassi",
        "addr:suburb": "Exposição",
        "email": "semsur@castelo.es.gov.br",
        "government": "administrative",
        "name": "Secretaria Municipal de Serviços Urbanos",
        "office": "government",
        "phone": "+55 28 3542 8543",
        "website": "http://www.castelo.es.gov.br/portal-transparencia/servicos_urbanos.asp",
        "id": "node/10929230932"
      },
      "geometry": {
        "type": "Point",
        "coordinates": [
          -41.2123188,
          -20.608911
        ]
      }
    }
  ]
}
