{
  "type": "FeatureCollection",
  "features": [
    {
      "type": "Feature",
      "id": "way/377309304",
      "properties": {
        "timestamp": "2018-12-22T00:28:32Z",
        "version": 2,
        "changeset": 65683497,
        "addr:city": "Castelo",
        "building": "yes",
        "name": "Hotel Forte Esperança",
        "tourism": "hotel",
        "id": "way/377309304"
      },
      "geometry": {
        "type": "Polygon",
        "coordinates": [
          [
            [
              -41.2077156,
              -20.6355888
            ],
            [
              -41.2080005,
              -20.6358014
            ],
            [
              -41.2079336,
              -20.6358799
            ],
            [
              -41.2079169,
              -20.6358675
            ],
            [
              -41.2078879,
              -20.6359015
            ],
            [
              -41.2076197,
              -20.6357014
            ],
            [
              -41.2077156,
              -20.6355888
            ]
          ]
        ]
      }
    },
    {
      "type": "Feature",
      "id": "way/544588124",
      "properties": {
        "timestamp": "2023-05-15T22:41:54Z",
        "version": 2,
        "changeset": 136145018,
        "addr:city": "Castelo",
        "addr:housenumber": "393",
        "addr:postcode": "29360-000",
        "addr:street": "Rua Romeu Barbosa",
        "addr:suburb": "São Miguel",
        "building": "yes",
        "building:levels": "2",
        "email": "pousadaluaesol@hotmail.com",
        "name": "Pousada Lua e Sol",
        "phone": "+55 28 3542 0119",
        "tourism": "hotel",
        "id": "way/544588124"
      },
      "geometry": {
        "type": "Polygon",
        "coordinates": [
          [
            [
              -41.200286,
              -20.6100457
            ],
            [
              -41.20028,
              -20.6099372
            ],
            [
              -41.2004077,
              -20.609931
            ],
            [
              -41.2004235,
              -20.6102157
            ],
            [
              -41.200362,
              -20.6102187
            ],
            [
              -41.2003599,
              -20.610181
            ],
            [
              -41.2002177,
              -20.6101879
            ],
            [
              -41.20021,
              -20.6100494
            ],
            [
              -41.200286,
              -20.6100457
            ]
          ]
        ]
      }
    },
    {
      "type": "Feature",
      "id": "way/548140475",
      "properties": {
        "timestamp": "2023-05-26T18:50:00Z",
        "version": 4,
        "changeset": 136601213,
        "addr:city": "Castelo",
        "addr:housenumber": "190",
        "addr:postcode": "29360-000",
        "addr:street": "Avenida Nossa Senhora da Penha",
        "addr:suburb": "Centro",
        "building": "hotel",
        "building:levels": "2",
        "name": "Hotel Alledi",
        "operator": "Ronaldo Alledi",
        "tourism": "hotel",
        "id": "way/548140475"
      },
      "geometry": {
        "type": "Polygon",
        "coordinates": [
          [
            [
              -41.2041303,
              -20.6052968
            ],
            [
              -41.2041097,
              -20.6052982
            ],
            [
              -41.2041117,
              -20.6053231
            ],
            [
              -41.203846,
              -20.6053421
            ],
            [
              -41.2038314,
              -20.6051625
            ],
            [
              -41.2040939,
              -20.6051437
            ],
            [
              -41.2041024,
              -20.6052475
            ],
            [
              -41.2041262,
              -20.6052458
            ],
            [
              -41.2041303,
              -20.6052968
            ]
          ]
        ]
      }
    },
    {
      "type": "Feature",
      "id": "node/10902633859",
      "properties": {
        "timestamp": "2023-05-16T16:38:46Z",
        "version": 1,
        "changeset": 136177975,
        "addr:city": "Castelo",
        "addr:housenumber": "999",
        "addr:postcode": "29360-000",
        "addr:street": "Avenida Nossa Senhora Penha",
        "addr:suburb": "São Miguel",
        "name": "Hotel e Restaurante Estrela do Sul",
        "tourism": "hotel",
        "id": "node/10902633859"
      },
      "geometry": {
        "type": "Point",
        "coordinates": [
          -41.2051611,
          -20.6124756
        ]
      }
    }
  ]
}
