{
  "type": "FeatureCollection",
  "features": [
    {
      "type": "Feature",
      "id": "way/544574319",
      "properties": {
        "timestamp": "2023-05-18T17:58:31Z",
        "version": 3,
        "changeset": 136267124,
        "addr:city": "Castelo",
        "addr:housenumber": "2030",
        "addr:postcode": "29360-000",
        "addr:street": "Avenida João Venturim Filho",
        "addr:suburb": "Cava Roxa",
        "alt_name": "Asilo dos Velhos de Castelo",
        "amenity": "social_facility",
        "building": "yes",
        "name": "Vila Feliz Antônio Sérgio de Tassis",
        "operator": "Instituição de Longa Permanência Para Idosos Vila Feliz Antônio Sérgio de Tassis",
        "operator:type": "private",
        "social_facility": "group_home",
        "social_facility:for": "senior",
        "id": "way/544574319"
      },
      "geometry": {
        "type": "Polygon",
        "coordinates": [
          [
            [
              -41.2006168,
              -20.6277955
            ],
            [
              -41.2003892,
              -20.6284357
            ],
            [
              -41.2002926,
              -20.6284056
            ],
            [
              -41.2004234,
              -20.6280376
            ],
            [
              -41.2001373,
              -20.6279485
            ],
            [
              -41.2002356,
              -20.6276718
            ],
            [
              -41.2004921,
              -20.6277516
            ],
            [
              -41.2004077,
              -20.627989
            ],
            [
              -41.2004481,
              -20.6280016
            ],
            [
              -41.2005309,
              -20.6277687
            ],
            [
              -41.2006168,
              -20.6277955
            ]
          ]
        ]
      }
    },
    {
      "type": "Feature",
      "id": "node/3999139416",
      "properties": {
        "timestamp": "2023-05-14T13:16:00Z",
        "version": 2,
        "changeset": 136084845,
        "addr:city": "Castelo",
        "addr:postcode": "29360-000",
        "addr:street": "Rua Mário Pena",
        "addr:suburb": "Niterói",
        "alt_name": "Centro de Referência de Assistência Social",
        "amenity": "social_facility",
        "contact:phone": "(28) 3542-1382",
        "name": "CRAS - Castelo",
        "social_facility": "outreach",
        "source": "IJSN",
        "id": "node/3999139416"
      },
      "geometry": {
        "type": "Point",
        "coordinates": [
          -41.199035,
          -20.6080121
        ]
      }
    },
    {
      "type": "Feature",
      "id": "node/6152691350",
      "properties": {
        "timestamp": "2023-05-15T10:42:46Z",
        "version": 3,
        "changeset": 136120355,
        "addr:city": "Castelo",
        "addr:postcode": "29360-000",
        "addr:street": "Rodovia Pedro Cola",
        "addr:suburb": "Criméia",
        "amenity": "social_facility",
        "email": "secretaria@apaecasteloes.com.br",
        "name": "Associação de Pais e Amigos dos Excepcionais de Castelo - Apae",
        "phone": "+55 28 3542 2271",
        "social_facility": "day_care",
        "social_facility:for": "mental_health",
        "id": "node/6152691350"
      },
      "geometry": {
        "type": "Point",
        "coordinates": [
          -41.1949031,
          -20.5789008
        ]
      }
    },
    {
      "type": "Feature",
      "id": "node/10929230930",
      "properties": {
        "timestamp": "2023-05-26T14:27:04Z",
        "version": 1,
        "changeset": 136590686,
        "addr:city": "Castelo",
        "addr:postcode": "29360-000",
        "addr:street": "Avenida João Venturim Filho",
        "addr:suburb": "Cava Roxa",
        "amenity": "social_facility",
        "name": "Associação das Crianças de Castelo - Acric",
        "social_facility": "childrens_centre",
        "social_facility:for": "child",
        "id": "node/10929230930"
      },
      "geometry": {
        "type": "Point",
        "coordinates": [
          -41.1994644,
          -20.6268735
        ]
      }
    }
  ]
}
