{
  "type": "FeatureCollection",
  "features": [
    {
      "type": "Feature",
      "id": "way/1272066747",
      "properties": {
        "timestamp": "2024-04-19T18:12:49Z",
        "version": 2,
        "changeset": 150236254,
        "addr:city": "Matozinhos",
        "addr:housenumber": "340",
        "addr:postcode": "35720-000",
        "addr:street": "Avenida Caio Martins",
        "addr:suburb": "Centro",
        "amenity": "doctors",
        "building": "yes",
        "healthcare": "doctor",
        "level": "2",
        "name": "MedCenter",
        "id": "way/1272066747"
      },
      "geometry": {
        "type": "Polygon",
        "coordinates": [
          [
            [
              -44.0808514,
              -19.5617694
            ],
            [
              -44.0808045,
              -19.5619278
            ],
            [
              -44.080685,
              -19.5618928
            ],
            [
              -44.080701,
              -19.5618353
            ],
            [
              -44.0806204,
              -19.5618794
            ],
            [
              -44.0805868,
              -19.5618244
            ],
            [
              -44.0806859,
              -19.5617677
            ],
            [
              -44.0807063,
              -19.5618027
            ],
            [
              -44.0807302,
              -19.5617402
            ],
            [
              -44.0808514,
              -19.5617694
            ]
          ]
        ]
      }
    },
    {
      "type": "Feature",
      "id": "way/1272608063",
      "properties": {
        "timestamp": "2024-04-14T21:47:03Z",
        "version": 1,
        "changeset": 150011138,
        "addr:city": "Matozinhos",
        "addr:housenumber": "33",
        "addr:postcode": "35720-000",
        "addr:street": "Rua Oito de Dezembro",
        "addr:suburb": "Centro",
        "amenity": "doctors",
        "building": "yes",
        "healthcare": "doctor",
        "healthcare:speciality": "psychiatry;nutrição;odontologia",
        "name": "MTZ Saúde",
        "id": "way/1272608063"
      },
      "geometry": {
        "type": "Polygon",
        "coordinates": [
          [
            [
              -44.0820205,
              -19.5584103
            ],
            [
              -44.0820638,
              -19.5583246
            ],
            [
              -44.0821878,
              -19.5583632
            ],
            [
              -44.0821503,
              -19.5584491
            ],
            [
              -44.0820205,
              -19.5584103
            ]
          ]
        ]
      }
    }
  ]
}
