{
  "type": "FeatureCollection",
  "features": [
    {
      "type": "Feature",
      "id": "way/1272065087",
      "properties": {
        "timestamp": "2024-04-12T20:10:42Z",
        "version": 4,
        "changeset": 149927473,
        "addr:city": "Matozinhos",
        "addr:housenumber": "76",
        "addr:street": "Av. Bento Gon√ßalves",
        "addr:suburb": "Centro",
        "building": "yes",
        "building:levels": "3",
        "name": "Hotel Eliana",
        "tourism": "hotel",
        "id": "way/1272065087"
      },
      "geometry": {
        "type": "Polygon",
        "coordinates": [
          [
            [
              -44.0829387,
              -19.5577467
            ],
            [
              -44.0828417,
              -19.5577492
            ],
            [
              -44.0828564,
              -19.5574396
            ],
            [
              -44.0830214,
              -19.5574838
            ],
            [
              -44.0829767,
              -19.5576259
            ],
            [
              -44.0829387,
              -19.5577467
            ]
          ]
        ]
      }
    },
    {
      "type": "Feature",
      "id": "way/1272069613",
      "properties": {
        "timestamp": "2024-04-12T20:10:42Z",
        "version": 2,
        "changeset": 149927473,
        "addr:city": "Matozinhos",
        "addr:housenumber": "89",
        "addr:street": "R. Visc. do Rio das Velhas",
        "addr:suburb": "Centro",
        "building": "yes",
        "building:levels": "5",
        "name": "Hotel Eliana 2",
        "tourism": "hotel",
        "id": "way/1272069613"
      },
      "geometry": {
        "type": "Polygon",
        "coordinates": [
          [
            [
              -44.0827054,
              -19.5572508
            ],
            [
              -44.0828673,
              -19.5574083
            ],
            [
              -44.0828036,
              -19.5574675
            ],
            [
              -44.0826452,
              -19.5573033
            ],
            [
              -44.0827054,
              -19.5572508
            ]
          ]
        ]
      }
    }
  ]
}
