{
  "type": "FeatureCollection",
  "features": [
    {
      "type": "Feature",
      "id": "way/1228485662",
      "properties": {
        "timestamp": "2023-12-03T19:09:32Z",
        "version": 1,
        "changeset": 144729656,
        "addr:city": "Alegrete",
        "addr:country": "BR",
        "addr:housenumber": "210",
        "addr:state": "RS",
        "addr:street": "Rua Demétrio Ribeiro",
        "amenity": "hospital",
        "contact:facebook": "https://www.facebook.com/HGuAExercito/",
        "email": "hospitaldeguarnicaodealegrete@gmail.com",
        "landuse": "military",
        "name": "Hospital de Guarnição de Alegrete",
        "operator": "Exército Brasileiro",
        "short_name": "HGuA",
        "id": "way/1228485662"
      },
      "geometry": {
        "type": "Polygon",
        "coordinates": [
          [
            [
              -55.7875643,
              -29.7838999
            ],
            [
              -55.7877401,
              -29.784439
            ],
            [
              -55.7869554,
              -29.7846317
            ],
            [
              -55.7867796,
              -29.7840926
            ],
            [
              -55.7875643,
              -29.7838999
            ]
          ]
        ]
      }
    }
  ]
}
