{
  "type": "FeatureCollection",
  "features": [
    {
      "type": "Feature",
      "id": "way/1228480346",
      "properties": {
        "timestamp": "2024-01-24T13:40:28Z",
        "version": 3,
        "changeset": 146629567,
        "addr:city": "Alegrete",
        "addr:country": "BR",
        "addr:housenumber": "191",
        "addr:postcode": "97546-369",
        "addr:state": "RS",
        "addr:street": "Rua Policarpo Rodrigues",
        "addr:suburb": "Getúlio Vargas",
        "amenity": "kindergarten",
        "name": "Escola Arnaldo da Costa Paz",
        "official_name": "Escola Municipal de Educação Infantil Arnaldo da Costa Paz",
        "operator": "Prefeitura Municipal de Alegrete",
        "ref:INEP": "43082556",
        "short_name": "EMEI Arnaldo da Costa Paz",
        "id": "way/1228480346"
      },
      "geometry": {
        "type": "Polygon",
        "coordinates": [
          [
            [
              -55.7695694,
              -29.8022619
            ],
            [
              -55.7699476,
              -29.8020734
            ],
            [
              -55.7704169,
              -29.8027823
            ],
            [
              -55.7700388,
              -29.8029708
            ],
            [
              -55.7695694,
              -29.8022619
            ]
          ]
        ]
      }
    },
    {
      "type": "Feature",
      "id": "way/1228506248",
      "properties": {
        "timestamp": "2024-01-24T13:41:27Z",
        "version": 4,
        "changeset": 146629567,
        "addr:city": "Alegrete",
        "addr:country": "BR",
        "addr:housenumber": "496",
        "addr:postcode": "97547-215",
        "addr:state": "RS",
        "addr:street": "Avenida Gentil Francisco Carlesso",
        "addr:suburb": "Capão do Angico",
        "alt_name": "EMEI Guto Pereira",
        "amenity": "kindergarten",
        "contact:phone": "+55 (55) 39611663",
        "name": "Escola Sérgio Augusto Bello Pereira",
        "official_name": "Escola Municipal de Educação Infantil Sérgio Augusto Bello Pereira",
        "operator": "Prefeitura Municipal de Alegrete",
        "ref:INEP": "43195750",
        "short_name": "EMEI Sérgio Augusto Bello Pereira",
        "id": "way/1228506248"
      },
      "geometry": {
        "type": "Polygon",
        "coordinates": [
          [
            [
              -55.7581846,
              -29.7951055
            ],
            [
              -55.7586629,
              -29.7954399
            ],
            [
              -55.7583383,
              -29.7957896
            ],
            [
              -55.75786,
              -29.7954551
            ],
            [
              -55.7581846,
              -29.7951055
            ]
          ]
        ]
      }
    },
    {
      "type": "Feature",
      "id": "way/1241834223",
      "properties": {
        "timestamp": "2024-01-24T13:38:43Z",
        "version": 3,
        "changeset": 146629567,
        "addr:city": "Alegrete",
        "addr:country": "BR",
        "addr:housenumber": "682",
        "addr:postcode": "97542-601",
        "addr:state": "RS",
        "addr:street": "Rua Vasco Alves",
        "addr:suburb": "Macedo",
        "amenity": "kindergarten",
        "contact:phone": "+55 (55) 39611692",
        "name": "Escola Tenente Salustiano Prates",
        "official_name": "Escola Municipal de Educação Infantil Tenente Salustiano Prates",
        "operator": "Prefeitura Municipal de Alegrete",
        "ref:INEP": "43195679",
        "short_name": "EMEI Tenente Salustiano Prates",
        "id": "way/1241834223"
      },
      "geometry": {
        "type": "Polygon",
        "coordinates": [
          [
            [
              -55.7984045,
              -29.782573
            ],
            [
              -55.7983147,
              -29.7823076
            ],
            [
              -55.7984407,
              -29.7821388
            ],
            [
              -55.7985976,
              -29.7821062
            ],
            [
              -55.798717,
              -29.782502
            ],
            [
              -55.7984045,
              -29.782573
            ]
          ]
        ]
      }
    },
    {
      "type": "Feature",
      "id": "way/1241834224",
      "properties": {
        "timestamp": "2024-01-24T13:38:43Z",
        "version": 3,
        "changeset": 146629567,
        "addr:city": "Alegrete",
        "addr:country": "BR",
        "addr:housenumber": "135",
        "addr:postcode": "97545-420",
        "addr:state": "RS",
        "addr:street": "Rua Marechal Artur da Costa e Silva",
        "addr:suburb": "Piola",
        "amenity": "kindergarten",
        "contact:phone": "+55 (55) 39611697",
        "name": "Escola Nossa Senhora das Graças",
        "official_name": "Escola Municipal de Educação Infantil Nossa Senhora das Graças",
        "operator": "Prefeitura Municipal de Alegrete",
        "ref:INEP": "43195768",
        "short_name": "EMEI Nossa Senhora das Graças",
        "id": "way/1241834224"
      },
      "geometry": {
        "type": "Polygon",
        "coordinates": [
          [
            [
              -55.8027926,
              -29.8132235
            ],
            [
              -55.8025192,
              -29.8133759
            ],
            [
              -55.8023119,
              -29.8130958
            ],
            [
              -55.8025852,
              -29.8129435
            ],
            [
              -55.8027926,
              -29.8132235
            ]
          ]
        ]
      }
    },
    {
      "type": "Feature",
      "id": "way/1241834228",
      "properties": {
        "timestamp": "2024-01-24T13:38:43Z",
        "version": 3,
        "changeset": 146629567,
        "addr:city": "Alegrete",
        "addr:country": "BR",
        "addr:housenumber": "56",
        "addr:postcode": "97543-010",
        "addr:state": "RS",
        "addr:street": "Rua Alceu Wamosy",
        "addr:suburb": "Assunção",
        "amenity": "kindergarten",
        "contact:phone": "+55 (55) 39611643",
        "name": "Escola Doutor Euclides Lisboa",
        "official_name": "Escola Municipal de Educação Infantil Doutor Euclides Lisboa",
        "operator": "Prefeitura Municipal de Alegrete",
        "ref:INEP": "43011837",
        "short_name": "EMEI Doutor Euclides Lisboa",
        "id": "way/1241834228"
      },
      "geometry": {
        "type": "Polygon",
        "coordinates": [
          [
            [
              -55.7954554,
              -29.7983191
            ],
            [
              -55.7953985,
              -29.7981161
            ],
            [
              -55.7959827,
              -29.7979926
            ],
            [
              -55.7960328,
              -29.7981712
            ],
            [
              -55.7958616,
              -29.7982074
            ],
            [
              -55.7958685,
              -29.7982318
            ],
            [
              -55.7954554,
              -29.7983191
            ]
          ]
        ]
      }
    },
    {
      "type": "Feature",
      "id": "way/1242140162",
      "properties": {
        "timestamp": "2024-01-24T13:39:31Z",
        "version": 2,
        "changeset": 146629567,
        "addr:city": "Alegrete",
        "addr:country": "BR",
        "addr:housenumber": "398",
        "addr:postcode": "97541-180",
        "addr:state": "RS",
        "addr:street": "Rua Eljo Ribeiro Lima",
        "addr:suburb": "Rui Ramos",
        "amenity": "kindergarten",
        "contact:phone": "+55 (55) 39611688",
        "name": "Escola Ibirapuitã",
        "official_name": "Escola Municipal de Educação Infantil Ibirapuitã",
        "operator": "Prefeitura Municipal de Alegrete",
        "ref:INEP": "43012345",
        "short_name": "EMEI Ibirapuitã",
        "id": "way/1242140162"
      },
      "geometry": {
        "type": "Polygon",
        "coordinates": [
          [
            [
              -55.7859755,
              -29.7705265
            ],
            [
              -55.7862655,
              -29.770449
            ],
            [
              -55.7864639,
              -29.7710083
            ],
            [
              -55.7861739,
              -29.7710858
            ],
            [
              -55.7859755,
              -29.7705265
            ]
          ]
        ]
      }
    },
    {
      "type": "Feature",
      "id": "way/1242140164",
      "properties": {
        "timestamp": "2024-01-24T13:39:31Z",
        "version": 2,
        "changeset": 146629567,
        "addr:city": "Alegrete",
        "addr:country": "BR",
        "addr:housenumber": "319",
        "addr:postcode": "97541-110",
        "addr:state": "RS",
        "addr:street": "Rua Coronel Luiz Inácio Jaques",
        "addr:suburb": "Centro",
        "amenity": "kindergarten",
        "contact:phone": "+55 (55) 34261481",
        "name": "Escola Palmira Palma de Oliveira",
        "official_name": "Escola Municipal de Educação Infantil Palmira Palma de Oliveira",
        "operator": "Prefeitura Municipal de Alegrete",
        "ref:INEP": "43195741",
        "short_name": "EMEI Palmira Palma de Oliveira",
        "id": "way/1242140164"
      },
      "geometry": {
        "type": "Polygon",
        "coordinates": [
          [
            [
              -55.7927276,
              -29.7774921
            ],
            [
              -55.7923617,
              -29.7775741
            ],
            [
              -55.7923275,
              -29.777459
            ],
            [
              -55.7922531,
              -29.7774757
            ],
            [
              -55.7921113,
              -29.7769991
            ],
            [
              -55.7924404,
              -29.7769253
            ],
            [
              -55.7923571,
              -29.7766628
            ],
            [
              -55.7924014,
              -29.7766522
            ],
            [
              -55.7924567,
              -29.7766389
            ],
            [
              -55.7927276,
              -29.7774921
            ]
          ]
        ]
      }
    },
    {
      "type": "Feature",
      "id": "node/11542355684",
      "properties": {
        "timestamp": "2024-01-23T07:44:16Z",
        "version": 1,
        "changeset": 146579762,
        "barrier": "gate",
        "id": "node/11542355684"
      },
      "geometry": {
        "type": "Point",
        "coordinates": [
          -55.7924014,
          -29.7766522
        ]
      }
    }
  ]
}
