{
  "type": "FeatureCollection",
  "features": [
    {
      "type": "Feature",
      "id": "relation/15795826",
      "properties": {
        "timestamp": "2023-05-01T20:48:13Z",
        "version": 1,
        "changeset": 135590739,
        "addr:city": "Alegrete",
        "addr:housenumber": "63",
        "addr:postcode": "97541-250",
        "addr:street": "R. Gal Netto",
        "amenity": "school",
        "building": "school",
        "name": "Colégio Divino Coração",
        "type": "multipolygon",
        "id": "relation/15795826"
      },
      "geometry": {
        "type": "Polygon",
        "coordinates": [
          [
            [
              -55.7910853,
              -29.782173
            ],
            [
              -55.7912109,
              -29.7821402
            ],
            [
              -55.7912112,
              -29.782141
            ],
            [
              -55.7914452,
              -29.7820817
            ],
            [
              -55.7915923,
              -29.7825065
            ],
            [
              -55.7912332,
              -29.7826002
            ],
            [
              -55.7911164,
              -29.7822627
            ],
            [
              -55.7911155,
              -29.782263
            ],
            [
              -55.7910853,
              -29.782173
            ]
          ],
          [
            [
              -55.7913873,
              -29.7821941
            ],
            [
              -55.7912423,
              -29.7822308
            ],
            [
              -55.7912818,
              -29.7823448
            ],
            [
              -55.7912496,
              -29.7823532
            ],
            [
              -55.7912838,
              -29.7824519
            ],
            [
              -55.7913772,
              -29.7824276
            ],
            [
              -55.7913685,
              -29.7824025
            ],
            [
              -55.791452,
              -29.7823808
            ],
            [
              -55.7913873,
              -29.7821941
            ]
          ]
        ]
      }
    },
    {
      "type": "Feature",
      "id": "way/286483094",
      "properties": {
        "timestamp": "2024-05-16T00:47:49Z",
        "version": 7,
        "changeset": 151385574,
        "addr:city": "Alegrete",
        "addr:country": "BR",
        "addr:housenumber": "535",
        "addr:postcode": "97541-261",
        "addr:state": "RS",
        "addr:street": "Rua General Sampaio",
        "addr:suburb": "Centro",
        "amenity": "school",
        "contact:phone": "+55 (55) 34221875",
        "name": "Instituto Estadual de Educação Oswaldo Aranha",
        "operator": "Secretaria da Educação do Rio Grande do Sul",
        "operator:wikidata": "Q118145819",
        "ref:INEP": "43012469",
        "short_name": "IEE Oswaldo Aranha",
        "id": "way/286483094"
      },
      "geometry": {
        "type": "Polygon",
        "coordinates": [
          [
            [
              -55.7916745,
              -29.7781853
            ],
            [
              -55.7920408,
              -29.7792774
            ],
            [
              -55.7905939,
              -29.779643
            ],
            [
              -55.7902276,
              -29.778551
            ],
            [
              -55.7909526,
              -29.7783678
            ],
            [
              -55.7914133,
              -29.7782514
            ],
            [
              -55.7916745,
              -29.7781853
            ]
          ]
        ]
      }
    },
    {
      "type": "Feature",
      "id": "way/1162664182",
      "properties": {
        "timestamp": "2024-01-24T13:38:43Z",
        "version": 3,
        "changeset": 146629567,
        "addr:city": "Alegrete",
        "addr:country": "BR",
        "addr:housenumber": "1559",
        "addr:postcode": "97541-261",
        "addr:state": "RS",
        "addr:street": "Rua General Sampaio",
        "addr:suburb": "Centro",
        "amenity": "school",
        "contact:phone": "+55 (55) 34221476",
        "name": "Escola Demétrio Ribeiro",
        "official_name": "Escola Estadual de Ensino Médio Demétrio Ribeiro",
        "operator": "Secretaria da Educação do Rio Grande do Sul",
        "operator:wikidata": "Q118145819",
        "ref:INEP": "43012299",
        "short_name": "EEEM Demétrio Ribeiro",
        "id": "way/1162664182"
      },
      "geometry": {
        "type": "Polygon",
        "coordinates": [
          [
            [
              -55.7939212,
              -29.7883275
            ],
            [
              -55.793856,
              -29.788121
            ],
            [
              -55.7934968,
              -29.7882065
            ],
            [
              -55.793376,
              -29.7878242
            ],
            [
              -55.7936112,
              -29.7877682
            ],
            [
              -55.7936041,
              -29.7877459
            ],
            [
              -55.794341,
              -29.7875705
            ],
            [
              -55.794374,
              -29.7876748
            ],
            [
              -55.7948415,
              -29.7875636
            ],
            [
              -55.7950016,
              -29.7880704
            ],
            [
              -55.7939212,
              -29.7883275
            ]
          ]
        ]
      }
    },
    {
      "type": "Feature",
      "id": "way/1164024957",
      "properties": {
        "timestamp": "2024-01-24T13:40:28Z",
        "version": 4,
        "changeset": 146629567,
        "addr:city": "Alegrete",
        "addr:country": "BR",
        "addr:housenumber": "56",
        "addr:postcode": "97564-490",
        "addr:state": "RS",
        "addr:street": "Rua Santiago",
        "addr:suburb": "Ibirapuitã",
        "amenity": "school",
        "contact:phone": "+55 (55) 34226516",
        "name": "Escola Gaspar Martins",
        "official_name": "Escola Estadual de Ensino Fundamental Gaspar Martins",
        "operator": "Secretaria da Educação do Rio Grande do Sul",
        "operator:wikidata": "Q118145819",
        "ref:INEP": "43012310",
        "short_name": "EEEF Gaspar Martins",
        "id": "way/1164024957"
      },
      "geometry": {
        "type": "Polygon",
        "coordinates": [
          [
            [
              -55.7693849,
              -29.7881792
            ],
            [
              -55.7702887,
              -29.7879551
            ],
            [
              -55.770432,
              -29.7883903
            ],
            [
              -55.7695282,
              -29.7886144
            ],
            [
              -55.7693849,
              -29.7881792
            ]
          ]
        ]
      }
    },
    {
      "type": "Feature",
      "id": "way/1164525090",
      "properties": {
        "timestamp": "2024-01-24T13:40:28Z",
        "version": 3,
        "changeset": 146629567,
        "addr:city": "Alegrete",
        "addr:country": "BR",
        "addr:housenumber": "809",
        "addr:postcode": "97546-550",
        "addr:state": "RS",
        "addr:street": "Avenida Tiarajú",
        "addr:suburb": "Ibirapuitã",
        "amenity": "school",
        "name": "Escola Doutor Lauro Dornelles",
        "official_name": "Escola Estadual de Educação Básica Doutor Lauro Dornelles",
        "operator": "Secretaria da Educação do Rio Grande do Sul",
        "operator:wikidata": "Q118145819",
        "phone": "+55 55 34221335",
        "ref:INEP": "43012582",
        "short_name": "EEEB Doutor Lauro Dornelles",
        "id": "way/1164525090"
      },
      "geometry": {
        "type": "Polygon",
        "coordinates": [
          [
            [
              -55.766741,
              -29.7875372
            ],
            [
              -55.7678434,
              -29.7886179
            ],
            [
              -55.7672379,
              -29.7892085
            ],
            [
              -55.7659518,
              -29.7881424
            ],
            [
              -55.7662971,
              -29.7878421
            ],
            [
              -55.7661972,
              -29.7877636
            ],
            [
              -55.7663514,
              -29.7876384
            ],
            [
              -55.7664949,
              -29.787738
            ],
            [
              -55.766741,
              -29.7875372
            ]
          ]
        ]
      }
    },
    {
      "type": "Feature",
      "id": "way/1167470201",
      "properties": {
        "timestamp": "2024-01-24T13:39:31Z",
        "version": 3,
        "changeset": 146629567,
        "addr:city": "Alegrete",
        "addr:country": "BR",
        "addr:housenumber": "17",
        "addr:postcode": "97541-080",
        "addr:state": "RS",
        "addr:street": "Rua Celestino Prunes",
        "addr:suburb": "Vila Nova",
        "amenity": "school",
        "contact:phone": "+55 (55) 34229445",
        "name": "Escola Osvaldo Dornelles",
        "official_name": "Escola Estadual de Ensino Fundamental Osvaldo Dornelles",
        "operator": "Secretaria da Educação do Rio Grande do Sul",
        "operator:wikidata": "Q118145819",
        "ref:INEP": "43012264",
        "short_name": "EEEF Osvaldo Dornelles",
        "id": "way/1167470201"
      },
      "geometry": {
        "type": "Polygon",
        "coordinates": [
          [
            [
              -55.7857617,
              -29.7713772
            ],
            [
              -55.7858427,
              -29.7716284
            ],
            [
              -55.7852032,
              -29.7717837
            ],
            [
              -55.7851222,
              -29.7715325
            ],
            [
              -55.7857617,
              -29.7713772
            ]
          ]
        ]
      }
    },
    {
      "type": "Feature",
      "id": "way/1167470204",
      "properties": {
        "timestamp": "2024-01-23T07:44:16Z",
        "version": 3,
        "changeset": 146579762,
        "addr:state": "RS",
        "amenity": "school",
        "name": "Escola de Ensino Infantil Agape",
        "operator": "Associação Evangélica Beneficente Ebenezer",
        "id": "way/1167470204"
      },
      "geometry": {
        "type": "Polygon",
        "coordinates": [
          [
            [
              -55.7861012,
              -29.7699245
            ],
            [
              -55.7862655,
              -29.770449
            ],
            [
              -55.7859755,
              -29.7705265
            ],
            [
              -55.7861739,
              -29.7710858
            ],
            [
              -55.7850578,
              -29.7714344
            ],
            [
              -55.7848178,
              -29.7706637
            ],
            [
              -55.7861012,
              -29.7699245
            ]
          ]
        ]
      }
    },
    {
      "type": "Feature",
      "id": "way/1167486005",
      "properties": {
        "timestamp": "2023-04-30T06:53:45Z",
        "version": 1,
        "changeset": 135525557,
        "addr:city": "Alegrete",
        "addr:housenumber": "907",
        "addr:postcode": "97542-200",
        "addr:street": "Rua Demétrio Ribeiro",
        "addr:suburb": "Centro",
        "amenity": "school",
        "email": "alexandrelisboasec@yahoo.com.br",
        "name": "EEEF Dr Alexandre Lisboa",
        "phone": "+55 55 34222730",
        "id": "way/1167486005"
      },
      "geometry": {
        "type": "Polygon",
        "coordinates": [
          [
            [
              -55.7800595,
              -29.7842444
            ],
            [
              -55.7803151,
              -29.7846493
            ],
            [
              -55.7803664,
              -29.7849516
            ],
            [
              -55.7796297,
              -29.7850208
            ],
            [
              -55.7794829,
              -29.7844481
            ],
            [
              -55.7795995,
              -29.7844342
            ],
            [
              -55.7795808,
              -29.7843224
            ],
            [
              -55.7800595,
              -29.7842444
            ]
          ]
        ]
      }
    },
    {
      "type": "Feature",
      "id": "way/1180553231",
      "properties": {
        "timestamp": "2024-01-24T13:38:43Z",
        "version": 3,
        "changeset": 146629567,
        "addr:city": "Alegrete",
        "addr:country": "BR",
        "addr:postcode": "97551-899",
        "addr:state": "RS",
        "addr:street": "Estrada Municipal Vasco Alves e Rivadávia Correa",
        "amenity": "school",
        "name": "Escola Doutor Arthur Hormain",
        "nohousenumber": "yes",
        "official_name": "Escola Estadual de Ensino Fundamental Doutor Arthur Hormain",
        "operator": "Secretaria da Educação do Rio Grande do Sul",
        "operator:wikidata": "Q118145819",
        "ref:INEP": "43012159",
        "short_name": "EEEF Doutor Arthur Hormain",
        "id": "way/1180553231"
      },
      "geometry": {
        "type": "Polygon",
        "coordinates": [
          [
            [
              -55.8403838,
              -29.8192161
            ],
            [
              -55.8400807,
              -29.8197513
            ],
            [
              -55.8402148,
              -29.8198049
            ],
            [
              -55.8399439,
              -29.8202935
            ],
            [
              -55.8386725,
              -29.8198235
            ],
            [
              -55.8388013,
              -29.8185924
            ],
            [
              -55.8403838,
              -29.8192161
            ]
          ]
        ]
      }
    },
    {
      "type": "Feature",
      "id": "way/1219403576",
      "properties": {
        "timestamp": "2024-01-24T13:42:12Z",
        "version": 3,
        "changeset": 146629567,
        "addr:city": "Alegrete",
        "addr:country": "BR",
        "addr:housenumber": "309",
        "addr:postcode": "97542-360",
        "addr:state": "RS",
        "addr:street": "Rua Joaquim Antônio",
        "addr:suburb": "Centro",
        "amenity": "school",
        "contact:email": "freitasvalle10cre@educacao.rs.gov.br",
        "contact:phone": "+55 (55) 34222766",
        "name": "Escola Freitas Valle",
        "official_name": "Escola Estadual de Ensino Fundamental Freitas Valle",
        "operator": "Secretaria da Educação do Rio Grande do Sul",
        "operator:wikidata": "Q118145819",
        "ref:INEP": "43012248",
        "short_name": "EEEF Freitas Valle",
        "id": "way/1219403576"
      },
      "geometry": {
        "type": "Polygon",
        "coordinates": [
          [
            [
              -55.7844178,
              -29.7849441
            ],
            [
              -55.784768,
              -29.7848553
            ],
            [
              -55.7848569,
              -29.7851194
            ],
            [
              -55.7845067,
              -29.7852082
            ],
            [
              -55.7844178,
              -29.7849441
            ]
          ]
        ]
      }
    },
    {
      "type": "Feature",
      "id": "way/1226743629",
      "properties": {
        "timestamp": "2024-01-24T13:38:43Z",
        "version": 4,
        "changeset": 146629567,
        "addr:city": "Alegrete",
        "addr:country": "BR",
        "addr:housenumber": "781",
        "addr:postcode": "97544-020",
        "addr:state": "RS",
        "addr:street": "Rua Alonso Medeiros",
        "addr:suburb": "Joaquim Fonseca Milano",
        "amenity": "school",
        "contact:email": "cpmromari@hotmail.com",
        "name": "Escola Doutor Romário Araújo de Oliveira",
        "official_name": "Escola Estadual de Ensino Médio Doutor Romário Araújo de Oliveira",
        "operator": "Secretaria da Educação do Rio Grande do Sul",
        "operator:wikidata": "Q118145819",
        "ref:INEP": "43171443",
        "short_name": "EEEM Doutor Romário Araújo de Oliveira",
        "id": "way/1226743629"
      },
      "geometry": {
        "type": "Polygon",
        "coordinates": [
          [
            [
              -55.8060032,
              -29.7873126
            ],
            [
              -55.8064954,
              -29.7876024
            ],
            [
              -55.8051851,
              -29.7892062
            ],
            [
              -55.8048807,
              -29.7884578
            ],
            [
              -55.8046916,
              -29.7879271
            ],
            [
              -55.8060032,
              -29.7873126
            ]
          ]
        ]
      }
    },
    {
      "type": "Feature",
      "id": "way/1227077477",
      "properties": {
        "timestamp": "2024-01-24T13:40:28Z",
        "version": 4,
        "changeset": 146629567,
        "addr:city": "Alegrete",
        "addr:country": "BR",
        "addr:housenumber": "900",
        "addr:postcode": "97546-140",
        "addr:state": "RS",
        "addr:street": "Avenida Caverá",
        "addr:suburb": "Honório Lemes",
        "amenity": "school",
        "contact:phone": "+55 (55) 39611699",
        "name": "Escola Honório Lemes",
        "official_name": "Escola Municipal de Educação Básica Honório Lemes",
        "operator": "Prefeitura Municipal de Alegrete",
        "ref:INEP": "43012060",
        "short_name": "EMEB Honório Lemes",
        "id": "way/1227077477"
      },
      "geometry": {
        "type": "Polygon",
        "coordinates": [
          [
            [
              -55.7682726,
              -29.7959187
            ],
            [
              -55.7681029,
              -29.79586
            ],
            [
              -55.7681095,
              -29.7958619
            ],
            [
              -55.7684763,
              -29.7951729
            ],
            [
              -55.7686883,
              -29.795235
            ],
            [
              -55.7690424,
              -29.7963226
            ],
            [
              -55.7685314,
              -29.7964651
            ],
            [
              -55.7684892,
              -29.7961311
            ],
            [
              -55.7682317,
              -29.7960467
            ],
            [
              -55.7682738,
              -29.7959698
            ],
            [
              -55.7682468,
              -29.7959587
            ],
            [
              -55.7682726,
              -29.7959187
            ]
          ]
        ]
      }
    },
    {
      "type": "Feature",
      "id": "way/1227186694",
      "properties": {
        "timestamp": "2024-01-24T13:41:45Z",
        "version": 4,
        "changeset": 146629567,
        "addr:city": "Alegrete",
        "addr:country": "BR",
        "addr:housenumber": "112",
        "addr:postcode": "97547-582",
        "addr:state": "RS",
        "addr:street": "Rua Airton Senna",
        "addr:suburb": "Saint Pastous",
        "amenity": "school",
        "contact:phone": "+55 (55) 39611738",
        "name": "Escola Antônio Saint Pastous de Freitas",
        "official_name": "Escola Municipal de Educação Básica Antônio Saint Pastous de Freitas",
        "operator": "Prefeitura Municipal de Alegrete",
        "ref:INEP": "43201709",
        "short_name": "EMEB Antônio Saint Pastous de Freitas",
        "id": "way/1227186694"
      },
      "geometry": {
        "type": "Polygon",
        "coordinates": [
          [
            [
              -55.7441458,
              -29.8009907
            ],
            [
              -55.7442735,
              -29.8012715
            ],
            [
              -55.7443977,
              -29.8015446
            ],
            [
              -55.7438392,
              -29.8017358
            ],
            [
              -55.7435873,
              -29.801182
            ],
            [
              -55.7439404,
              -29.8010611
            ],
            [
              -55.7441458,
              -29.8009907
            ]
          ]
        ]
      }
    },
    {
      "type": "Feature",
      "id": "way/1228303750",
      "properties": {
        "timestamp": "2024-01-24T13:38:43Z",
        "version": 3,
        "changeset": 146629567,
        "addr:city": "Alegrete",
        "addr:country": "BR",
        "addr:housenumber": "105",
        "addr:postcode": "97545-310",
        "addr:state": "RS",
        "addr:street": "Rua João Pessoa",
        "addr:suburb": "Novo Lar",
        "amenity": "school",
        "contact:phone": "+55 (55) 34221326",
        "email": "josebonifacio10cre@educacao.rs.gov.br",
        "name": "Escola José Bonifácio",
        "official_name": "Escola Estadual de Ensino Médio José Bonifácio",
        "operator": "Secretaria da Educação do Rio Grande do Sul",
        "operator:wikidata": "Q118145819",
        "phone": "+55 55 34221326",
        "ref:INEP": "43012132",
        "short_name": "EEEM José Bonifácio",
        "id": "way/1228303750"
      },
      "geometry": {
        "type": "Polygon",
        "coordinates": [
          [
            [
              -55.809541,
              -29.807829
            ],
            [
              -55.809246,
              -29.809286
            ],
            [
              -55.8073685,
              -29.8092092
            ],
            [
              -55.8074462,
              -29.8087507
            ],
            [
              -55.8075321,
              -29.8086692
            ],
            [
              -55.809541,
              -29.807829
            ]
          ]
        ]
      }
    },
    {
      "type": "Feature",
      "id": "way/1228506253",
      "properties": {
        "timestamp": "2024-01-24T13:38:43Z",
        "version": 3,
        "changeset": 146629567,
        "addr:city": "Alegrete",
        "addr:country": "BR",
        "addr:postcode": "97544-300",
        "addr:state": "RS",
        "addr:street": "Rua Marcirio Rodrigues",
        "addr:suburb": "Vera Cruz",
        "amenity": "school",
        "contact:phone": "+55 (55) 34222326",
        "name": "Escola Faroupilha",
        "official_name": "Escola Estadual de Ensino Fundamental Farroupilha",
        "operator": "Secretaria da Educação do Rio Grande do Sul",
        "operator:wikidata": "Q118145819",
        "ref:INEP": "43012302",
        "short_name": "EEEF Farroupilha",
        "id": "way/1228506253"
      },
      "geometry": {
        "type": "Polygon",
        "coordinates": [
          [
            [
              -55.8072907,
              -29.79081
            ],
            [
              -55.8077896,
              -29.7911429
            ],
            [
              -55.8071553,
              -29.7918588
            ],
            [
              -55.8066565,
              -29.791526
            ],
            [
              -55.8072907,
              -29.79081
            ]
          ]
        ]
      }
    },
    {
      "type": "Feature",
      "id": "way/1228509463",
      "properties": {
        "timestamp": "2024-05-16T00:47:49Z",
        "version": 4,
        "changeset": 151385574,
        "addr:city": "Alegrete",
        "addr:country": "BR",
        "addr:housenumber": "2255",
        "addr:postcode": "97543-060",
        "addr:state": "RS",
        "addr:street": "Rua Barros Cassal",
        "addr:suburb": "Vera Cruz",
        "amenity": "school",
        "contact:phone": "+55 (55) 34221703",
        "name": "Colégio Emílio Zuñeda",
        "official_name": "Colégio Estadual Emílio Zuñeda",
        "operator": "Secretaria da Educação do Rio Grande do Sul",
        "operator:wikidata": "Q118145819",
        "ref:INEP": "43011721",
        "short_name": "EC Emílio Zuñeda",
        "id": "way/1228509463"
      },
      "geometry": {
        "type": "Polygon",
        "coordinates": [
          [
            [
              -55.8044985,
              -29.7940467
            ],
            [
              -55.8056706,
              -29.7937406
            ],
            [
              -55.8060515,
              -29.7948602
            ],
            [
              -55.8047949,
              -29.7951756
            ],
            [
              -55.8045307,
              -29.7941317
            ],
            [
              -55.8044985,
              -29.7940467
            ]
          ]
        ]
      }
    },
    {
      "type": "Feature",
      "id": "way/1228517629",
      "properties": {
        "timestamp": "2024-01-24T13:41:27Z",
        "version": 4,
        "changeset": 146629567,
        "addr:city": "Alegrete",
        "addr:country": "BR",
        "addr:housenumber": "394",
        "addr:postcode": "97547-300",
        "addr:state": "RS",
        "addr:street": "Rua Minas Gerais",
        "addr:suburb": "Santos Dumont",
        "amenity": "school",
        "contact:phone": "+55 (55) 34220327",
        "name": "Escola Luiza de Freitas Valle Aranha",
        "official_name": "Escola Municipal de Educação Básica Luiza de Freitas Valle Aranha",
        "operator": "Prefeitura Municipal de Alegrete",
        "ref:INEP": "43012019",
        "short_name": "EMEB Luiza de Freitas Valle Aranha",
        "id": "way/1228517629"
      },
      "geometry": {
        "type": "Polygon",
        "coordinates": [
          [
            [
              -55.7562764,
              -29.8021583
            ],
            [
              -55.7564212,
              -29.8018837
            ],
            [
              -55.7570547,
              -29.8021352
            ],
            [
              -55.7569098,
              -29.8024098
            ],
            [
              -55.7562764,
              -29.8021583
            ]
          ]
        ]
      }
    },
    {
      "type": "Feature",
      "id": "way/1228539254",
      "properties": {
        "timestamp": "2024-01-24T13:38:43Z",
        "version": 4,
        "changeset": 146629567,
        "addr:city": "Alegrete",
        "addr:country": "BR",
        "addr:housenumber": "247",
        "addr:postcode": "97545-590",
        "addr:state": "RS",
        "addr:street": "Rua Pedro Carneiro Pereira",
        "addr:suburb": "Piola",
        "amenity": "school",
        "contact:phone": "+55 (55) 39611680",
        "name": "Escola José Antônio Vilaverde Moura",
        "official_name": "Escola Municipal de Educação Básica José Antônio Vilaverde Moura",
        "operator": "Prefeitura Municipal de Alegrete",
        "ref:INEP": "43011950",
        "short_name": "EMEB José Antônio Vilaverde Moura",
        "id": "way/1228539254"
      },
      "geometry": {
        "type": "Polygon",
        "coordinates": [
          [
            [
              -55.8053156,
              -29.8142196
            ],
            [
              -55.8054797,
              -29.8144561
            ],
            [
              -55.8049521,
              -29.8147317
            ],
            [
              -55.8047467,
              -29.8144358
            ],
            [
              -55.8050485,
              -29.8142782
            ],
            [
              -55.8050897,
              -29.8143376
            ],
            [
              -55.8053156,
              -29.8142196
            ]
          ]
        ]
      }
    },
    {
      "type": "Feature",
      "id": "way/1228547196",
      "properties": {
        "timestamp": "2024-01-24T13:38:43Z",
        "version": 3,
        "changeset": 146629567,
        "addr:city": "Alegrete",
        "addr:country": "BR",
        "addr:housenumber": "36",
        "addr:postcode": "97543-630",
        "addr:state": "RS",
        "addr:street": "Rua Tupi",
        "addr:suburb": "Prado",
        "amenity": "school",
        "contact:phone": "+55 (55) 34220713",
        "name": "Escola Ecilda Alves Paim",
        "official_name": "Escola Estadual de Ensino Fundamental Ecilda Alves Paim",
        "operator": "Secretaria da Educação do Rio Grande do Sul",
        "operator:wikidata": "Q118145819",
        "ref:INEP": "43012280",
        "short_name": "EEEF Ecilda Alves Paim",
        "id": "way/1228547196"
      },
      "geometry": {
        "type": "Polygon",
        "coordinates": [
          [
            [
              -55.8172524,
              -29.8007176
            ],
            [
              -55.8173353,
              -29.8009531
            ],
            [
              -55.8165644,
              -29.8011575
            ],
            [
              -55.8164815,
              -29.800922
            ],
            [
              -55.8172524,
              -29.8007176
            ]
          ]
        ]
      }
    },
    {
      "type": "Feature",
      "id": "way/1228681238",
      "properties": {
        "timestamp": "2023-12-04T16:49:48Z",
        "version": 1,
        "changeset": 144762597,
        "amenity": "school",
        "barrier": "fence",
        "name": "APAE Escola Especial Paul Harris",
        "id": "way/1228681238"
      },
      "geometry": {
        "type": "Polygon",
        "coordinates": [
          [
            [
              -55.7774102,
              -29.7856498
            ],
            [
              -55.7775493,
              -29.7857033
            ],
            [
              -55.7777463,
              -29.7857791
            ],
            [
              -55.7772413,
              -29.7867684
            ],
            [
              -55.7771468,
              -29.7869534
            ],
            [
              -55.7768107,
              -29.7868241
            ],
            [
              -55.7774102,
              -29.7856498
            ]
          ]
        ]
      }
    },
    {
      "type": "Feature",
      "id": "way/1229798821",
      "properties": {
        "timestamp": "2024-01-24T13:38:43Z",
        "version": 3,
        "changeset": 146629567,
        "addr:city": "Alegrete",
        "addr:country": "BR",
        "addr:housenumber": "1373",
        "addr:postcode": "97545-080",
        "addr:state": "RS",
        "addr:street": "Avenida Assis Brasil",
        "addr:suburb": "Cidade Alta",
        "amenity": "school",
        "contact:phone": "+55 (55) 34221543",
        "email": "escolasalgadofilho@yahoo.com.br",
        "name": "Escola Salgado Filho",
        "official_name": "Escola Estadual de Ensino Fundamental Salgado Filho",
        "operator": "Secretaria da Educação do Rio Grande do Sul",
        "operator:wikidata": "Q118145819",
        "ref:INEP": "43012272",
        "short_name": "EEEF Salgado Filho",
        "id": "way/1229798821"
      },
      "geometry": {
        "type": "Polygon",
        "coordinates": [
          [
            [
              -55.8025217,
              -29.8008444
            ],
            [
              -55.8017881,
              -29.8010341
            ],
            [
              -55.8017384,
              -29.8008895
            ],
            [
              -55.802472,
              -29.8006998
            ],
            [
              -55.8025217,
              -29.8008444
            ]
          ]
        ]
      }
    },
    {
      "type": "Feature",
      "id": "way/1230003940",
      "properties": {
        "timestamp": "2024-01-24T13:41:27Z",
        "version": 4,
        "changeset": 146629567,
        "addr:city": "Alegrete",
        "addr:country": "BR",
        "addr:housenumber": "81",
        "addr:postcode": "97547-230",
        "addr:state": "RS",
        "addr:street": "Rua Guabiju",
        "addr:suburb": "Capão do Angico",
        "amenity": "school",
        "contact:phone": "+55 (55) 39611045",
        "email": "registroescolarsec@hotmail.com",
        "name": "Escola Fernando Ferrari",
        "official_name": "Escola Municipal de Educação Básica Fernando Ferrari",
        "operator": "Prefeitura Municipal de Alegrete",
        "phone": "+55 55 39611045",
        "ref:INEP": "43011870",
        "short_name": "EMEB Fernando Ferrari",
        "id": "way/1230003940"
      },
      "geometry": {
        "type": "Polygon",
        "coordinates": [
          [
            [
              -55.7553145,
              -29.7972247
            ],
            [
              -55.7555924,
              -29.7974208
            ],
            [
              -55.7552039,
              -29.7978355
            ],
            [
              -55.7549259,
              -29.7976394
            ],
            [
              -55.7553145,
              -29.7972247
            ]
          ]
        ]
      }
    },
    {
      "type": "Feature",
      "id": "way/1230004205",
      "properties": {
        "timestamp": "2024-01-24T13:38:43Z",
        "version": 4,
        "changeset": 146629567,
        "addr:city": "Alegrete",
        "addr:country": "BR",
        "addr:housenumber": "136",
        "addr:postcode": "97545-030",
        "addr:state": "RS",
        "addr:street": "Rua Alberto Pasqualini",
        "addr:suburb": "Kennedy",
        "amenity": "school",
        "contact:phone": "+55 (55) 34220673",
        "email": "registroescolarsec@hotmail.com",
        "name": "Escola Lions Clube",
        "official_name": "Escola Municipal de Educação Básica Lions Clube",
        "operator": "Prefeitura Municipal de Alegrete",
        "ref:INEP": "43012000",
        "short_name": "EMEB Lions Clube",
        "id": "way/1230004205"
      },
      "geometry": {
        "type": "Polygon",
        "coordinates": [
          [
            [
              -55.8100373,
              -29.8051921
            ],
            [
              -55.8103605,
              -29.8051921
            ],
            [
              -55.8103563,
              -29.8060273
            ],
            [
              -55.8103397,
              -29.8061598
            ],
            [
              -55.8099978,
              -29.8061226
            ],
            [
              -55.8100173,
              -29.806026
            ],
            [
              -55.8100373,
              -29.8051921
            ]
          ]
        ]
      }
    },
    {
      "type": "Feature",
      "id": "way/1230004478",
      "properties": {
        "timestamp": "2024-01-24T13:38:43Z",
        "version": 3,
        "changeset": 146629567,
        "addr:city": "Alegrete",
        "addr:country": "BR",
        "addr:housenumber": "238",
        "addr:postcode": "97542-060",
        "addr:state": "RS",
        "addr:street": "Rua Arnaldo Balve",
        "addr:suburb": "Vila Izabel",
        "amenity": "school",
        "contact:phone": "+55 (55) 39611685",
        "name": "Escola Princesa Isabel",
        "official_name": "Escola Municipal de Educação Básica Princesa Isabel",
        "operator": "Prefeitura Municipal de Alegrete",
        "ref:INEP": "43012078",
        "short_name": "EMEBPrincesa Isabel",
        "id": "way/1230004478"
      },
      "geometry": {
        "type": "Polygon",
        "coordinates": [
          [
            [
              -55.8032962,
              -29.7847874
            ],
            [
              -55.803457,
              -29.7849189
            ],
            [
              -55.8034113,
              -29.7849611
            ],
            [
              -55.8035367,
              -29.7850636
            ],
            [
              -55.8033014,
              -29.7852973
            ],
            [
              -55.8030054,
              -29.7850552
            ],
            [
              -55.8032962,
              -29.7847874
            ]
          ]
        ]
      }
    },
    {
      "type": "Feature",
      "id": "way/1230005017",
      "properties": {
        "timestamp": "2024-01-24T13:38:43Z",
        "version": 3,
        "changeset": 146629567,
        "addr:city": "Alegrete",
        "addr:country": "BR",
        "addr:housenumber": "1350",
        "addr:postcode": "97541-260",
        "addr:state": "RS",
        "addr:street": "Rua General Sampaio",
        "addr:suburb": "Centro",
        "amenity": "school",
        "contact:phone": "+55 (55) 34226394",
        "name": "Escola Marquês de Alegrete",
        "official_name": "Escola Estadual de Ensino Fundamental Marquês de Alegrete",
        "operator": "Secretaria da Educação do Rio Grande do Sul",
        "operator:wikidata": "Q118145819",
        "ref:INEP": "43012256",
        "short_name": "EEEF Marquês de Alegrete",
        "id": "way/1230005017"
      },
      "geometry": {
        "type": "Polygon",
        "coordinates": [
          [
            [
              -55.7950318,
              -29.7856627
            ],
            [
              -55.795125,
              -29.7859361
            ],
            [
              -55.7944872,
              -29.7860999
            ],
            [
              -55.794394,
              -29.7858265
            ],
            [
              -55.7950318,
              -29.7856627
            ]
          ]
        ]
      }
    },
    {
      "type": "Feature",
      "id": "way/1230005114",
      "properties": {
        "timestamp": "2024-01-22T03:52:55Z",
        "version": 3,
        "changeset": 146534330,
        "addr:city": "Alegrete",
        "addr:country": "BR",
        "addr:hamlet": "Caverá",
        "addr:state": "RS",
        "amenity": "school",
        "contact:mobile": "+55 (55) 999866588",
        "name": "Escola Francisco Mafaldo",
        "official_name": "Escola Municipal de Educação Básica Francisco Mafaldo",
        "operator": "Prefeitura Municipal de Alegrete",
        "postal_code": "97541-970",
        "ref:INEP": "43011900",
        "short_name": "EMEB Francisco Mafaldo",
        "id": "way/1230005114"
      },
      "geometry": {
        "type": "Polygon",
        "coordinates": [
          [
            [
              -55.7589439,
              -29.8569682
            ],
            [
              -55.7595366,
              -29.857901
            ],
            [
              -55.7594293,
              -29.8582127
            ],
            [
              -55.7584584,
              -29.8582639
            ],
            [
              -55.7589439,
              -29.8569682
            ]
          ]
        ]
      }
    },
    {
      "type": "Feature",
      "id": "way/1230005342",
      "properties": {
        "timestamp": "2024-01-24T13:40:28Z",
        "version": 3,
        "changeset": 146629567,
        "addr:city": "Alegrete",
        "addr:country": "BR",
        "addr:housenumber": "41",
        "addr:postcode": "97546-075",
        "addr:state": "RS",
        "addr:street": "Rua Adelio Conceição de Ávila",
        "addr:suburb": "Getúlio Vargas",
        "amenity": "school",
        "contact:phone": "+55 (55) 39611120",
        "name": "Escola Marcelo de Freitas Faraco",
        "official_name": "Escola Municipal de Educação Básica Marcelo de Freitas Faraco",
        "operator": "Prefeitura Municipal de Alegrete",
        "ref:INEP": "43012590",
        "short_name": "EMEB Marcelo de Freitas Faraco",
        "id": "way/1230005342"
      },
      "geometry": {
        "type": "Polygon",
        "coordinates": [
          [
            [
              -55.767822,
              -29.8028158
            ],
            [
              -55.7676437,
              -29.8029066
            ],
            [
              -55.7672266,
              -29.8022898
            ],
            [
              -55.7674049,
              -29.802199
            ],
            [
              -55.767822,
              -29.8028158
            ]
          ]
        ]
      }
    },
    {
      "type": "Feature",
      "id": "way/1230005542",
      "properties": {
        "timestamp": "2024-01-24T13:39:31Z",
        "version": 4,
        "changeset": 146629567,
        "addr:city": "Alegrete",
        "addr:country": "BR",
        "addr:housenumber": "624",
        "addr:postcode": "97541-480",
        "addr:state": "RS",
        "addr:street": "Rua Simplicio Jacques",
        "addr:suburb": "Vila Nova",
        "amenity": "school",
        "contact:phone": "+55 (55) 34220370",
        "name": "Escola Francisco Carlos",
        "official_name": "Escola Municipal de Educação Básica Francisco Carlos",
        "operator": "Prefeitura Municipal de Alegrete",
        "ref:INEP": "43011888",
        "short_name": "EMEB Francisco Carlos",
        "id": "way/1230005542"
      },
      "geometry": {
        "type": "Polygon",
        "coordinates": [
          [
            [
              -55.788521,
              -29.7759848
            ],
            [
              -55.7883678,
              -29.7755083
            ],
            [
              -55.7887227,
              -29.7754224
            ],
            [
              -55.7888758,
              -29.7758989
            ],
            [
              -55.788521,
              -29.7759848
            ]
          ]
        ]
      }
    },
    {
      "type": "Feature",
      "id": "way/1230005985",
      "properties": {
        "timestamp": "2023-12-09T23:34:46Z",
        "version": 1,
        "changeset": 144951040,
        "amenity": "school",
        "name": "EMEB Constantino de Souza Nunes",
        "id": "way/1230005985"
      },
      "geometry": {
        "type": "Polygon",
        "coordinates": [
          [
            [
              -55.9412799,
              -29.7226872
            ],
            [
              -55.9429952,
              -29.7236279
            ],
            [
              -55.9424692,
              -29.7243512
            ],
            [
              -55.9407539,
              -29.7234104
            ],
            [
              -55.9412799,
              -29.7226872
            ]
          ]
        ]
      }
    },
    {
      "type": "Feature",
      "id": "way/1230006270",
      "properties": {
        "timestamp": "2024-01-22T03:52:55Z",
        "version": 3,
        "changeset": 146534330,
        "addr:city": "Alegrete",
        "addr:country": "BR",
        "addr:hamlet": "Conceição",
        "addr:state": "RS",
        "amenity": "school",
        "contact:mobile": "+55 (55) 999779364",
        "name": "Escola Murillo Nunes de Oliveira",
        "official_name": "Escola Municipal de Educação Básica Murillo Nunes de Oliveira",
        "operator": "Prefeitura Municipal de Alegrete",
        "postal_code": "97541-970",
        "ref:INEP": "43011926",
        "short_name": "EMEB Murillo Nunes de Oliveira",
        "id": "way/1230006270"
      },
      "geometry": {
        "type": "Polygon",
        "coordinates": [
          [
            [
              -56.1756083,
              -29.6888594
            ],
            [
              -56.1763041,
              -29.6892487
            ],
            [
              -56.1758403,
              -29.6898744
            ],
            [
              -56.1751444,
              -29.6894852
            ],
            [
              -56.1756083,
              -29.6888594
            ]
          ]
        ]
      }
    },
    {
      "type": "Feature",
      "id": "way/1230032081",
      "properties": {
        "timestamp": "2024-01-24T13:38:43Z",
        "version": 4,
        "changeset": 146629567,
        "addr:city": "Alegrete",
        "addr:country": "BR",
        "addr:housenumber": "240",
        "addr:postcode": "97545-782",
        "addr:state": "RS",
        "addr:street": "Rua Pastor Manoel Pereira Dorneles",
        "addr:suburb": "José de Abreu",
        "amenity": "school",
        "contact:phone": "+55 (55) 39611723",
        "name": "Escola Alcy Vargas Cheuiche",
        "official_name": "Escola Municipal de Educação Básica Alcy Vargas Cheuiche",
        "operator": "Prefeitura Municipal de Alegrete",
        "ref:INEP": "43208231",
        "short_name": "EMEB Alcy Vargas Cheuiche",
        "id": "way/1230032081"
      },
      "geometry": {
        "type": "Polygon",
        "coordinates": [
          [
            [
              -55.8162965,
              -29.8174975
            ],
            [
              -55.8168434,
              -29.8172136
            ],
            [
              -55.8171719,
              -29.8176802
            ],
            [
              -55.8165832,
              -29.8179734
            ],
            [
              -55.8162965,
              -29.8174975
            ]
          ]
        ]
      }
    },
    {
      "type": "Feature",
      "id": "way/1230032919",
      "properties": {
        "timestamp": "2024-01-24T13:38:43Z",
        "version": 3,
        "changeset": 146629567,
        "addr:city": "Alegrete",
        "addr:country": "BR",
        "addr:housenumber": "306",
        "addr:postcode": "97543-390",
        "addr:state": "RS",
        "addr:street": "Avenida Major João Cezimbra Jacques",
        "addr:suburb": "Cidade Alta",
        "amenity": "school",
        "name": "Escola Tancredo de Almeida Neves",
        "official_name": "Escola Estadual de Ensino Médio Tancredo de Almeida Neves",
        "operator": "Secretaria da Educação do Rio Grande do Sul",
        "operator:wikidata": "Q118145819",
        "ref:INEP": "43169589",
        "short_name": "EEEM Tancredo de Almeida Neves",
        "id": "way/1230032919"
      },
      "geometry": {
        "type": "Polygon",
        "coordinates": [
          [
            [
              -55.7951433,
              -29.8029305
            ],
            [
              -55.7959677,
              -29.8012843
            ],
            [
              -55.7965232,
              -29.8014064
            ],
            [
              -55.7961586,
              -29.8020865
            ],
            [
              -55.795639,
              -29.8030555
            ],
            [
              -55.7951433,
              -29.8029305
            ]
          ]
        ]
      }
    },
    {
      "type": "Feature",
      "id": "way/1230688728",
      "properties": {
        "timestamp": "2024-01-22T03:52:55Z",
        "version": 3,
        "changeset": 146534330,
        "addr:city": "Alegrete",
        "addr:country": "BR",
        "addr:hamlet": "Angico",
        "addr:state": "RS",
        "amenity": "school",
        "contact:mobile": "+55 (55) 999081931",
        "name": "Escola João Cadore",
        "official_name": "Escola Municipal de Educação Básica João Cadore",
        "operator": "Prefeitura Municipal de Alegrete",
        "postal_code": "97541-970",
        "ref:INEP": "43012434",
        "short_name": "EMEB João Cadore",
        "id": "way/1230688728"
      },
      "geometry": {
        "type": "Polygon",
        "coordinates": [
          [
            [
              -56.1329913,
              -29.4726821
            ],
            [
              -56.1341808,
              -29.4729237
            ],
            [
              -56.133996,
              -29.473613
            ],
            [
              -56.1328065,
              -29.4733714
            ],
            [
              -56.1329913,
              -29.4726821
            ]
          ]
        ]
      }
    },
    {
      "type": "Feature",
      "id": "way/1241830161",
      "properties": {
        "timestamp": "2024-01-24T13:38:43Z",
        "version": 3,
        "changeset": 146629567,
        "addr:city": "Alegrete",
        "addr:country": "BR",
        "addr:housenumber": "1280",
        "addr:postcode": "97542-081",
        "addr:state": "RS",
        "addr:street": "Rua Barão do Cerro Largo",
        "addr:suburb": "Centro",
        "amenity": "school",
        "contact:phone": "+55 (55) 34220370",
        "name": "Escola Eurípedes Brasil Milano",
        "official_name": "Escola Municipal de Educação Básica Eurípedes Brasil Milano",
        "operator": "Prefeitura Municipal de Alegrete",
        "ref:INEP": "43011861",
        "short_name": "EMEB Eurípedes Brasil Milano",
        "id": "way/1241830161"
      },
      "geometry": {
        "type": "Polygon",
        "coordinates": [
          [
            [
              -55.7979396,
              -29.7840559
            ],
            [
              -55.7981633,
              -29.7840138
            ],
            [
              -55.7982892,
              -29.7844202
            ],
            [
              -55.797961,
              -29.784488
            ],
            [
              -55.7979514,
              -29.784463
            ],
            [
              -55.7977989,
              -29.7840985
            ],
            [
              -55.7979396,
              -29.7840559
            ]
          ]
        ]
      }
    },
    {
      "type": "Feature",
      "id": "way/1241830165",
      "properties": {
        "timestamp": "2024-01-22T03:52:55Z",
        "version": 2,
        "changeset": 146534330,
        "addr:city": "Alegrete",
        "addr:country": "BR",
        "addr:state": "RS",
        "addr:suburb": "Rincão de São Miguel",
        "amenity": "school",
        "contact:mobile": "+55 (55) 996095433",
        "name": "Escola Alfredo Soares Leaes",
        "official_name": "Escola Municipal de Educação Básica Alfredo Soares Leaes",
        "operator": "Prefeitura Municipal de Alegrete",
        "postal_code": "97541-970",
        "ref:INEP": "43012116",
        "short_name": "EMEB Alfredo Soares Leaes",
        "id": "way/1241830165"
      },
      "geometry": {
        "type": "Polygon",
        "coordinates": [
          [
            [
              -55.7727143,
              -29.5793204
            ],
            [
              -55.7727473,
              -29.5785195
            ],
            [
              -55.7737484,
              -29.5785936
            ],
            [
              -55.7737336,
              -29.5787453
            ],
            [
              -55.7736102,
              -29.580005
            ],
            [
              -55.772253,
              -29.5801403
            ],
            [
              -55.7721189,
              -29.5795478
            ],
            [
              -55.7727143,
              -29.5793204
            ]
          ]
        ]
      }
    },
    {
      "type": "Feature",
      "id": "way/1241830173",
      "properties": {
        "timestamp": "2024-01-22T03:52:55Z",
        "version": 2,
        "changeset": 146534330,
        "addr:city": "Alegrete",
        "addr:country": "BR",
        "addr:state": "RS",
        "addr:suburb": "Durasnal",
        "amenity": "school",
        "contact:mobile": "+55 (55) 999543385",
        "name": "Escola João André Figueira",
        "official_name": "Escola Municipal de Educação Básica João André Figueira",
        "operator": "Prefeitura Municipal de Alegrete",
        "postal_code": "97541-970",
        "ref:INEP": "43012175",
        "short_name": "EMEB João André Figueira",
        "id": "way/1241830173"
      },
      "geometry": {
        "type": "Polygon",
        "coordinates": [
          [
            [
              -55.5225956,
              -29.9284407
            ],
            [
              -55.5223918,
              -29.927748
            ],
            [
              -55.5230524,
              -29.9272556
            ],
            [
              -55.523132,
              -29.9272314
            ],
            [
              -55.5232716,
              -29.92739
            ],
            [
              -55.5235061,
              -29.927235
            ],
            [
              -55.5238661,
              -29.9276442
            ],
            [
              -55.524272,
              -29.927848
            ],
            [
              -55.5241782,
              -29.9284547
            ],
            [
              -55.5241299,
              -29.9285221
            ],
            [
              -55.523757,
              -29.9284314
            ],
            [
              -55.5233825,
              -29.9285143
            ],
            [
              -55.5231531,
              -29.9285651
            ],
            [
              -55.5225956,
              -29.9284407
            ]
          ]
        ]
      }
    },
    {
      "type": "Feature",
      "id": "way/1241830212",
      "properties": {
        "timestamp": "2024-01-22T03:52:55Z",
        "version": 2,
        "changeset": 146534330,
        "addr:city": "Alegrete",
        "addr:country": "BR",
        "addr:hamlet": "Rincão do 28",
        "addr:state": "RS",
        "amenity": "school",
        "contact:mobile": "+55 (55) 997075706",
        "name": "Escola Silvestre Gonçalves",
        "official_name": "Escola Municipal de Educação Básica Silvestre Gonçalves",
        "operator": "Prefeitura Municipal de Alegrete",
        "postal_code": "97541-970",
        "ref:INEP": "43011896",
        "short_name": "EMEB Silvestre Gonçalves",
        "id": "way/1241830212"
      },
      "geometry": {
        "type": "Polygon",
        "coordinates": [
          [
            [
              -55.734918,
              -30.135561
            ],
            [
              -55.7342783,
              -30.1358037
            ],
            [
              -55.7338867,
              -30.1359347
            ],
            [
              -55.7333835,
              -30.1355293
            ],
            [
              -55.7331598,
              -30.1350046
            ],
            [
              -55.7340181,
              -30.1347308
            ],
            [
              -55.7343882,
              -30.1351785
            ],
            [
              -55.7345465,
              -30.1351182
            ],
            [
              -55.734918,
              -30.135561
            ]
          ]
        ]
      }
    },
    {
      "type": "Feature",
      "id": "way/1241830214",
      "properties": {
        "timestamp": "2024-01-22T03:52:55Z",
        "version": 2,
        "changeset": 146534330,
        "addr:city": "Alegrete",
        "addr:country": "BR",
        "addr:hamlet": "Jacaquá",
        "addr:state": "RS",
        "amenity": "school",
        "contact:mobile": "+55 (55) 999643329",
        "name": "Escola Costa Leite",
        "official_name": "Escola Municipal de Educação Básica Costa Leite",
        "operator": "Prefeitura Municipal de Alegrete",
        "postal_code": "97541-970",
        "ref:INEP": "43011802",
        "short_name": "EMEB Costa Leite",
        "id": "way/1241830214"
      },
      "geometry": {
        "type": "Polygon",
        "coordinates": [
          [
            [
              -55.3328481,
              -29.8026808
            ],
            [
              -55.3332639,
              -29.8028507
            ],
            [
              -55.3331754,
              -29.8032092
            ],
            [
              -55.3327355,
              -29.8030509
            ],
            [
              -55.3328481,
              -29.8026808
            ]
          ]
        ]
      }
    },
    {
      "type": "Feature",
      "id": "way/1241837105",
      "properties": {
        "timestamp": "2024-01-24T13:38:43Z",
        "version": 2,
        "changeset": 146629567,
        "addr:city": "Alegrete",
        "addr:country": "BR",
        "addr:housenumber": "444",
        "addr:postcode": "97545-000",
        "addr:state": "RS",
        "addr:street": "Rua Maurício Cardoso",
        "addr:suburb": "Cidade Alta",
        "amenity": "school",
        "contact:phone": "+55 (55) 34221365",
        "name": "Escola Eduardo Vargas",
        "official_name": "Escola Estadual de Ensino Fundamental Eduardo Vargas",
        "operator": "Secretaria da Educação do Rio Grande do Sul",
        "operator:wikidata": "Q118145819",
        "ref:INEP": "43012230",
        "short_name": "EEEF Eduardo Vargas",
        "id": "way/1241837105"
      },
      "geometry": {
        "type": "Polygon",
        "coordinates": [
          [
            [
              -55.7989916,
              -29.7927027
            ],
            [
              -55.7990891,
              -29.7929962
            ],
            [
              -55.7984175,
              -29.7931642
            ],
            [
              -55.79832,
              -29.7928708
            ],
            [
              -55.7989916,
              -29.7927027
            ]
          ]
        ]
      }
    },
    {
      "type": "Feature",
      "id": "way/1242140165",
      "properties": {
        "timestamp": "2024-01-24T13:45:47Z",
        "version": 2,
        "changeset": 146629567,
        "addr:city": "Alegrete",
        "addr:country": "BR",
        "addr:district": "Passo Novo",
        "addr:housenumber": "281",
        "addr:postcode": "97555-000",
        "addr:state": "RS",
        "addr:street": "Rua Bento Gonçalves",
        "amenity": "school",
        "contact:phone": "+55 (55) 34250210",
        "name": "Escola Barros Cassal",
        "official_name": "Escola Estadual de Ensino Fundamental Barros Cassal",
        "operator": "Secretaria da Educação do Rio Grande do Sul",
        "operator:wikidata": "Q118145819",
        "ref:INEP": "43012213",
        "short_name": "EEEF Barros Cassal",
        "id": "way/1242140165"
      },
      "geometry": {
        "type": "Polygon",
        "coordinates": [
          [
            [
              -55.5432647,
              -29.679107
            ],
            [
              -55.543659,
              -29.6792515
            ],
            [
              -55.5431655,
              -29.6801486
            ],
            [
              -55.5428034,
              -29.6799552
            ],
            [
              -55.5432647,
              -29.679107
            ]
          ]
        ]
      }
    },
    {
      "type": "Feature",
      "id": "way/1242140171",
      "properties": {
        "timestamp": "2024-01-23T07:44:16Z",
        "version": 1,
        "changeset": 146579762,
        "addr:city": "Alegrete",
        "addr:country": "BR",
        "addr:state": "Rio Grande do Sul",
        "addr:suburb": "Rincão de São Miguel",
        "amenity": "school",
        "contact:mobile": "+55 (55) 996095433",
        "name": "Escola Alfredo Soares Leaes",
        "official_name": "Escola Municipal de Educação Básica Alfredo Soares Leaes",
        "operator": "Prefeitura Municipal de Alegrete",
        "postal_code": "97541-970",
        "ref:INEP": "43012116",
        "short_name": "EMEB Alfredo Soares Leaes",
        "id": "way/1242140171"
      },
      "geometry": {
        "type": "Polygon",
        "coordinates": [
          [
            [
              -55.7727143,
              -29.5793204
            ],
            [
              -55.7727473,
              -29.5785195
            ],
            [
              -55.7737484,
              -29.5785936
            ],
            [
              -55.7737336,
              -29.5787453
            ],
            [
              -55.7736102,
              -29.580005
            ],
            [
              -55.772253,
              -29.5801403
            ],
            [
              -55.7721189,
              -29.5795478
            ],
            [
              -55.7727143,
              -29.5793204
            ]
          ]
        ]
      }
    },
    {
      "type": "Feature",
      "id": "way/1242140177",
      "properties": {
        "timestamp": "2024-01-23T07:44:16Z",
        "version": 1,
        "changeset": 146579762,
        "addr:city": "Alegrete",
        "addr:country": "BR",
        "addr:state": "Rio Grande do Sul",
        "addr:suburb": "Durasnal",
        "amenity": "school",
        "contact:mobile": "+55 (55) 999543385",
        "name": "Escola João André Figueira",
        "official_name": "Escola Municipal de Educação Básica João André Figueira",
        "operator": "Prefeitura Municipal de Alegrete",
        "postal_code": "97541-970",
        "ref:INEP": "43012175",
        "short_name": "EMEB João André Figueira",
        "id": "way/1242140177"
      },
      "geometry": {
        "type": "Polygon",
        "coordinates": [
          [
            [
              -55.5225956,
              -29.9284407
            ],
            [
              -55.5223918,
              -29.927748
            ],
            [
              -55.5230524,
              -29.9272556
            ],
            [
              -55.523132,
              -29.9272314
            ],
            [
              -55.5232716,
              -29.92739
            ],
            [
              -55.5235061,
              -29.927235
            ],
            [
              -55.5238661,
              -29.9276442
            ],
            [
              -55.524272,
              -29.927848
            ],
            [
              -55.5241782,
              -29.9284547
            ],
            [
              -55.5241299,
              -29.9285221
            ],
            [
              -55.523757,
              -29.9284314
            ],
            [
              -55.5233825,
              -29.9285143
            ],
            [
              -55.5231531,
              -29.9285651
            ],
            [
              -55.5225956,
              -29.9284407
            ]
          ]
        ]
      }
    },
    {
      "type": "Feature",
      "id": "way/1242140208",
      "properties": {
        "timestamp": "2024-01-23T07:44:16Z",
        "version": 1,
        "changeset": 146579762,
        "addr:city": "Alegrete",
        "addr:country": "BR",
        "addr:hamlet": "Rincão do 28",
        "addr:state": "Rio Grande do Sul",
        "amenity": "school",
        "contact:mobile": "+55 (55) 997075706",
        "name": "Escola Silvestre Gonçalves",
        "official_name": "Escola Municipal de Educação Básica Silvestre Gonçalves",
        "operator": "Prefeitura Municipal de Alegrete",
        "postal_code": "97541-970",
        "ref:INEP": "43011896",
        "short_name": "EMEB Silvestre Gonçalves",
        "id": "way/1242140208"
      },
      "geometry": {
        "type": "Polygon",
        "coordinates": [
          [
            [
              -55.734918,
              -30.135561
            ],
            [
              -55.7342783,
              -30.1358037
            ],
            [
              -55.7338867,
              -30.1359347
            ],
            [
              -55.7333835,
              -30.1355293
            ],
            [
              -55.7331598,
              -30.1350046
            ],
            [
              -55.7340181,
              -30.1347308
            ],
            [
              -55.7343882,
              -30.1351785
            ],
            [
              -55.7345465,
              -30.1351182
            ],
            [
              -55.734918,
              -30.135561
            ]
          ]
        ]
      }
    },
    {
      "type": "Feature",
      "id": "way/1242140210",
      "properties": {
        "timestamp": "2024-01-23T07:44:16Z",
        "version": 1,
        "changeset": 146579762,
        "addr:city": "Alegrete",
        "addr:country": "BR",
        "addr:hamlet": "Jacaquá",
        "addr:state": "Rio Grande do Sul",
        "amenity": "school",
        "contact:mobile": "+55 (55) 999643329",
        "name": "Escola Costa Leite",
        "official_name": "Escola Municipal de Educação Básica Costa Leite",
        "operator": "Prefeitura Municipal de Alegrete",
        "postal_code": "97541-970",
        "ref:INEP": "43011802",
        "short_name": "EMEB Costa Leite",
        "id": "way/1242140210"
      },
      "geometry": {
        "type": "Polygon",
        "coordinates": [
          [
            [
              -55.3328481,
              -29.8026808
            ],
            [
              -55.3332639,
              -29.8028507
            ],
            [
              -55.3331754,
              -29.8032092
            ],
            [
              -55.3327355,
              -29.8030509
            ],
            [
              -55.3328481,
              -29.8026808
            ]
          ]
        ]
      }
    },
    {
      "type": "Feature",
      "id": "node/11394472481",
      "properties": {
        "timestamp": "2023-12-04T16:49:48Z",
        "version": 1,
        "changeset": 144762597,
        "barrier": "gate",
        "id": "node/11394472481"
      },
      "geometry": {
        "type": "Point",
        "coordinates": [
          -55.7775493,
          -29.7857033
        ]
      }
    },
    {
      "type": "Feature",
      "id": "node/11542355705",
      "properties": {
        "timestamp": "2024-01-24T13:44:29Z",
        "version": 2,
        "changeset": 146629567,
        "addr:city": "Alegrete",
        "addr:country": "BR",
        "addr:housenumber": "650",
        "addr:postcode": "97547-020",
        "addr:state": "RS",
        "addr:street": "Rua Alcides Santana Magalhães",
        "addr:suburb": "Favila",
        "amenity": "school",
        "contact:phone": "+55 (55) 39611687",
        "name": "Escola Waldemar Borges",
        "official_name": "Escola Municipal de Educação Básica Waldemar Borges",
        "operator": "Prefeitura Municipal de Alegrete",
        "ref:INEP": "43205810",
        "short_name": "EMEB Waldemar Borges",
        "id": "node/11542355705"
      },
      "geometry": {
        "type": "Point",
        "coordinates": [
          -55.7501999,
          -29.8062767
        ]
      }
    },
    {
      "type": "Feature",
      "id": "node/11542355706",
      "properties": {
        "timestamp": "2024-01-24T13:44:29Z",
        "version": 2,
        "changeset": 146629567,
        "addr:city": "Alegrete",
        "addr:country": "BR",
        "addr:housenumber": "650",
        "addr:postcode": "97547-020",
        "addr:state": "RS",
        "addr:street": "Rua Alcides Santana Magalhães",
        "addr:suburb": "Favila",
        "amenity": "school",
        "contact:phone": "+55 (55) 39611687",
        "name": "Escola Waldemar Borges",
        "official_name": "Escola Estadual de Ensino Médio Waldemar Borges",
        "operator": "Secretaria da Educação do Rio Grande do Sul",
        "operator:wikidata": "Q118145819",
        "ref:INEP": "43247610",
        "short_name": "EEEM Waldemar Borges",
        "id": "node/11542355706"
      },
      "geometry": {
        "type": "Point",
        "coordinates": [
          -55.7503353,
          -29.8065571
        ]
      }
    },
    {
      "type": "Feature",
      "id": "node/11542355707",
      "properties": {
        "timestamp": "2024-01-24T13:44:29Z",
        "version": 2,
        "changeset": 146629567,
        "addr:city": "Alegrete",
        "addr:country": "BR",
        "addr:housenumber": "47",
        "addr:postcode": "97542-570",
        "addr:state": "RS",
        "addr:street": "Praça Getúlio Vargas",
        "addr:suburb": "Centro",
        "amenity": "school",
        "contact:phone": "+55 (55) 34223318",
        "name": "Colégio Professor Raymundo Carvalho",
        "official_name": "Colégio da Urcamp Professor Raymundo Luiz Marinho Carvalho",
        "operator": "Urcamp",
        "ref:INEP": "43012515",
        "id": "node/11542355707"
      },
      "geometry": {
        "type": "Point",
        "coordinates": [
          -55.7917178,
          -29.7838813
        ]
      }
    }
  ]
}
