{
  "type": "FeatureCollection",
  "features": [
    {
      "type": "Feature",
      "id": "way/556735481",
      "properties": {
        "timestamp": "2018-01-29T11:57:55Z",
        "version": 1,
        "changeset": 55857135,
        "addr:city": "São Lourenço do Sul",
        "addr:housenumber": "400",
        "addr:postcode": "96170-000",
        "addr:street": "Avenida Getúlio Vargas",
        "addr:suburb": "Balneário",
        "building": "yes",
        "name": "Hotel das Figueiras",
        "phone": "+55 53 3251-4708",
        "tourism": "hotel",
        "website": "http://www.hoteldasfigueiras.com/",
        "id": "way/556735481"
      },
      "geometry": {
        "type": "Polygon",
        "coordinates": [
          [
            [
              -51.958122,
              -31.3757873
            ],
            [
              -51.9582074,
              -31.3758211
            ],
            [
              -51.9579529,
              -31.3762901
            ],
            [
              -51.9577842,
              -31.3762233
            ],
            [
              -51.95743,
              -31.3760832
            ],
            [
              -51.957505,
              -31.375945
            ],
            [
              -51.9577134,
              -31.3760275
            ],
            [
              -51.9577955,
              -31.3758762
            ],
            [
              -51.9579405,
              -31.3759336
            ],
            [
              -51.9578582,
              -31.3760854
            ],
            [
              -51.9579422,
              -31.3761186
            ],
            [
              -51.958122,
              -31.3757873
            ]
          ]
        ]
      }
    },
    {
      "type": "Feature",
      "id": "way/556738041",
      "properties": {
        "timestamp": "2023-10-16T05:31:35Z",
        "version": 2,
        "changeset": 142645230,
        "building": "yes",
        "name": "Pousada da Figueira",
        "phone": "+55 53 3251-4013",
        "tourism": "hotel",
        "website": "https://www.pousadafigueira.com.br/",
        "id": "way/556738041"
      },
      "geometry": {
        "type": "Polygon",
        "coordinates": [
          [
            [
              -51.9609925,
              -31.354902
            ],
            [
              -51.9614102,
              -31.3547886
            ],
            [
              -51.9614739,
              -31.3549231
            ],
            [
              -51.9616278,
              -31.3548823
            ],
            [
              -51.9617482,
              -31.3551347
            ],
            [
              -51.9611483,
              -31.3552904
            ],
            [
              -51.9609925,
              -31.354902
            ]
          ]
        ]
      }
    },
    {
      "type": "Feature",
      "id": "node/1354986324",
      "properties": {
        "timestamp": "2011-07-09T15:12:02Z",
        "version": 1,
        "changeset": 8675426,
        "name": "Coqueiro",
        "tourism": "hotel",
        "id": "node/1354986324"
      },
      "geometry": {
        "type": "Point",
        "coordinates": [
          -51.9998937,
          -31.2361789
        ]
      }
    },
    {
      "type": "Feature",
      "id": "node/1354986325",
      "properties": {
        "timestamp": "2017-01-07T13:53:01Z",
        "version": 2,
        "changeset": 44979194,
        "name": "Hotel Coqueiro",
        "tourism": "hotel",
        "id": "node/1354986325"
      },
      "geometry": {
        "type": "Point",
        "coordinates": [
          -51.9996899,
          -31.2364946
        ]
      }
    },
    {
      "type": "Feature",
      "id": "node/2999994958",
      "properties": {
        "timestamp": "2016-09-27T01:51:54Z",
        "version": 3,
        "changeset": 42459470,
        "addr:city": "São Lourenço do Sul",
        "addr:housenumber": "428",
        "addr:postcode": "96170-000",
        "addr:street": "Rua Almirante Abreu",
        "addr:suburb": "Centro",
        "building:levels": "2",
        "name": "HOTEL VILELA",
        "phone": "+55 53 3251-3475",
        "tourism": "hotel",
        "website": "http://www.hotelvilela.com.br/",
        "id": "node/2999994958"
      },
      "geometry": {
        "type": "Point",
        "coordinates": [
          -51.9786437,
          -31.364936
        ]
      }
    },
    {
      "type": "Feature",
      "id": "node/3000317378",
      "properties": {
        "timestamp": "2016-09-27T01:52:02Z",
        "version": 2,
        "changeset": 42459470,
        "addr:city": "São Lourenço do Sul",
        "addr:housenumber": "155",
        "addr:postcode": "96170-000",
        "addr:street": "Rua Senador Pinheiro Machado",
        "addr:suburb": "Centro",
        "name": "Plaza Center Hotel",
        "phone": "+55 53 3251-3461",
        "tourism": "hotel",
        "website": "http://www.plazacenterhotel.com/",
        "id": "node/3000317378"
      },
      "geometry": {
        "type": "Point",
        "coordinates": [
          -51.9783002,
          -31.3670858
        ]
      }
    },
    {
      "type": "Feature",
      "id": "node/3000411185",
      "properties": {
        "timestamp": "2016-09-27T01:51:54Z",
        "version": 2,
        "changeset": 42459470,
        "addr:city": "São Lourenço do Sul",
        "addr:housenumber": "1050",
        "addr:postcode": "96170-000",
        "addr:street": "Avenida Getúlio Vargas",
        "addr:suburb": "Balneário",
        "name": "Hotel Cabanas Recanto da Lagoa",
        "phone": "+55 53 3251-1730",
        "tourism": "hotel",
        "website": "http://www.cabanasrecantodalagoa.com.br/",
        "id": "node/3000411185"
      },
      "geometry": {
        "type": "Point",
        "coordinates": [
          -51.9568461,
          -31.3738045
        ]
      }
    },
    {
      "type": "Feature",
      "id": "node/3000625666",
      "properties": {
        "timestamp": "2016-09-27T01:52:03Z",
        "version": 2,
        "changeset": 42459470,
        "addr:city": "São Lourenço do Sul",
        "addr:housenumber": "1680",
        "addr:postcode": "96170-000",
        "addr:street": "Rua Borges de Medeiros",
        "addr:suburb": "Barrinha",
        "name": "Pousada Sol Nascente",
        "phone": "+55 53 3251-2217",
        "tourism": "hotel",
        "website": "http://www.pousadasolnascentesls.com/",
        "id": "node/3000625666"
      },
      "geometry": {
        "type": "Point",
        "coordinates": [
          -51.9631719,
          -31.3616501
        ]
      }
    },
    {
      "type": "Feature",
      "id": "node/3000662858",
      "properties": {
        "timestamp": "2016-09-27T01:52:03Z",
        "version": 2,
        "changeset": 42459470,
        "addr:city": "São Lourenço do Sul",
        "addr:housenumber": "2005",
        "addr:postcode": "96170-000",
        "addr:street": "Alameda Mano Serpa",
        "addr:suburb": "Margem Direita do Arroio",
        "name": "Pousada Cabanas do Sul",
        "phone": "+55 53 3251-1390",
        "tourism": "hotel",
        "website": "http://www.pousadacabanasdosul.com.br/",
        "id": "node/3000662858"
      },
      "geometry": {
        "type": "Point",
        "coordinates": [
          -51.9683528,
          -31.3754216
        ]
      }
    },
    {
      "type": "Feature",
      "id": "node/3000684822",
      "properties": {
        "timestamp": "2016-09-27T01:52:03Z",
        "version": 3,
        "changeset": 42459470,
        "addr:city": "São Lourenço do Sul",
        "addr:housenumber": "40",
        "addr:postcode": "96170-000",
        "addr:street": "Alameda Mano Serpa",
        "name": "Pousada Velho Estaleiro",
        "phone": "+55 53 3251-1939",
        "tourism": "hotel",
        "website": "http://www.velhoestaleiro.com/",
        "id": "node/3000684822"
      },
      "geometry": {
        "type": "Point",
        "coordinates": [
          -51.9788779,
          -31.3705677
        ]
      }
    },
    {
      "type": "Feature",
      "id": "node/5370166672",
      "properties": {
        "timestamp": "2018-01-29T11:57:54Z",
        "version": 1,
        "changeset": 55857135,
        "entrance": "yes",
        "id": "node/5370166672"
      },
      "geometry": {
        "type": "Point",
        "coordinates": [
          -51.9577842,
          -31.3762233
        ]
      }
    }
  ]
}
