{
  "type": "FeatureCollection",
  "features": [
    {
      "type": "Feature",
      "id": "way/533817214",
      "properties": {
        "timestamp": "2018-10-30T01:47:37Z",
        "version": 2,
        "changeset": 63996331,
        "addr:city": "Recife",
        "addr:postcode": "50930-010",
        "addr:street": "Avenida Falcão de Lacerda",
        "addr:suburb": "Tejipio",
        "amenity": "dentist",
        "building": "yes",
        "healthcare": "dentist",
        "healthcare:speciality": "general",
        "name": "Odontologic Consultórios",
        "id": "way/533817214"
      },
      "geometry": {
        "type": "Polygon",
        "coordinates": [
          [
            [
              -34.960925,
              -8.0917935
            ],
            [
              -34.9608254,
              -8.091772
            ],
            [
              -34.9608574,
              -8.0916266
            ],
            [
              -34.960957,
              -8.091648
            ],
            [
              -34.960925,
              -8.0917935
            ]
          ]
        ]
      }
    },
    {
      "type": "Feature",
      "id": "way/941120079",
      "properties": {
        "timestamp": "2021-05-09T21:46:43Z",
        "version": 1,
        "changeset": 104412380,
        "amenity": "dentist",
        "building": "yes",
        "healthcare": "dentist",
        "id": "way/941120079"
      },
      "geometry": {
        "type": "Polygon",
        "coordinates": [
          [
            [
              -34.9209659,
              -8.0206375
            ],
            [
              -34.9210313,
              -8.020636
            ],
            [
              -34.9210809,
              -8.0207588
            ],
            [
              -34.9209813,
              -8.0207672
            ],
            [
              -34.9209659,
              -8.0206375
            ]
          ]
        ]
      }
    },
    {
      "type": "Feature",
      "id": "way/941120104",
      "properties": {
        "timestamp": "2021-05-09T21:46:43Z",
        "version": 1,
        "changeset": 104412380,
        "amenity": "dentist",
        "building": "yes",
        "healthcare": "dentist",
        "id": "way/941120104"
      },
      "geometry": {
        "type": "Polygon",
        "coordinates": [
          [
            [
              -34.9187374,
              -8.0228134
            ],
            [
              -34.9187786,
              -8.022865
            ],
            [
              -34.9187202,
              -8.0229107
            ],
            [
              -34.9186482,
              -8.0228206
            ],
            [
              -34.9187066,
              -8.0227748
            ],
            [
              -34.9187374,
              -8.0228134
            ]
          ]
        ]
      }
    },
    {
      "type": "Feature",
      "id": "way/1007888133",
      "properties": {
        "timestamp": "2021-12-01T02:04:12Z",
        "version": 1,
        "changeset": 114424125,
        "amenity": "dentist",
        "building": "yes",
        "healthcare": "dentist",
        "name": "Sorria Pernambuco",
        "id": "way/1007888133"
      },
      "geometry": {
        "type": "Polygon",
        "coordinates": [
          [
            [
              -34.8860739,
              -8.0598829
            ],
            [
              -34.8861585,
              -8.0600556
            ],
            [
              -34.8860683,
              -8.060099
            ],
            [
              -34.8859914,
              -8.0599422
            ],
            [
              -34.8860073,
              -8.059915
            ],
            [
              -34.8860739,
              -8.0598829
            ]
          ]
        ]
      }
    },
    {
      "type": "Feature",
      "id": "way/1009016712",
      "properties": {
        "timestamp": "2023-08-19T07:49:33Z",
        "version": 5,
        "changeset": 140083778,
        "air_conditioning": "yes",
        "amenity": "dentist",
        "healthcare": "dentist",
        "indoor": "room",
        "level": "-1",
        "name": "Plus Sorriso",
        "payment:cash": "yes",
        "payment:credit_cards": "yes",
        "payment:debit_cards": "yes",
        "payment:nfc": "yes",
        "room": "shop",
        "shop": "yes",
        "smoking": "no",
        "wheelchair": "yes",
        "id": "way/1009016712"
      },
      "geometry": {
        "type": "Polygon",
        "coordinates": [
          [
            [
              -34.9036199,
              -8.1188513
            ],
            [
              -34.9036296,
              -8.11896
            ],
            [
              -34.9035467,
              -8.1189676
            ],
            [
              -34.90354,
              -8.1188902
            ],
            [
              -34.9035373,
              -8.1188587
            ],
            [
              -34.9036199,
              -8.1188513
            ]
          ]
        ]
      }
    },
    {
      "type": "Feature",
      "id": "node/4675828744",
      "properties": {
        "timestamp": "2022-01-22T14:50:35Z",
        "version": 2,
        "changeset": 116468602,
        "addr:city": "Recife",
        "addr:housenumber": "248",
        "addr:postcode": "50770-110",
        "addr:street": "Rua Motocolombó",
        "addr:suburb": "Afogados",
        "amenity": "dentist",
        "healthcare": "dentist",
        "name": "Claudia Cirurgiã Dentista",
        "id": "node/4675828744"
      },
      "geometry": {
        "type": "Point",
        "coordinates": [
          -34.9066147,
          -8.0822336
        ]
      }
    },
    {
      "type": "Feature",
      "id": "node/5639740039",
      "properties": {
        "timestamp": "2018-05-24T12:34:45Z",
        "version": 1,
        "changeset": 59240478,
        "amenity": "dentist",
        "healthcare": "dentist",
        "id": "node/5639740039"
      },
      "geometry": {
        "type": "Point",
        "coordinates": [
          -34.9583009,
          -8.042222
        ]
      }
    },
    {
      "type": "Feature",
      "id": "node/8517393932",
      "properties": {
        "timestamp": "2021-03-14T13:10:15Z",
        "version": 1,
        "changeset": 100988650,
        "addr:city": "Recife",
        "addr:housenumber": "155",
        "addr:postcode": "52010-260",
        "addr:street": "Rua Jornalista Paulo Bittencourt",
        "addr:suburb": "Derby",
        "amenity": "dentist",
        "healthcare": "dentist",
        "name": "Odoto Top",
        "id": "node/8517393932"
      },
      "geometry": {
        "type": "Point",
        "coordinates": [
          -34.8994422,
          -8.0538877
        ]
      }
    },
    {
      "type": "Feature",
      "id": "node/8715806480",
      "properties": {
        "timestamp": "2021-05-09T21:46:43Z",
        "version": 1,
        "changeset": 104412380,
        "addr:city": "Recife",
        "addr:housenumber": "6246",
        "addr:postcode": "52081-000",
        "addr:street": "Avenida Norte Miguel Arraes de Alencar",
        "addr:suburb": "Vasco da Gama",
        "amenity": "dentist",
        "healthcare": "dentist",
        "name": "OdontoNorte",
        "id": "node/8715806480"
      },
      "geometry": {
        "type": "Point",
        "coordinates": [
          -34.9210139,
          -8.0207277
        ]
      }
    },
    {
      "type": "Feature",
      "id": "node/8715806568",
      "properties": {
        "timestamp": "2021-05-09T21:46:43Z",
        "version": 1,
        "changeset": 104412380,
        "addr:city": "Recife",
        "addr:housenumber": "458",
        "addr:postcode": "52070970",
        "addr:street": "Rua Padre Lemos",
        "addr:suburb": "Casa Amarela",
        "amenity": "dentist",
        "healthcare": "dentist",
        "name": "Rede Ortoestética",
        "id": "node/8715806568"
      },
      "geometry": {
        "type": "Point",
        "coordinates": [
          -34.9187415,
          -8.0229513
        ]
      }
    },
    {
      "type": "Feature",
      "id": "node/8715806606",
      "properties": {
        "timestamp": "2021-05-09T21:46:43Z",
        "version": 1,
        "changeset": 104412380,
        "addr:city": "Recife",
        "addr:housenumber": "80",
        "addr:postcode": "52070200",
        "addr:street": "Rua Pedro Allain",
        "addr:suburb": "Casa Amarela",
        "amenity": "dentist",
        "healthcare": "dentist",
        "name": "Sorriso Quality Center",
        "phone": "+558132693064",
        "id": "node/8715806606"
      },
      "geometry": {
        "type": "Point",
        "coordinates": [
          -34.9181394,
          -8.0228918
        ]
      }
    },
    {
      "type": "Feature",
      "id": "node/9298135209",
      "properties": {
        "timestamp": "2021-12-01T02:04:12Z",
        "version": 1,
        "changeset": 114424125,
        "amenity": "dentist",
        "healthcare": "dentist",
        "name": "Code Odontologia",
        "id": "node/9298135209"
      },
      "geometry": {
        "type": "Point",
        "coordinates": [
          -34.8843347,
          -8.0607842
        ]
      }
    },
    {
      "type": "Feature",
      "id": "node/12676338994",
      "properties": {
        "timestamp": "2025-03-18T12:29:04Z",
        "version": 1,
        "changeset": 163772721,
        "addr:city": "Recife",
        "addr:housenumber": "27",
        "addr:street": "Rua Deputado Manoel Paes",
        "addr:suburb": "Areias",
        "amenity": "dentist",
        "healthcare": "dentist",
        "mobile": "+55 81 9 8753.6805",
        "name": "CENEOR centro estetico e odontologico do recife",
        "id": "node/12676338994"
      },
      "geometry": {
        "type": "Point",
        "coordinates": [
          -34.9305487,
          -8.0973937
        ]
      }
    }
  ]
}
