{
  "type": "FeatureCollection",
  "features": [
    {
      "type": "Feature",
      "id": "way/371951522",
      "properties": {
        "timestamp": "2022-01-05T13:53:47Z",
        "version": 4,
        "changeset": 115798835,
        "addr:housenumber": "140",
        "addr:street": "Rua da Moeda",
        "building": "yes",
        "name": "Arte Plural",
        "tourism": "gallery",
        "id": "way/371951522"
      },
      "geometry": {
        "type": "Polygon",
        "coordinates": [
          [
            [
              -34.8732408,
              -8.0645418
            ],
            [
              -34.8731475,
              -8.0645299
            ],
            [
              -34.8731442,
              -8.0644336
            ],
            [
              -34.873232,
              -8.0644263
            ],
            [
              -34.8732408,
              -8.0645418
            ]
          ]
        ]
      }
    },
    {
      "type": "Feature",
      "id": "way/378478772",
      "properties": {
        "timestamp": "2022-01-05T13:53:47Z",
        "version": 2,
        "changeset": 115798835,
        "addr:city": "Recife",
        "addr:housenumber": "108",
        "addr:street": "Rua do Marquês",
        "addr:suburb": "Parnamirim",
        "building": "yes",
        "name": "Manupiá",
        "tourism": "gallery",
        "website": "https://www.instagram.com/manupia.arte/",
        "id": "way/378478772"
      },
      "geometry": {
        "type": "Polygon",
        "coordinates": [
          [
            [
              -34.9137653,
              -8.0329686
            ],
            [
              -34.9137893,
              -8.0330043
            ],
            [
              -34.9137793,
              -8.033011
            ],
            [
              -34.9137866,
              -8.0330219
            ],
            [
              -34.9138183,
              -8.0330008
            ],
            [
              -34.9138471,
              -8.0330437
            ],
            [
              -34.9138029,
              -8.0330732
            ],
            [
              -34.9138081,
              -8.033081
            ],
            [
              -34.913724,
              -8.0331371
            ],
            [
              -34.9136586,
              -8.0330398
            ],
            [
              -34.9137653,
              -8.0329686
            ]
          ]
        ]
      }
    },
    {
      "type": "Feature",
      "id": "way/1018527443",
      "properties": {
        "timestamp": "2022-01-05T13:53:47Z",
        "version": 1,
        "changeset": 115798835,
        "addr:city": "Recife",
        "addr:housenumber": "54",
        "addr:street": "Rua Álvaro Macedo",
        "addr:suburb": "Poço da Panela",
        "building": "yes",
        "description": "Espaço Cultural de Arte",
        "name": "Poço das Artes",
        "operator": "Clarissa Garcia",
        "phone": "+55 81 99817-1464",
        "source": "Prefeitura do Recife",
        "tourism": "gallery",
        "website": "https://clarissagarcia.wixsite.com/arte",
        "wheelchair": "yes",
        "id": "way/1018527443"
      },
      "geometry": {
        "type": "Polygon",
        "coordinates": [
          [
            [
              -34.9248894,
              -8.0373369
            ],
            [
              -34.924968,
              -8.037421
            ],
            [
              -34.9249023,
              -8.0374813
            ],
            [
              -34.9248236,
              -8.0373972
            ],
            [
              -34.9248894,
              -8.0373369
            ]
          ]
        ]
      }
    },
    {
      "type": "Feature",
      "id": "way/1018527444",
      "properties": {
        "timestamp": "2022-01-05T13:53:47Z",
        "version": 1,
        "changeset": 115798835,
        "addr:city": "Recife",
        "addr:housenumber": "368",
        "addr:street": "Estrada das Ubaias",
        "addr:suburb": "Casa Forte",
        "building": "yes",
        "name": "Galeria Mário Nunes",
        "phone": "+55 81 3442-6577",
        "source": "Prefeitura do Recife",
        "tourism": "gallery",
        "wheelchair": "yes",
        "id": "way/1018527444"
      },
      "geometry": {
        "type": "Polygon",
        "coordinates": [
          [
            [
              -34.9195223,
              -8.0314079
            ],
            [
              -34.9195569,
              -8.0314533
            ],
            [
              -34.9194524,
              -8.0315315
            ],
            [
              -34.919437,
              -8.0315112
            ],
            [
              -34.9194645,
              -8.0314906
            ],
            [
              -34.9194453,
              -8.0314655
            ],
            [
              -34.9195223,
              -8.0314079
            ]
          ]
        ]
      }
    },
    {
      "type": "Feature",
      "id": "way/1018527445",
      "properties": {
        "timestamp": "2022-01-05T13:53:47Z",
        "version": 1,
        "changeset": 115798835,
        "addr:city": "Recife",
        "addr:housenumber": "245",
        "addr:postcode": "52060-430",
        "addr:street": "Rua Samuel Farias",
        "addr:suburb": "Santana",
        "building": "yes",
        "name": "Guarrido Galeria",
        "tourism": "gallery",
        "website": "https://garridogaleria.com/",
        "wheelchair": "yes",
        "id": "way/1018527445"
      },
      "geometry": {
        "type": "Polygon",
        "coordinates": [
          [
            [
              -34.9150292,
              -8.0398463
            ],
            [
              -34.914992,
              -8.0399955
            ],
            [
              -34.9147999,
              -8.0399485
            ],
            [
              -34.914837,
              -8.0397994
            ],
            [
              -34.9150292,
              -8.0398463
            ]
          ]
        ]
      }
    },
    {
      "type": "Feature",
      "id": "way/1018527446",
      "properties": {
        "timestamp": "2024-03-07T21:32:49Z",
        "version": 3,
        "changeset": 148360980,
        "addr:city": "Recife",
        "addr:housenumber": "430",
        "addr:postcode": "52030-252",
        "addr:street": "Rua Professor Othon Paraíso",
        "addr:suburb": "Torreão",
        "building": "yes",
        "name": "Rodrigues Galeria de Arte",
        "phone": "+55 81 3241-3358",
        "source": "Prefeitura do Recife",
        "tourism": "gallery",
        "website": "https://www.rodriguesgaleria.com.br/",
        "wheelchair": "yes",
        "id": "way/1018527446"
      },
      "geometry": {
        "type": "Polygon",
        "coordinates": [
          [
            [
              -34.8834072,
              -8.0375889
            ],
            [
              -34.8835719,
              -8.0377469
            ],
            [
              -34.8834974,
              -8.037823
            ],
            [
              -34.8834184,
              -8.0377473
            ],
            [
              -34.8833934,
              -8.0377729
            ],
            [
              -34.8833478,
              -8.0377292
            ],
            [
              -34.8833639,
              -8.0377127
            ],
            [
              -34.8833238,
              -8.0376741
            ],
            [
              -34.8834072,
              -8.0375889
            ]
          ]
        ]
      }
    },
    {
      "type": "Feature",
      "id": "node/7188706584",
      "properties": {
        "timestamp": "2020-02-07T21:24:26Z",
        "version": 3,
        "changeset": 80709730,
        "addr:city": "Recife",
        "addr:postcode": "51030-010",
        "addr:street": "Avenida Boa Viagem",
        "addr:suburb": "Boa Viagem",
        "email": "galeriajanetecosta@gmail.com",
        "name": "Galeria Janete Costa",
        "tourism": "gallery",
        "id": "node/7188706584"
      },
      "geometry": {
        "type": "Point",
        "coordinates": [
          -34.903694,
          -8.1409482
        ]
      }
    },
    {
      "type": "Feature",
      "id": "node/8633302123",
      "properties": {
        "timestamp": "2021-04-15T20:09:53Z",
        "version": 1,
        "changeset": 103015681,
        "addr:city": "Recife",
        "addr:housenumber": "2-118",
        "addr:street": "Nona Travessa Chiador",
        "addr:suburb": "Guabiraba",
        "name": "Ateliê De Alexandre Almeida",
        "opening_hours": "Mo-Su 09:00-18:00",
        "tourism": "gallery",
        "id": "node/8633302123"
      },
      "geometry": {
        "type": "Point",
        "coordinates": [
          -34.9236125,
          -7.9514875
        ]
      }
    },
    {
      "type": "Feature",
      "id": "node/9394464981",
      "properties": {
        "timestamp": "2022-01-05T13:53:47Z",
        "version": 1,
        "changeset": 115798835,
        "addr:city": "Recife",
        "addr:housenumber": "125",
        "addr:postcode": "50030-170",
        "addr:street": "Rua do Bom Jesus",
        "addr:suburb": "Recife",
        "name": "Ranulpho",
        "tourism": "gallery",
        "website": "http://www.ranulpho.com.br/",
        "id": "node/9394464981"
      },
      "geometry": {
        "type": "Point",
        "coordinates": [
          -34.871915,
          -8.0627906
        ]
      }
    }
  ]
}
