{
  "type": "FeatureCollection",
  "features": [
    {
      "type": "Feature",
      "id": "way/380681604",
      "properties": {
        "timestamp": "2024-06-26T20:44:07Z",
        "version": 4,
        "changeset": 153220521,
        "addr:city": "Recife",
        "addr:housenumber": "90",
        "addr:street": "Rua Padre Inglês",
        "addr:suburb": "Boa Vista",
        "building": "yes",
        "internet_access": "yes",
        "name": "Pousada Lorde Ingles",
        "source": "Prefeitura do Recife;local knowledge",
        "tourism": "guest_house",
        "website": "https://pousadalordeingles.com.br/",
        "id": "way/380681604"
      },
      "geometry": {
        "type": "Polygon",
        "coordinates": [
          [
            [
              -34.893948,
              -8.0553728
            ],
            [
              -34.8939417,
              -8.0553499
            ],
            [
              -34.8938859,
              -8.055358
            ],
            [
              -34.893875,
              -8.0552963
            ],
            [
              -34.8939966,
              -8.0552735
            ],
            [
              -34.8940137,
              -8.0553607
            ],
            [
              -34.893948,
              -8.0553728
            ]
          ]
        ]
      }
    },
    {
      "type": "Feature",
      "id": "node/4295512489",
      "properties": {
        "timestamp": "2016-07-11T02:37:57Z",
        "version": 1,
        "changeset": 40641390,
        "name": "Casa de dalila e plutarco",
        "tourism": "guest_house",
        "id": "node/4295512489"
      },
      "geometry": {
        "type": "Point",
        "coordinates": [
          -34.8835685,
          -8.0942611
        ]
      }
    },
    {
      "type": "Feature",
      "id": "node/4550173196",
      "properties": {
        "timestamp": "2016-12-12T04:23:03Z",
        "version": 1,
        "changeset": 44336790,
        "addr:street": "Avenida Rio Grande",
        "tourism": "guest_house",
        "id": "node/4550173196"
      },
      "geometry": {
        "type": "Point",
        "coordinates": [
          -34.9482938,
          -8.1171939
        ]
      }
    },
    {
      "type": "Feature",
      "id": "node/4624395289",
      "properties": {
        "timestamp": "2017-01-23T00:05:59Z",
        "version": 1,
        "changeset": 45381668,
        "tourism": "guest_house",
        "id": "node/4624395289"
      },
      "geometry": {
        "type": "Point",
        "coordinates": [
          -34.8986542,
          -8.0215965
        ]
      }
    },
    {
      "type": "Feature",
      "id": "node/4774597869",
      "properties": {
        "timestamp": "2019-10-26T18:22:38Z",
        "version": 2,
        "changeset": 76249747,
        "addr:housenumber": "76",
        "addr:street": "Rua Mendes Martins",
        "internet_access": "wlan",
        "name": "Pousada Casa da Várzea",
        "name:en": "Bed & Breakfast casa da várzea",
        "name:fr": "Bed & Breakfast casa da várzea",
        "phone": "+55 81 3076-7005",
        "tourism": "guest_house",
        "website": "http://casadavarzea.com.br",
        "id": "node/4774597869"
      },
      "geometry": {
        "type": "Point",
        "coordinates": [
          -34.9605281,
          -8.0483074
        ]
      }
    },
    {
      "type": "Feature",
      "id": "node/4793812121",
      "properties": {
        "timestamp": "2019-10-26T14:10:24Z",
        "version": 5,
        "changeset": 76244237,
        "addr:housenumber": "14",
        "addr:postcode": "50900-560",
        "addr:street": "Rua Matelândia",
        "email": "wesleyon@icloud.com",
        "internet_access": "wlan",
        "name": "Casa de Wesley",
        "name:en": "Hause Wesley",
        "opening_hours": "24/7",
        "phone": "+55 81 9 7118.0464",
        "tourism": "guest_house",
        "id": "node/4793812121"
      },
      "geometry": {
        "type": "Point",
        "coordinates": [
          -34.9460117,
          -8.0900143
        ]
      }
    }
  ]
}
