{
  "type": "FeatureCollection",
  "features": [
    {
      "type": "Feature",
      "id": "way/629129368",
      "properties": {
        "timestamp": "2020-01-17T00:47:48Z",
        "version": 3,
        "changeset": 79670704,
        "addr:city": "Recife",
        "addr:housenumber": "1289",
        "addr:postcode": "51230-000",
        "addr:street": "Avenida Dois Rios",
        "addr:suburb": "Ibura",
        "amenity": "social_facility",
        "building": "yes",
        "name": "Conselho Tutelar RPA-6B",
        "opening_hours": "Mo-Sa 08:00-20:00",
        "phone": "+55 81 3355 4799",
        "id": "way/629129368"
      },
      "geometry": {
        "type": "Polygon",
        "coordinates": [
          [
            [
              -34.9422386,
              -8.1183387
            ],
            [
              -34.9422886,
              -8.1184083
            ],
            [
              -34.9421333,
              -8.1185177
            ],
            [
              -34.9420833,
              -8.1184482
            ],
            [
              -34.9422386,
              -8.1183387
            ]
          ]
        ]
      }
    },
    {
      "type": "Feature",
      "id": "way/655020073",
      "properties": {
        "timestamp": "2019-07-16T17:42:58Z",
        "version": 4,
        "changeset": 72316521,
        "addr:city": "Recife",
        "addr:housenumber": "210",
        "addr:street": "Rua Jacira",
        "addr:suburb": "Afogados",
        "amenity": "social_facility",
        "building": "yes",
        "name": "CAPS - Espaço Travessia René Ribeiro",
        "opening_hours": "Mo-Fr 08:00-17:00",
        "id": "way/655020073"
      },
      "geometry": {
        "type": "Polygon",
        "coordinates": [
          [
            [
              -34.9083032,
              -8.0822525
            ],
            [
              -34.9085775,
              -8.0822949
            ],
            [
              -34.9085742,
              -8.0823594
            ],
            [
              -34.9084739,
              -8.0823705
            ],
            [
              -34.908389,
              -8.0823777
            ],
            [
              -34.9083169,
              -8.0823831
            ],
            [
              -34.9082925,
              -8.0823697
            ],
            [
              -34.9083032,
              -8.0822525
            ]
          ]
        ]
      }
    },
    {
      "type": "Feature",
      "id": "way/655020297",
      "properties": {
        "timestamp": "2019-07-16T17:42:58Z",
        "version": 4,
        "changeset": 72316521,
        "addr:city": "Recife",
        "addr:housenumber": "135",
        "addr:street": "Rua Emília Torreão",
        "addr:suburb": "Afogados",
        "amenity": "social_facility",
        "building": "yes",
        "name": "CAPS Galdino Loreto",
        "opening_hours": "Mo-Fr 08:00-17:00",
        "id": "way/655020297"
      },
      "geometry": {
        "type": "Polygon",
        "coordinates": [
          [
            [
              -34.9095864,
              -8.082031
            ],
            [
              -34.9095571,
              -8.0823016
            ],
            [
              -34.9094475,
              -8.0822826
            ],
            [
              -34.9094914,
              -8.0820206
            ],
            [
              -34.9095864,
              -8.082031
            ]
          ]
        ]
      }
    },
    {
      "type": "Feature",
      "id": "way/943412477",
      "properties": {
        "timestamp": "2022-08-11T12:15:11Z",
        "version": 2,
        "changeset": 124773719,
        "amenity": "social_facility",
        "name": "Livroteca Brincante do Pina",
        "website": "http://www.livrotecabrincantedopina.siteo.one",
        "id": "way/943412477"
      },
      "geometry": {
        "type": "Polygon",
        "coordinates": [
          [
            [
              -34.8887748,
              -8.0923291
            ],
            [
              -34.8887023,
              -8.0923159
            ],
            [
              -34.8887177,
              -8.0922338
            ],
            [
              -34.8887901,
              -8.0922471
            ],
            [
              -34.8887748,
              -8.0923291
            ]
          ]
        ]
      }
    },
    {
      "type": "Feature",
      "id": "way/1017340819",
      "properties": {
        "timestamp": "2022-01-01T13:57:23Z",
        "version": 1,
        "changeset": 115637176,
        "addr:city": "Recife",
        "addr:street": "Travessa do Gusmão",
        "addr:suburb": "São José",
        "alt_name": "Abrigo Irmã Dulce",
        "amenity": "social_facility",
        "name": "Abrigo Noturno Irmã Dulce",
        "official_name": "Abrigo Noturno Irmã Dulce - Santa Dulce dos Pobres",
        "social_facility": "shelter",
        "social_facility:for": "homeless",
        "id": "way/1017340819"
      },
      "geometry": {
        "type": "Polygon",
        "coordinates": [
          [
            [
              -34.8865876,
              -8.0720694
            ],
            [
              -34.8860244,
              -8.071901
            ],
            [
              -34.886046,
              -8.0718324
            ],
            [
              -34.8863424,
              -8.0708901
            ],
            [
              -34.8866397,
              -8.0712699
            ],
            [
              -34.8867691,
              -8.0714321
            ],
            [
              -34.8867762,
              -8.0714641
            ],
            [
              -34.8865876,
              -8.0720694
            ]
          ]
        ]
      }
    },
    {
      "type": "Feature",
      "id": "node/8633302163",
      "properties": {
        "timestamp": "2022-01-31T00:03:46Z",
        "version": 2,
        "changeset": 116800588,
        "addr:city": "Recife",
        "addr:housenumber": "71",
        "addr:postcode": "52490070",
        "addr:street": "R. Arnaldo Rosa Teixeira",
        "addr:suburb": "Guabiraba",
        "amenity": "social_facility",
        "name": "Associação dos Moradores de Bola na Rede",
        "social_facility": "assisted_living",
        "social_facility:for": "homeless",
        "id": "node/8633302163"
      },
      "geometry": {
        "type": "Point",
        "coordinates": [
          -34.9243226,
          -7.9643913
        ]
      }
    }
  ]
}
