{
  "type": "FeatureCollection",
  "features": [
    {
      "type": "Feature",
      "id": "way/654850948",
      "properties": {
        "timestamp": "2021-05-09T21:46:43Z",
        "version": 2,
        "changeset": 104412380,
        "amenity": "veterinary",
        "building": "yes",
        "id": "way/654850948"
      },
      "geometry": {
        "type": "Polygon",
        "coordinates": [
          [
            [
              -34.9256498,
              -8.0206378
            ],
            [
              -34.9256469,
              -8.0207281
            ],
            [
              -34.9255303,
              -8.0207163
            ],
            [
              -34.9255376,
              -8.0206351
            ],
            [
              -34.9256498,
              -8.0206378
            ]
          ]
        ]
      }
    },
    {
      "type": "Feature",
      "id": "way/847788992",
      "properties": {
        "timestamp": "2020-09-15T21:08:07Z",
        "version": 1,
        "changeset": 90947295,
        "addr:city": "Recife",
        "addr:housenumber": "19",
        "addr:postcode": "51030-490",
        "addr:street": "Rua Belmonte",
        "addr:suburb": "Boa Viagem",
        "amenity": "veterinary",
        "building": "yes",
        "description": "Clínica Veterinária Especializada em Odontologia e Cardiologia",
        "name": "VetFace",
        "opening_hours": "Mo-Sa 08:00-17:00",
        "opening_hours:covid19": "Mo-Sa 09:00-12:00; Mo-Sa 14:00-17:00",
        "phone": "+55 81 3204-0376;+55 81 98826-6602",
        "source": "Prefeitura do Recife",
        "website": "https://www.vetface.com.br/",
        "wheelchair": "yes",
        "id": "way/847788992"
      },
      "geometry": {
        "type": "Polygon",
        "coordinates": [
          [
            [
              -34.9055429,
              -8.1332458
            ],
            [
              -34.9055253,
              -8.1333271
            ],
            [
              -34.9054406,
              -8.1333092
            ],
            [
              -34.9054582,
              -8.1332278
            ],
            [
              -34.9055429,
              -8.1332458
            ]
          ]
        ]
      }
    },
    {
      "type": "Feature",
      "id": "node/5745796621",
      "properties": {
        "timestamp": "2021-05-09T21:46:43Z",
        "version": 2,
        "changeset": 104412380,
        "addr:city": "Recife",
        "addr:housenumber": "6747",
        "addr:postcode": "52070-095",
        "addr:street": "Avenida Norte Miguel Arraes de Alencar",
        "addr:suburb": "Casa Amarela",
        "amenity": "veterinary",
        "name": "Animal Control Clínica Veterinária",
        "source": "Prefeitura do Recife",
        "id": "node/5745796621"
      },
      "geometry": {
        "type": "Point",
        "coordinates": [
          -34.9256198,
          -8.0206791
        ]
      }
    },
    {
      "type": "Feature",
      "id": "node/5745804058",
      "properties": {
        "timestamp": "2022-03-20T11:25:26Z",
        "version": 3,
        "changeset": 118692483,
        "addr:housenumber": "585",
        "addr:street": "Estrada do Encanamento",
        "amenity": "veterinary",
        "name": "Hospital Veterinário da Harmonia",
        "short_name": "HVH",
        "source": "Prefeitura do Recife",
        "id": "node/5745804058"
      },
      "geometry": {
        "type": "Point",
        "coordinates": [
          -34.9155765,
          -8.0316476
        ]
      }
    },
    {
      "type": "Feature",
      "id": "node/11073676981",
      "properties": {
        "timestamp": "2023-07-28T16:45:35Z",
        "version": 1,
        "changeset": 139144064,
        "addr:city": "Recife",
        "addr:housenumber": "587",
        "addr:postcode": "52060-445",
        "addr:street": "Rua Barão de Caiara",
        "addr:suburb": "casa forte",
        "amenity": "veterinary",
        "name": "Day Clinic Pet",
        "id": "node/11073676981"
      },
      "geometry": {
        "type": "Point",
        "coordinates": [
          -34.9113139,
          -8.0380792
        ]
      }
    }
  ]
}
