{
  "type": "FeatureCollection",
  "features": [
    {
      "type": "Feature",
      "id": "node/2911234707",
      "properties": {
        "timestamp": "2014-06-11T14:28:01Z",
        "version": 1,
        "changeset": 22871884,
        "amenity": "dentist",
        "name": "Consultório Odontológico",
        "id": "node/2911234707"
      },
      "geometry": {
        "type": "Point",
        "coordinates": [
          -40.4119829,
          -20.0037028
        ]
      }
    },
    {
      "type": "Feature",
      "id": "node/3742108072",
      "properties": {
        "timestamp": "2020-04-01T23:35:50Z",
        "version": 4,
        "changeset": 82947157,
        "addr:city": "Fundão",
        "addr:housenumber": "90",
        "addr:postcode": "29185-000",
        "addr:street": "Rua São José",
        "addr:suburb": "Centro",
        "amenity": "dentist",
        "healthcare": "dentist",
        "name": "Consultorio Odontológico Milena Lopes Farina",
        "phone": "+55 27 32671764",
        "source": "http://cnes.datasus.gov.br/Exibe_Ficha_Estabelecimento.asp?VCo_Unidade=3202206181899&VEstado=32&VCodMunicipio=320220",
        "wheelchair": "no",
        "id": "node/3742108072"
      },
      "geometry": {
        "type": "Point",
        "coordinates": [
          -40.4041877,
          -19.9339611
        ]
      }
    },
    {
      "type": "Feature",
      "id": "node/3758950713",
      "properties": {
        "timestamp": "2020-04-01T23:35:50Z",
        "version": 4,
        "changeset": 82947157,
        "amenity": "dentist",
        "healthcare": "dentist",
        "name": "Consultório Odontológico Thiago Jorge Costalonga",
        "id": "node/3758950713"
      },
      "geometry": {
        "type": "Point",
        "coordinates": [
          -40.404315,
          -19.9339139
        ]
      }
    },
    {
      "type": "Feature",
      "id": "node/3758989494",
      "properties": {
        "timestamp": "2020-04-01T23:35:50Z",
        "version": 4,
        "changeset": 82947157,
        "addr:city": "Fundão",
        "addr:housenumber": "126",
        "addr:postcode": "29185-000",
        "addr:street": "Rua Presidente Vargas",
        "addr:suburb": "Centro",
        "amenity": "dentist",
        "healthcare": "dentist",
        "level": "1",
        "name": "Odontocenter",
        "id": "node/3758989494"
      },
      "geometry": {
        "type": "Point",
        "coordinates": [
          -40.4044773,
          -19.9341433
        ]
      }
    },
    {
      "type": "Feature",
      "id": "node/4842802444",
      "properties": {
        "timestamp": "2020-04-01T23:35:50Z",
        "version": 3,
        "changeset": 82947157,
        "amenity": "dentist",
        "healthcare": "dentist",
        "id": "node/4842802444"
      },
      "geometry": {
        "type": "Point",
        "coordinates": [
          -40.4045824,
          -19.9325913
        ]
      }
    },
    {
      "type": "Feature",
      "id": "node/4950764916",
      "properties": {
        "timestamp": "2020-04-01T23:35:50Z",
        "version": 2,
        "changeset": 82947157,
        "addr:city": "Fundão",
        "addr:postcode": "29185-000",
        "addr:street": "Avenida José Agostini",
        "addr:suburb": "São José",
        "amenity": "dentist",
        "healthcare": "dentist",
        "name": "Simonassi Odontologia",
        "id": "node/4950764916"
      },
      "geometry": {
        "type": "Point",
        "coordinates": [
          -40.4053387,
          -19.9338172
        ]
      }
    }
  ]
}
