{
  "type": "FeatureCollection",
  "features": [
    {
      "type": "Feature",
      "id": "way/242169251",
      "properties": {
        "timestamp": "2015-03-19T14:39:47Z",
        "version": 3,
        "changeset": 29592460,
        "addr:city": "Fundão",
        "addr:housenumber": "133",
        "addr:postcode": "29185-000",
        "addr:street": "Rua Stefano Broseghini",
        "building": "yes",
        "name": "Comissão Permanente de Licitação",
        "office": "government",
        "id": "way/242169251"
      },
      "geometry": {
        "type": "Polygon",
        "coordinates": [
          [
            [
              -40.404884,
              -19.9352997
            ],
            [
              -40.4047668,
              -19.9352918
            ],
            [
              -40.4047768,
              -19.9352226
            ],
            [
              -40.4048589,
              -19.9351974
            ],
            [
              -40.404884,
              -19.9352997
            ]
          ]
        ]
      }
    },
    {
      "type": "Feature",
      "id": "way/370518030",
      "properties": {
        "timestamp": "2015-09-14T02:39:25Z",
        "version": 1,
        "changeset": 34011844,
        "addr:city": "Fundão",
        "addr:housenumber": "41",
        "addr:postcode": "29185-000",
        "addr:street": "Rua Luísa Gon Pratti",
        "addr:suburb": "Centro",
        "building": "yes",
        "name": "Secretaria Municipal de Saúde",
        "office": "government",
        "opening_hours": "Mo-Fr 07:00-13:00",
        "phone": "+552732672631",
        "short_name": "Semus",
        "source": "http://fundao.es.gov.br/secretaria.aspx?id=10",
        "wheelchair": "no",
        "id": "way/370518030"
      },
      "geometry": {
        "type": "Polygon",
        "coordinates": [
          [
            [
              -40.4030486,
              -19.9331498
            ],
            [
              -40.4032166,
              -19.9332108
            ],
            [
              -40.4031869,
              -19.9332833
            ],
            [
              -40.4030189,
              -19.9332223
            ],
            [
              -40.4030486,
              -19.9331498
            ]
          ]
        ]
      }
    },
    {
      "type": "Feature",
      "id": "way/370522563",
      "properties": {
        "timestamp": "2015-09-14T03:14:01Z",
        "version": 1,
        "changeset": 34012027,
        "addr:city": "Fundão",
        "addr:housenumber": "86",
        "addr:postcode": "29185-000",
        "addr:street": "Rua Coronel Hermínio Castro",
        "addr:suburb": "Centro",
        "building": "yes",
        "name": "Secretaria Municipal de Promoção Social e Cidadania",
        "office": "government",
        "opening_hours": "Mo-Fr 07:00-13:00",
        "phone": "+552732672404",
        "short_name": "Seprom",
        "source": "http://fundao.es.gov.br/secretaria.aspx?id=2",
        "id": "way/370522563"
      },
      "geometry": {
        "type": "Polygon",
        "coordinates": [
          [
            [
              -40.4036152,
              -19.9350108
            ],
            [
              -40.4036986,
              -19.9349353
            ],
            [
              -40.4037537,
              -19.9349892
            ],
            [
              -40.4036703,
              -19.9350646
            ],
            [
              -40.4036152,
              -19.9350108
            ]
          ]
        ]
      }
    },
    {
      "type": "Feature",
      "id": "way/370522564",
      "properties": {
        "timestamp": "2016-06-16T12:03:02Z",
        "version": 2,
        "changeset": 40064840,
        "addr:city": "Fundão",
        "addr:housenumber": "86",
        "addr:postcode": "29185-000",
        "addr:street": "Rua Coronel Hermínio Castro",
        "addr:suburb": "Centro",
        "name": "Secretaria Municipal de Transporte",
        "office": "government",
        "opening_hours": "Mo-Fr 07:00-13:00",
        "phone": "+552732671251",
        "short_name": "Setran",
        "source": "http://fundao.es.gov.br/secretaria.aspx?id=7",
        "id": "way/370522564"
      },
      "geometry": {
        "type": "Polygon",
        "coordinates": [
          [
            [
              -40.4042454,
              -19.9354566
            ],
            [
              -40.4038006,
              -19.9353744
            ],
            [
              -40.4035075,
              -19.9353202
            ],
            [
              -40.4035342,
              -19.9350782
            ],
            [
              -40.4036152,
              -19.9350108
            ],
            [
              -40.4036986,
              -19.9349353
            ],
            [
              -40.4037537,
              -19.9349892
            ],
            [
              -40.4042454,
              -19.9354566
            ]
          ]
        ]
      }
    },
    {
      "type": "Feature",
      "id": "way/492219144",
      "properties": {
        "timestamp": "2017-05-08T23:35:11Z",
        "version": 1,
        "changeset": 48517230,
        "addr:city": "Fundão",
        "addr:housenumber": "124",
        "addr:postcode": "29185-000",
        "addr:street": "Rua Coronel Hermínio Castro",
        "addr:suburb": "Centro",
        "building": "yes",
        "government": "register_office",
        "level": "0",
        "name": "Cartório de Registro Civil Antônio Miranda Filho",
        "office": "government",
        "id": "way/492219144"
      },
      "geometry": {
        "type": "Polygon",
        "coordinates": [
          [
            [
              -40.403366,
              -19.9347642
            ],
            [
              -40.4034403,
              -19.9347721
            ],
            [
              -40.4034344,
              -19.9348214
            ],
            [
              -40.4034634,
              -19.9348245
            ],
            [
              -40.4034532,
              -19.9349086
            ],
            [
              -40.4033499,
              -19.9348975
            ],
            [
              -40.403366,
              -19.9347642
            ]
          ]
        ]
      }
    },
    {
      "type": "Feature",
      "id": "node/3742150266",
      "properties": {
        "timestamp": "2017-06-19T14:39:12Z",
        "version": 2,
        "changeset": 49669206,
        "addr:city": "Fundão",
        "addr:housenumber": "43",
        "addr:postcode": "29185-000",
        "addr:street": "Rua Sisenando Braga",
        "addr:suburb": "São José",
        "name": "Secretaria Municipal de Serviços Urbanos, Infraestrutura e Meio Ambiente",
        "office": "government",
        "opening_hours": "Mo-Fr 07:00-13:00",
        "phone": "+552732671593",
        "short_name": "Sesim",
        "source": "http://fundao.es.gov.br/secretaria.aspx?id=6",
        "id": "node/3742150266"
      },
      "geometry": {
        "type": "Point",
        "coordinates": [
          -40.4056788,
          -19.933966
        ]
      }
    },
    {
      "type": "Feature",
      "id": "node/3742150267",
      "properties": {
        "timestamp": "2017-06-19T14:39:12Z",
        "version": 2,
        "changeset": 49669206,
        "addr:city": "Fundão",
        "addr:housenumber": "43",
        "addr:postcode": "29185-000",
        "addr:street": "Rua Sisenando Braga",
        "addr:suburb": "São José",
        "name": "Secretaria Municipal de Agricultura",
        "office": "government",
        "opening_hours": "Mo-Fr 07:00-13:00",
        "phone": "+552732671348",
        "short_name": "Seagri",
        "source": "http://fundao.es.gov.br/secretaria.aspx?id=5",
        "id": "node/3742150267"
      },
      "geometry": {
        "type": "Point",
        "coordinates": [
          -40.4054895,
          -19.9339627
        ]
      }
    },
    {
      "type": "Feature",
      "id": "node/3742150275",
      "properties": {
        "timestamp": "2020-04-01T23:35:50Z",
        "version": 4,
        "changeset": 82947157,
        "addr:city": "Fundão",
        "addr:postcode": "29185-000",
        "addr:street": "Rua São José",
        "addr:suburb": "Centro",
        "government": "administrative",
        "name": "Secretaria Municipal de Esportes",
        "office": "government",
        "opening_hours": "Mo-Fr 07:00-13:00",
        "short_name": "Semes",
        "wheelchair": "no",
        "id": "node/3742150275"
      },
      "geometry": {
        "type": "Point",
        "coordinates": [
          -40.4045111,
          -19.9337756
        ]
      }
    },
    {
      "type": "Feature",
      "id": "node/3758989489",
      "properties": {
        "timestamp": "2017-06-19T14:39:24Z",
        "version": 2,
        "changeset": 49669206,
        "addr:city": "Fundão",
        "addr:postcode": "29185-000",
        "addr:street": "Rua Presidente Vargas",
        "addr:suburb": "Centro",
        "name": "Setor de Tributação",
        "office": "government",
        "opening_hours": "Mo-Fr 07:00-13:00",
        "id": "node/3758989489"
      },
      "geometry": {
        "type": "Point",
        "coordinates": [
          -40.4045064,
          -19.934028
        ]
      }
    },
    {
      "type": "Feature",
      "id": "node/3772196758",
      "properties": {
        "timestamp": "2020-04-01T23:35:50Z",
        "version": 4,
        "changeset": 82947157,
        "addr:city": "Fundão",
        "addr:housenumber": "68",
        "addr:postcode": "29185-000",
        "addr:street": "Rua Professor Virgínio Pereira",
        "addr:suburb": "Centro",
        "government": "administrative",
        "name": "341ª Junta de Serviço Militar",
        "office": "government",
        "id": "node/3772196758"
      },
      "geometry": {
        "type": "Point",
        "coordinates": [
          -40.4040295,
          -19.9325912
        ]
      }
    },
    {
      "type": "Feature",
      "id": "node/3772196759",
      "properties": {
        "timestamp": "2020-04-01T23:35:50Z",
        "version": 4,
        "changeset": 82947157,
        "addr:city": "Fundão",
        "addr:housenumber": "68",
        "addr:postcode": "29185-000",
        "addr:street": "Rua Professor Virgínio Pereira",
        "addr:suburb": "Centro",
        "government": "social_services",
        "name": "Nossocrédito",
        "office": "government",
        "id": "node/3772196759"
      },
      "geometry": {
        "type": "Point",
        "coordinates": [
          -40.403996,
          -19.9325749
        ]
      }
    },
    {
      "type": "Feature",
      "id": "node/3772196760",
      "properties": {
        "timestamp": "2020-04-01T23:35:50Z",
        "version": 4,
        "changeset": 82947157,
        "addr:city": "Fundão",
        "addr:housenumber": "68",
        "addr:postcode": "29185-000",
        "addr:street": "Rua Professor Virgínio Pereira",
        "addr:suburb": "Centro",
        "government": "public_service",
        "name": "Procon Municipal",
        "office": "government",
        "id": "node/3772196760"
      },
      "geometry": {
        "type": "Point",
        "coordinates": [
          -40.4039655,
          -19.9325692
        ]
      }
    },
    {
      "type": "Feature",
      "id": "node/4100651394",
      "properties": {
        "timestamp": "2022-12-21T19:02:53Z",
        "version": 5,
        "changeset": 130345253,
        "addr:city": "Fundão",
        "addr:postcode": "29185-000",
        "addr:street": "Rua Américo Bittencourt",
        "addr:suburb": "São José",
        "dispensing": "yes",
        "government": "public_service",
        "name": "Cesan",
        "office": "government",
        "id": "node/4100651394"
      },
      "geometry": {
        "type": "Point",
        "coordinates": [
          -40.4052179,
          -19.9339644
        ]
      }
    }
  ]
}
