{
  "type": "FeatureCollection",
  "features": [
    {
      "type": "Feature",
      "id": "way/207666454",
      "properties": {
        "timestamp": "2020-04-01T23:35:50Z",
        "version": 9,
        "changeset": 82947157,
        "addr:city": "Fundão",
        "addr:housenumber": "69",
        "addr:postcode": "29185-000",
        "addr:street": "Avenida Presidente Vargas",
        "addr:suburb": "Centro",
        "amenity": "pharmacy",
        "building": "yes",
        "dispensing": "yes",
        "drive_through": "no",
        "healthcare": "pharmacy",
        "name": "Farmácia Fundão",
        "id": "way/207666454"
      },
      "geometry": {
        "type": "Polygon",
        "coordinates": [
          [
            [
              -40.4045226,
              -19.9346571
            ],
            [
              -40.4045403,
              -19.9345697
            ],
            [
              -40.4046876,
              -19.934596
            ],
            [
              -40.4046699,
              -19.9346835
            ],
            [
              -40.4045226,
              -19.9346571
            ]
          ]
        ]
      }
    },
    {
      "type": "Feature",
      "id": "way/351508604",
      "properties": {
        "timestamp": "2020-04-01T23:35:50Z",
        "version": 4,
        "changeset": 82947157,
        "addr:city": "Fundão",
        "addr:postcode": "29185-000",
        "addr:street": "Rua Presidente Vargas",
        "addr:suburb": "Centro",
        "amenity": "pharmacy",
        "building": "yes",
        "dispensing": "yes",
        "drive_through": "no",
        "healthcare": "pharmacy",
        "name": "Farmácia Preço Baixo",
        "id": "way/351508604"
      },
      "geometry": {
        "type": "Polygon",
        "coordinates": [
          [
            [
              -40.404607,
              -19.9331977
            ],
            [
              -40.4046289,
              -19.9331294
            ],
            [
              -40.4047534,
              -19.9331573
            ],
            [
              -40.4047367,
              -19.9332361
            ],
            [
              -40.404607,
              -19.9331977
            ]
          ]
        ]
      }
    },
    {
      "type": "Feature",
      "id": "way/351509600",
      "properties": {
        "timestamp": "2020-04-01T23:35:50Z",
        "version": 2,
        "changeset": 82947157,
        "addr:city": "Fundão",
        "addr:housenumber": "198",
        "addr:postcode": "29185-000",
        "addr:street": "Rua Presidente Vargas",
        "addr:suburb": "Centro",
        "amenity": "pharmacy",
        "building": "yes",
        "dispensing": "yes",
        "drive_through": "no",
        "healthcare": "pharmacy",
        "name": "Farmácia Real",
        "id": "way/351509600"
      },
      "geometry": {
        "type": "Polygon",
        "coordinates": [
          [
            [
              -40.404589,
              -19.9334876
            ],
            [
              -40.4046087,
              -19.9334021
            ],
            [
              -40.4047018,
              -19.9334215
            ],
            [
              -40.4046817,
              -19.9335066
            ],
            [
              -40.404589,
              -19.9334876
            ]
          ]
        ]
      }
    },
    {
      "type": "Feature",
      "id": "way/492219143",
      "properties": {
        "timestamp": "2020-04-01T23:45:31Z",
        "version": 2,
        "changeset": 82947266,
        "addr:city": "Fundão",
        "addr:housenumber": "185",
        "addr:postcode": "29185-000",
        "addr:street": "Rua Major Bley",
        "addr:suburb": "Centro",
        "amenity": "pharmacy",
        "building": "yes",
        "dispensing": "yes",
        "drive_through": "no",
        "healthcare": "pharmacy",
        "level": "0",
        "id": "way/492219143"
      },
      "geometry": {
        "type": "Polygon",
        "coordinates": [
          [
            [
              -40.4031111,
              -19.9366164
            ],
            [
              -40.4030869,
              -19.9366378
            ],
            [
              -40.4030723,
              -19.9366231
            ],
            [
              -40.4030365,
              -19.9366547
            ],
            [
              -40.4029327,
              -19.9365506
            ],
            [
              -40.4029926,
              -19.9364977
            ],
            [
              -40.4031111,
              -19.9366164
            ]
          ]
        ]
      }
    },
    {
      "type": "Feature",
      "id": "node/2911206501",
      "properties": {
        "timestamp": "2014-06-11T14:17:35Z",
        "version": 1,
        "changeset": 22871884,
        "amenity": "pharmacy",
        "name": "Farmácia Timbuí",
        "id": "node/2911206501"
      },
      "geometry": {
        "type": "Point",
        "coordinates": [
          -40.4119507,
          -20.0027299
        ]
      }
    },
    {
      "type": "Feature",
      "id": "node/2911214077",
      "properties": {
        "timestamp": "2014-06-11T14:20:46Z",
        "version": 1,
        "changeset": 22871884,
        "amenity": "pharmacy",
        "name": "Farmácia Pegoretti",
        "id": "node/2911214077"
      },
      "geometry": {
        "type": "Point",
        "coordinates": [
          -40.4119292,
          -20.0029592
        ]
      }
    },
    {
      "type": "Feature",
      "id": "node/3758989487",
      "properties": {
        "timestamp": "2020-04-01T23:35:50Z",
        "version": 3,
        "changeset": 82947157,
        "addr:city": "Fundão",
        "addr:housenumber": "140",
        "addr:postcode": "29185-000",
        "addr:street": "Rua Presidente Vargas",
        "addr:suburb": "Centro",
        "amenity": "pharmacy",
        "dispensing": "yes",
        "drive_through": "no",
        "healthcare": "pharmacy",
        "name": "Farmácia São José",
        "id": "node/3758989487"
      },
      "geometry": {
        "type": "Point",
        "coordinates": [
          -40.404566,
          -19.9339655
        ]
      }
    }
  ]
}
