{
  "type": "FeatureCollection",
  "features": [
    {
      "type": "Feature",
      "id": "node/3772196787",
      "properties": {
        "timestamp": "2017-06-19T14:39:31Z",
        "version": 2,
        "changeset": 49669206,
        "addr:city": "Fundão",
        "addr:postcode": "29185-000",
        "addr:street": "Rua Professor Virgínio Pereira",
        "addr:suburb": "Centro",
        "amenity": "social_facility",
        "name": "Conselho Tutelar",
        "social_facility:for": "child",
        "id": "node/3772196787"
      },
      "geometry": {
        "type": "Point",
        "coordinates": [
          -40.4037739,
          -19.9322246
        ]
      }
    },
    {
      "type": "Feature",
      "id": "node/3999140669",
      "properties": {
        "timestamp": "2024-07-04T14:29:09Z",
        "version": 2,
        "changeset": 153550928,
        "addr:city": "Fundão",
        "addr:postcode": "29185-000",
        "addr:street": "Avenida Belo Horizonte",
        "addr:suburb": "Praia Grande",
        "amenity": "social_facility",
        "contact:phone": "(27) 3287-1150",
        "name": "CRAS Praia Grande",
        "official_name": "Centro de Referência de Assistência Social Praia Grande",
        "operator": "Prefeitura Municipal de Praia Grande",
        "operator:type": "public",
        "social_facility": "outreach",
        "social_facility:for": "underprivileged;abused;victim",
        "source": "IJSN",
        "id": "node/3999140669"
      },
      "geometry": {
        "type": "Point",
        "coordinates": [
          -40.1894318,
          -20.0384255
        ]
      }
    },
    {
      "type": "Feature",
      "id": "node/4024903376",
      "properties": {
        "timestamp": "2018-11-27T13:18:49Z",
        "version": 3,
        "changeset": 64936467,
        "addr:city": "Fundão",
        "addr:housenumber": "80",
        "addr:postcode": "29185-000",
        "addr:street": "Rua Major Bley",
        "addr:suburb": "Centro",
        "alt_name": "Associação Pestalozzi",
        "amenity": "social_facility",
        "contact:phone": "(27) 3267-1555",
        "name": "Associação Pestalozzi de Fundão",
        "official_name": "CAEE Caminho do Amor",
        "source": "IJSN",
        "id": "node/4024903376"
      },
      "geometry": {
        "type": "Point",
        "coordinates": [
          -40.4040077,
          -19.936147
        ]
      }
    }
  ]
}
