{
  "type": "FeatureCollection",
  "features": [
    {
      "type": "Feature",
      "id": "node/4227395504",
      "properties": {
        "timestamp": "2016-06-05T22:32:25Z",
        "version": 1,
        "changeset": 39826606,
        "addr:city": "Porto Seguro",
        "addr:housename": "Sala 02",
        "addr:housenumber": "700",
        "addr:street": "Avenida dos Navegantes",
        "amenity": "dentist",
        "name": "Dra. Magna A. Falabretti",
        "phone": "+55 73 3288 1585",
        "id": "node/4227395504"
      },
      "geometry": {
        "type": "Point",
        "coordinates": [
          -39.0676577,
          -16.4431147
        ]
      }
    },
    {
      "type": "Feature",
      "id": "node/4227395517",
      "properties": {
        "timestamp": "2023-08-18T17:11:25Z",
        "version": 2,
        "changeset": 140066968,
        "amenity": "dentist",
        "healthcare": "dentist",
        "name": "Odontol√≥gico W e R",
        "id": "node/4227395517"
      },
      "geometry": {
        "type": "Point",
        "coordinates": [
          -39.0670287,
          -16.4436871
        ]
      }
    }
  ]
}
