{
  "type": "FeatureCollection",
  "features": [
    {
      "type": "Feature",
      "id": "node/1030276061",
      "properties": {
        "timestamp": "2023-08-18T17:11:25Z",
        "version": 3,
        "changeset": 140066968,
        "amenity": "doctors",
        "healthcare": "doctor",
        "name": "Centro Diagnóstico Médico (CDM)",
        "id": "node/1030276061"
      },
      "geometry": {
        "type": "Point",
        "coordinates": [
          -39.0632857,
          -16.4469321
        ]
      }
    },
    {
      "type": "Feature",
      "id": "node/4227395501",
      "properties": {
        "timestamp": "2019-03-17T10:48:43Z",
        "version": 2,
        "changeset": 68224978,
        "amenity": "doctors",
        "healthcare": "doctor",
        "healthcare:speciality": "cardiology",
        "name": "Cardiologia Dr. Islan P. Fialho - Pediatria Dra. Cristiane Akatuka Fialho",
        "id": "node/4227395501"
      },
      "geometry": {
        "type": "Point",
        "coordinates": [
          -39.0677154,
          -16.4430607
        ]
      }
    },
    {
      "type": "Feature",
      "id": "node/4227395509",
      "properties": {
        "timestamp": "2023-08-18T17:11:25Z",
        "version": 2,
        "changeset": 140066968,
        "addr:city": "Porto Seguro",
        "addr:street": "Avenida dos Navegantes",
        "amenity": "doctors",
        "healthcare": "doctor",
        "name": "Labcenter Laboratório",
        "opening_hours": "Mo-Fr 07:00-12:00,14:00-17:00; Sa 07:00-11:00",
        "phone": "+55 73 3288 5935",
        "id": "node/4227395509"
      },
      "geometry": {
        "type": "Point",
        "coordinates": [
          -39.0671816,
          -16.4436215
        ]
      }
    },
    {
      "type": "Feature",
      "id": "node/4227395520",
      "properties": {
        "timestamp": "2023-08-19T02:28:00Z",
        "version": 2,
        "changeset": 140079171,
        "addr:city": "Porto Seguro",
        "addr:housenumber": "640",
        "addr:street": "Avenida dos Navegantes",
        "amenity": "doctors",
        "healthcare": "doctor",
        "name": "Porto Seguro Diagnóstico",
        "phone": "+55 73 3288 4913",
        "id": "node/4227395520"
      },
      "geometry": {
        "type": "Point",
        "coordinates": [
          -39.067085,
          -16.4434375
        ]
      }
    }
  ]
}
