{
  "type": "FeatureCollection",
  "features": [
    {
      "type": "Feature",
      "id": "way/693403555",
      "properties": {
        "timestamp": "2019-05-29T20:59:45Z",
        "version": 1,
        "changeset": 70748348,
        "building": "yes",
        "name": "Administração Distrital",
        "office": "government",
        "id": "way/693403555"
      },
      "geometry": {
        "type": "Polygon",
        "coordinates": [
          [
            [
              -39.0765268,
              -16.4911011
            ],
            [
              -39.0765578,
              -16.4911601
            ],
            [
              -39.0764984,
              -16.4911924
            ],
            [
              -39.0765335,
              -16.4912522
            ],
            [
              -39.0764651,
              -16.4912849
            ],
            [
              -39.0763654,
              -16.491114
            ],
            [
              -39.0764241,
              -16.4910822
            ],
            [
              -39.0764574,
              -16.4911386
            ],
            [
              -39.0765268,
              -16.4911011
            ]
          ]
        ]
      }
    },
    {
      "type": "Feature",
      "id": "way/1199662032",
      "properties": {
        "timestamp": "2023-08-19T02:00:10Z",
        "version": 1,
        "changeset": 140078888,
        "addr:city": "Porto Seguro",
        "addr:street": "Rua da Jaqueira",
        "addr:suburb": "Tabapiri",
        "building": "yes",
        "email": "baseportoseguro@mpba.mp.br",
        "government": "prosecutor",
        "name": "Promotoria Regional de Porto Seguro",
        "office": "government",
        "opening_hours": "Mo-Fr 12:00-18:00",
        "operator": "Ministério Público do Estado da Bahia",
        "phone": "+55 73 3288 0601;+55 73 3288 2836",
        "id": "way/1199662032"
      },
      "geometry": {
        "type": "Polygon",
        "coordinates": [
          [
            [
              -39.0744327,
              -16.4339816
            ],
            [
              -39.0743074,
              -16.4344538
            ],
            [
              -39.0741276,
              -16.4344099
            ],
            [
              -39.0741851,
              -16.4341929
            ],
            [
              -39.074155,
              -16.4341855
            ],
            [
              -39.0741799,
              -16.4340915
            ],
            [
              -39.0742109,
              -16.4340991
            ],
            [
              -39.0742385,
              -16.433995
            ],
            [
              -39.0742825,
              -16.4340057
            ],
            [
              -39.0743066,
              -16.4339148
            ],
            [
              -39.0743888,
              -16.4339348
            ],
            [
              -39.0743798,
              -16.4339687
            ],
            [
              -39.0744327,
              -16.4339816
            ]
          ]
        ]
      }
    },
    {
      "type": "Feature",
      "id": "way/1311323463",
      "properties": {
        "timestamp": "2024-08-30T13:43:53Z",
        "version": 2,
        "changeset": 155975091,
        "addr:city": "Porto Seguro",
        "addr:housenumber": "111",
        "addr:postcode": "45810-000",
        "addr:street": "Rua Alfredo Dutra",
        "addr:suburb": "Centro",
        "building": "yes",
        "building:levels": "2",
        "government": "social_services",
        "name": "Secretaria Municipal de Assistência Social",
        "office": "government",
        "id": "way/1311323463"
      },
      "geometry": {
        "type": "Polygon",
        "coordinates": [
          [
            [
              -39.063913,
              -16.4468527
            ],
            [
              -39.063975,
              -16.4469248
            ],
            [
              -39.0638382,
              -16.4470331
            ],
            [
              -39.0637762,
              -16.446961
            ],
            [
              -39.063913,
              -16.4468527
            ]
          ]
        ]
      }
    },
    {
      "type": "Feature",
      "id": "way/1311333519",
      "properties": {
        "timestamp": "2024-08-30T13:43:53Z",
        "version": 2,
        "changeset": 155975091,
        "addr:city": "Porto Seguro",
        "addr:postcode": "45810-000",
        "addr:street": "Rua da Vala",
        "addr:suburb": "Centro",
        "building": "yes",
        "email": "paulinhotoatoa@portosegurotur.com",
        "government": "healthcare",
        "name": "Secretaria Municipal de Saúde de Porto Seguro",
        "office": "government",
        "opening_hours": "Mo-Fr 08:00-17:00",
        "phone": "+55 73 3012 0017",
        "id": "way/1311333519"
      },
      "geometry": {
        "type": "Polygon",
        "coordinates": [
          [
            [
              -39.0666481,
              -16.447299
            ],
            [
              -39.0670512,
              -16.4475964
            ],
            [
              -39.0668921,
              -16.4477946
            ],
            [
              -39.0667829,
              -16.447714
            ],
            [
              -39.0668755,
              -16.4475987
            ],
            [
              -39.0668399,
              -16.4475724
            ],
            [
              -39.0667481,
              -16.4476867
            ],
            [
              -39.066635,
              -16.4476032
            ],
            [
              -39.0666952,
              -16.4475282
            ],
            [
              -39.0666644,
              -16.4475054
            ],
            [
              -39.0666005,
              -16.4475851
            ],
            [
              -39.0664862,
              -16.4475008
            ],
            [
              -39.0666481,
              -16.447299
            ]
          ]
        ]
      }
    },
    {
      "type": "Feature",
      "id": "node/4067090108",
      "properties": {
        "timestamp": "2016-03-18T19:06:20Z",
        "version": 1,
        "changeset": 37925886,
        "name": "Centro de Documentação e Memorial Regional",
        "office": "government",
        "short_name": "Cedoc",
        "id": "node/4067090108"
      },
      "geometry": {
        "type": "Point",
        "coordinates": [
          -39.0651861,
          -16.4380005
        ]
      }
    },
    {
      "type": "Feature",
      "id": "node/11125452848",
      "properties": {
        "timestamp": "2023-08-19T02:00:10Z",
        "version": 3,
        "changeset": 140078888,
        "addr:city": "Porto Seguro",
        "addr:housenumber": "48",
        "addr:postcode": "45810-000",
        "addr:street": "Rua Pero Vaz de Caminha",
        "addr:suburb": "Centro",
        "government": "tax",
        "name": "Inspetoria da Receita Federal do Brasil em Porto Seguro",
        "office": "government",
        "operator": "Receita Federal do Brasil",
        "id": "node/11125452848"
      },
      "geometry": {
        "type": "Point",
        "coordinates": [
          -39.0659884,
          -16.450358
        ]
      }
    },
    {
      "type": "Feature",
      "id": "node/11125642361",
      "properties": {
        "timestamp": "2023-08-18T17:11:25Z",
        "version": 1,
        "changeset": 140066968,
        "addr:city": "Porto Seguro",
        "addr:postcode": "45810-000",
        "addr:street": "Rua Antônio Osório Menezes Batista",
        "addr:suburb": "Centro",
        "government": "administrative",
        "name": "Secretaria Municipal de Planejamento de Porto Seguro",
        "office": "government",
        "id": "node/11125642361"
      },
      "geometry": {
        "type": "Point",
        "coordinates": [
          -39.0640302,
          -16.4492132
        ]
      }
    },
    {
      "type": "Feature",
      "id": "node/12146259100",
      "properties": {
        "timestamp": "2024-08-30T14:24:25Z",
        "version": 1,
        "changeset": 155976888,
        "addr:city": "Porto Seguro",
        "addr:housenumber": "48",
        "addr:postcode": "45810-000",
        "addr:street": "Travessa Manuel Cancela",
        "addr:suburb": "Centro",
        "government": "administrative",
        "name": "Secretaria Municipal de Administração e Patrimônio Público",
        "office": "government",
        "opening_hours": "Mo-Fr 09:00-14:00",
        "phone": "+55 73 3012 0017",
        "id": "node/12146259100"
      },
      "geometry": {
        "type": "Point",
        "coordinates": [
          -39.0637008,
          -16.4479983
        ]
      }
    }
  ]
}
