{
  "type": "FeatureCollection",
  "features": [
    {
      "type": "Feature",
      "id": "way/246601237",
      "properties": {
        "timestamp": "2022-05-09T09:51:50Z",
        "version": 7,
        "changeset": 120739344,
        "addr:city": "Colombo",
        "addr:postcode": "83411-510",
        "addr:street": "Rua Francisco Caetano Coradim",
        "name": "Hotel Estância Betânia",
        "phone": "+55 41 3666-4383",
        "source": "Personal experience",
        "tourism": "hotel",
        "website": "https://www.estanciabetania.com.br/",
        "id": "way/246601237"
      },
      "geometry": {
        "type": "Polygon",
        "coordinates": [
          [
            [
              -49.1282424,
              -25.3105306
            ],
            [
              -49.1286501,
              -25.3126062
            ],
            [
              -49.1275085,
              -25.3132094
            ],
            [
              -49.1261352,
              -25.3125111
            ],
            [
              -49.1282424,
              -25.3105306
            ]
          ]
        ]
      }
    },
    {
      "type": "Feature",
      "id": "node/3672680525",
      "properties": {
        "timestamp": "2019-08-03T22:01:57Z",
        "version": 4,
        "changeset": 72978339,
        "addr:city": "Campina Grande do Sul",
        "addr:street": "Rodovia Régis Bittencourt",
        "email": "p.palhoca@hotmail.com",
        "name": "Hotel Palhoça",
        "phone": "+55 41 99188-4219",
        "tourism": "hotel",
        "id": "node/3672680525"
      },
      "geometry": {
        "type": "Point",
        "coordinates": [
          -48.6755933,
          -25.1007125
        ]
      }
    },
    {
      "type": "Feature",
      "id": "node/3720557864",
      "properties": {
        "timestamp": "2021-02-25T18:30:53Z",
        "version": 5,
        "changeset": 99996922,
        "addr:city": "Campina Grande do Sul",
        "addr:housename": "BR-116 Km 42",
        "addr:postcode": "83430-000",
        "addr:street": "Estrada Municipal Antônio Kovalski",
        "contact:email": "centraldereservas@plazahoteis.com.br",
        "contact:facebook": "https://www.facebook.com/RedePlazaDeHoteis",
        "contact:instagram": "plazahoteis",
        "contact:linkedin": "rede-plaza-de-hot-is",
        "contact:phone": "+55 47 3685-8300;0800 70 75292",
        "contact:twitter": "@plazahoteis",
        "contact:website": "http://www.plazahoteis.com.br",
        "name": "Plaza Ecoresort Capivari",
        "old_name": "Mabu Capivari Eco Resort",
        "source": "survey",
        "tourism": "hotel",
        "id": "node/3720557864"
      },
      "geometry": {
        "type": "Point",
        "coordinates": [
          -48.8725298,
          -25.1877658
        ]
      }
    },
    {
      "type": "Feature",
      "id": "node/6635919996",
      "properties": {
        "timestamp": "2021-11-24T17:45:28Z",
        "version": 4,
        "changeset": 114191707,
        "addr:city": "Campina Grande do Sul",
        "addr:street": "Rodovia Régis Bittencourt",
        "brand": "Rede Mahle",
        "name": "Mahle Comfort - Hotel",
        "phone": "+55  41 3685-1134",
        "tourism": "hotel",
        "id": "node/6635919996"
      },
      "geometry": {
        "type": "Point",
        "coordinates": [
          -48.9050696,
          -25.21795
        ]
      }
    },
    {
      "type": "Feature",
      "id": "node/6805808985",
      "properties": {
        "timestamp": "2019-09-18T14:32:01Z",
        "version": 1,
        "changeset": 74631120,
        "tourism": "hotel",
        "id": "node/6805808985"
      },
      "geometry": {
        "type": "Point",
        "coordinates": [
          -48.8558707,
          -25.1211239
        ]
      }
    }
  ]
}
