{
  "type": "FeatureCollection",
  "features": [
    {
      "type": "Feature",
      "id": "way/557517929",
      "properties": {
        "timestamp": "2018-02-01T01:56:15Z",
        "version": 1,
        "changeset": 55952307,
        "addr:city": "Campina Grande do sul",
        "addr:housenumber": "944",
        "addr:street": "Avenida Presidente Juscelino Kubitschek de Oliveira",
        "addr:suburb": "Jardim Paulista",
        "amenity": "library",
        "building": "yes",
        "internet_access:fee": "yes",
        "name": "Biblioteca Cidadã Jacób José Máschio",
        "id": "way/557517929"
      },
      "geometry": {
        "type": "Polygon",
        "coordinates": [
          [
            [
              -49.1010911,
              -25.361999
            ],
            [
              -49.1010486,
              -25.3622005
            ],
            [
              -49.1008964,
              -25.3621797
            ],
            [
              -49.1009495,
              -25.3619719
            ],
            [
              -49.1010911,
              -25.361999
            ]
          ]
        ]
      }
    }
  ]
}
