{
  "type": "FeatureCollection",
  "features": [
    {
      "type": "Feature",
      "id": "node/7785742863",
      "properties": {
        "timestamp": "2020-08-04T22:28:31Z",
        "version": 1,
        "changeset": 88950136,
        "addr:city": "Santa Rita de Cassia - BA",
        "addr:postcode": "47150-000",
        "addr:street": "Fazenda Poço Fundo",
        "addr:suburb": "Zona Rural",
        "amenity": "social_facility",
        "description": "Venda de bovinos, caprinos e suínos",
        "email": "pocofundofazenda@gmail.com",
        "internet_access": "yes",
        "name": "Fazenda Poço Fundo",
        "opening_hours": "Mo-Fr 09:00-17:00",
        "operator": "Heriberto",
        "operator:type": "private",
        "social_facility": "food_bank",
        "social_facility:for": "community",
        "id": "node/7785742863"
      },
      "geometry": {
        "type": "Point",
        "coordinates": [
          -44.4665046,
          -11.0039848
        ]
      }
    }
  ]
}
