{
  "type": "FeatureCollection",
  "features": [
    {
      "type": "Feature",
      "id": "node/4572982431",
      "properties": {
        "timestamp": "2022-02-20T14:40:55Z",
        "version": 3,
        "changeset": 117641676,
        "addr:city": "Santa Teresa",
        "addr:housenumber": "1428",
        "addr:postcode": "29650-000",
        "addr:street": "Rua São Lourenço",
        "addr:suburb": "São Lourenço",
        "email": "pousadapietrobelli@pousadapietrobelli.com.br",
        "guest_house": "agritourism",
        "name": "Pousada Pietrobelli",
        "operator": "Pousada Pietrobelli Limitada",
        "phone": "+55 27 3259 3333;+55 27 99913 3333",
        "tourism": "guest_house",
        "website": "http://www.pousadapietrobelli.com.br/",
        "id": "node/4572982431"
      },
      "geometry": {
        "type": "Point",
        "coordinates": [
          -40.6126297,
          -19.9317913
        ]
      }
    },
    {
      "type": "Feature",
      "id": "node/9517916007",
      "properties": {
        "timestamp": "2022-02-18T22:01:51Z",
        "version": 1,
        "changeset": 117583550,
        "addr:city": "Santa Teresa",
        "addr:postcode": "29650-000",
        "addr:street": "Rodovia Estadual ES-080",
        "addr:suburb": "Santo Antônio da Penha",
        "guest_house": "agritourism",
        "mobile": "+55 27 99943 5586",
        "name": "Pousada Vale dos Pássaros",
        "operator": "Vale dos Pássaros Pousada e Spa Limitada",
        "tourism": "guest_house",
        "id": "node/9517916007"
      },
      "geometry": {
        "type": "Point",
        "coordinates": [
          -40.5495308,
          -19.9580327
        ]
      }
    },
    {
      "type": "Feature",
      "id": "node/9517917623",
      "properties": {
        "timestamp": "2022-02-18T22:01:51Z",
        "version": 1,
        "changeset": 117583550,
        "addr:city": "Santa Teresa",
        "addr:postcode": "29650-000",
        "addr:street": "Estrada Para Aparecidinha",
        "addr:suburb": "Aparecidinha",
        "guest_house": "agritourism",
        "mobile": "+55 27 99950 6782",
        "name": "Pousada Villa Theodora",
        "tourism": "guest_house",
        "id": "node/9517917623"
      },
      "geometry": {
        "type": "Point",
        "coordinates": [
          -40.6137509,
          -19.9637793
        ]
      }
    },
    {
      "type": "Feature",
      "id": "node/9517917700",
      "properties": {
        "timestamp": "2022-02-18T22:01:51Z",
        "version": 1,
        "changeset": 117583550,
        "addr:city": "Santa Teresa",
        "addr:housenumber": "122",
        "addr:postcode": "29650-000",
        "addr:street": "Avenida das Acácias",
        "addr:suburb": "Jardim da Montanha",
        "email": "pousadailconventino@hotmail.com",
        "guest_house": "agritourism",
        "name": "Pousada Buffet Il Conventino",
        "operator": "Pousada Moschen & Carreta Limitada",
        "phone": "+55 27 3259 3638",
        "tourism": "guest_house",
        "id": "node/9517917700"
      },
      "geometry": {
        "type": "Point",
        "coordinates": [
          -40.5893583,
          -19.9407238
        ]
      }
    },
    {
      "type": "Feature",
      "id": "node/9517917709",
      "properties": {
        "timestamp": "2022-02-18T22:01:51Z",
        "version": 1,
        "changeset": 117583550,
        "addr:city": "Santa Teresa",
        "addr:housenumber": "191",
        "addr:postcode": "29650-000",
        "addr:street": "Rua Luigi Angeli",
        "addr:suburb": "São Lourenço",
        "email": "pousadacaravaggio@hotmail.com",
        "guest_house": "agritourism",
        "mobile": "+55 27 99825 2238",
        "name": "Pousada Caravaggio",
        "phone": "+55 27 3259 2238",
        "tourism": "guest_house",
        "website": "https://www.pousadacaravaggio.com.br/",
        "id": "node/9517917709"
      },
      "geometry": {
        "type": "Point",
        "coordinates": [
          -40.6224508,
          -19.9302183
        ]
      }
    },
    {
      "type": "Feature",
      "id": "node/9517917712",
      "properties": {
        "timestamp": "2022-02-21T21:19:34Z",
        "version": 2,
        "changeset": 117701370,
        "addr:city": "Santa Teresa",
        "addr:housenumber": "141",
        "addr:postcode": "29650-000",
        "addr:street": "Avenida Ângelo Pretti",
        "addr:suburb": "Centro",
        "email": "sperandiocostalex@yahoo.com.br",
        "guest_house": "agritourism",
        "name": "Pousada Piemonte",
        "operator": "Alexandre Sperandio Costa",
        "phone": "+55 27 3259 2436",
        "rooms": "8",
        "tourism": "guest_house",
        "id": "node/9517917712"
      },
      "geometry": {
        "type": "Point",
        "coordinates": [
          -40.6022129,
          -19.9312566
        ]
      }
    },
    {
      "type": "Feature",
      "id": "node/9520450025",
      "properties": {
        "timestamp": "2022-02-19T20:42:17Z",
        "version": 1,
        "changeset": 117618746,
        "addr:city": "Santa Teresa",
        "addr:housenumber": "14",
        "addr:postcode": "29650-000",
        "addr:street": "Ladeira Virgílio Lambert",
        "addr:suburb": "Centro",
        "email": "celia.giuberti@gmail.com",
        "guest_house": "agritourism",
        "name": "Casa da Nonna Pousada",
        "operator": "Celia Maria Giuberti Perini",
        "phone": "+55 27 99941 5179",
        "tourism": "guest_house",
        "id": "node/9520450025"
      },
      "geometry": {
        "type": "Point",
        "coordinates": [
          -40.5999569,
          -19.9322534
        ]
      }
    },
    {
      "type": "Feature",
      "id": "node/9520450030",
      "properties": {
        "timestamp": "2022-02-19T20:42:17Z",
        "version": 1,
        "changeset": 117618746,
        "addr:city": "Santa Teresa",
        "addr:housenumber": "1040",
        "addr:postcode": "29650-000",
        "addr:street": "Rua Cizela Ferrari de Souza",
        "addr:suburb": "São Lourenço",
        "email": "amanda_sotelle@hotmail.com",
        "guest_house": "agritourism",
        "name": "Casas Eleganza",
        "operator": "Amanda Sotelle Manhani Dalmaschio",
        "phone": "+55 27 99890 8063",
        "tourism": "guest_house",
        "id": "node/9520450030"
      },
      "geometry": {
        "type": "Point",
        "coordinates": [
          -40.6082821,
          -19.9326252
        ]
      }
    },
    {
      "type": "Feature",
      "id": "node/9520464641",
      "properties": {
        "timestamp": "2022-02-19T20:42:17Z",
        "version": 1,
        "changeset": 117618746,
        "addr:city": "Santa Teresa",
        "addr:postcode": "29650-000",
        "addr:street": "Estrada para Valsugana",
        "addr:suburb": "Córrego Valsugana Velha",
        "guest_house": "agritourism",
        "name": "Kastellus Cama & Café",
        "tourism": "guest_house",
        "id": "node/9520464641"
      },
      "geometry": {
        "type": "Point",
        "coordinates": [
          -40.5478142,
          -19.970613
        ]
      }
    }
  ]
}
