{
  "type": "FeatureCollection",
  "features": [
    {
      "type": "Feature",
      "id": "node/2411971174",
      "properties": {
        "timestamp": "2022-02-13T21:48:01Z",
        "version": 2,
        "changeset": 117370576,
        "addr:city": "Santa Teresa",
        "addr:housenumber": "400",
        "addr:postcode": "29650-000",
        "addr:street": "Avenida dos Manacás",
        "addr:suburb": "Jardim da Montanha",
        "email": "solardoscolibris@hotelsolardoscolibris.com.br",
        "mobile": "+55 27  99958 2111",
        "name": "Hotel Solar dos Colibris",
        "operator": "Solar dos Colibris Hóteis e Turismo Limitada",
        "phone": "+55 27 3259 2200",
        "tourism": "hotel",
        "website": "https://www.hotelsolardoscolibris.com.br/",
        "id": "node/2411971174"
      },
      "geometry": {
        "type": "Point",
        "coordinates": [
          -40.5846892,
          -19.9429044
        ]
      }
    },
    {
      "type": "Feature",
      "id": "node/4417996584",
      "properties": {
        "timestamp": "2024-10-05T13:35:22Z",
        "version": 5,
        "changeset": 157501518,
        "addr:city": "Santa Teresa ES",
        "addr:housenumber": "km 1",
        "addr:postcode": "29650000",
        "addr:street": "Estrada Rebio Lombardia -Santa Teresa",
        "name": "Pousada Paradiso",
        "tourism": "hotel",
        "id": "node/4417996584"
      },
      "geometry": {
        "type": "Point",
        "coordinates": [
          -40.5903743,
          -19.9259768
        ]
      }
    },
    {
      "type": "Feature",
      "id": "node/9503537965",
      "properties": {
        "timestamp": "2023-12-04T03:48:44Z",
        "version": 2,
        "changeset": 144739061,
        "addr:city": "Santa Teresa",
        "addr:postcode": "29650-000",
        "addr:street": "Ladeira Samuel Antonio Moyses",
        "addr:suburb": "Vila Nova",
        "email": "fazendaclube@fazendaclube.com.br",
        "name": "Fazenda Clube Santa Teresa",
        "phone": "+55 27 3223 4324/3223 2236",
        "tourism": "hotel",
        "website": "https://www.fazendaclube.com.br",
        "id": "node/9503537965"
      },
      "geometry": {
        "type": "Point",
        "coordinates": [
          -40.6078575,
          -19.9457228
        ]
      }
    },
    {
      "type": "Feature",
      "id": "node/9503537987",
      "properties": {
        "timestamp": "2022-02-13T21:48:01Z",
        "version": 1,
        "changeset": 117370576,
        "addr:city": "Santa Teresa",
        "addr:housenumber": "523",
        "addr:postcode": "29650-000",
        "addr:street": "Rua Bernardino Monteiro",
        "addr:suburb": "Dois Pinheiros",
        "brand": "Gustavo Hoffmann Ferrari",
        "name": "Villeta Di Italia",
        "tourism": "hotel",
        "id": "node/9503537987"
      },
      "geometry": {
        "type": "Point",
        "coordinates": [
          -40.5925832,
          -19.9345634
        ]
      }
    },
    {
      "type": "Feature",
      "id": "node/9503537988",
      "properties": {
        "timestamp": "2022-02-13T21:48:01Z",
        "version": 1,
        "changeset": 117370576,
        "addr:city": "Santa Teresa",
        "addr:housenumber": "170",
        "addr:postcode": "29650-000",
        "addr:street": "Rua Orlindo Tonini",
        "addr:suburb": "Dois Pinheiros",
        "name": "Pousada Valle di Trento",
        "tourism": "hotel",
        "id": "node/9503537988"
      },
      "geometry": {
        "type": "Point",
        "coordinates": [
          -40.5911368,
          -19.932929
        ]
      }
    },
    {
      "type": "Feature",
      "id": "node/9520450031",
      "properties": {
        "timestamp": "2022-02-19T20:42:17Z",
        "version": 1,
        "changeset": 117618746,
        "addr:city": "Santa Teresa",
        "addr:housenumber": "310",
        "addr:postcode": "29650-000",
        "addr:street": "Avenida Maria Angélica Vervloet dos Santos",
        "addr:suburb": "Canaã",
        "email": "gbbolonha@limainfo.com.br",
        "mobile": "+55 27 99988 4682",
        "name": "Hotel Canaã",
        "phone": "+55 27 3259 1857",
        "tourism": "hotel",
        "id": "node/9520450031"
      },
      "geometry": {
        "type": "Point",
        "coordinates": [
          -40.5973642,
          -19.9266307
        ]
      }
    },
    {
      "type": "Feature",
      "id": "node/9520450032",
      "properties": {
        "timestamp": "2022-02-19T20:42:17Z",
        "version": 1,
        "changeset": 117618746,
        "addr:city": "Santa Teresa",
        "addr:postcode": "29650-000",
        "addr:street": "Rodovia Enrico Aurélio Hildebrando Ruschi",
        "addr:suburb": "Penha",
        "email": "gbbolonha@limainfo.com.br",
        "name": "Hotel Bella Montagna",
        "operator": "Elsa Marisa Cattafesta Guertler",
        "phone": "+55 27 3259 1857",
        "tourism": "hotel",
        "id": "node/9520450032"
      },
      "geometry": {
        "type": "Point",
        "coordinates": [
          -40.5832576,
          -19.9410768
        ]
      }
    },
    {
      "type": "Feature",
      "id": "node/9520464640",
      "properties": {
        "timestamp": "2022-02-21T07:41:44Z",
        "version": 2,
        "changeset": 117667042,
        "addr:city": "Santa Teresa",
        "addr:country": "BR",
        "addr:housenumber": "173",
        "addr:postcode": "29650-000",
        "addr:street": "Rua Ricardo Pasoline",
        "addr:suburb": "Centro",
        "contact:email": "hotelsantateresa2014@hotmail.com",
        "contact:phone": "+55 27 3259 3400",
        "name": "Hotel Santa Teresa",
        "operator": "Hotel Santa Teresa Limitada",
        "tourism": "hotel",
        "id": "node/9520464640"
      },
      "geometry": {
        "type": "Point",
        "coordinates": [
          -40.5994694,
          -19.9304418
        ]
      }
    },
    {
      "type": "Feature",
      "id": "node/9520732261",
      "properties": {
        "timestamp": "2022-02-21T07:43:28Z",
        "version": 2,
        "changeset": 117667099,
        "addr:city": "Santa Teresa",
        "addr:country": "BR",
        "addr:housenumber": "115",
        "addr:postcode": "29650-000",
        "addr:street": "Avenida Getúlio Vargas",
        "addr:suburb": "Centro",
        "contact:phone": "+55 27 3259 1233",
        "name": "Pierazzo Hotel",
        "operator": "Magaly Sperandio",
        "tourism": "hotel",
        "id": "node/9520732261"
      },
      "geometry": {
        "type": "Point",
        "coordinates": [
          -40.6006546,
          -19.9327177
        ]
      }
    }
  ]
}
