{
  "type": "FeatureCollection",
  "features": [
    {
      "type": "Feature",
      "id": "way/232884144",
      "properties": {
        "timestamp": "2016-02-25T02:03:05Z",
        "version": 3,
        "changeset": 37426154,
        "IJSN:administra": "Estadual",
        "IJSN:classeCnae": "Fundamental e Médio",
        "addr:city": "Santa Teresa",
        "addr:housenumber": "978",
        "addr:postcode": "29650-000",
        "addr:street": "Avenida Barão Orlando Bonfim",
        "addr:suburb": "Vila Nova",
        "alt_name": "Escola Estadual de Ensino Fundamental e Médio",
        "amenity": "school",
        "contact:phone": "(27) 3259-2306",
        "name": "EEEFM José Pinto Coelho",
        "source": "IJSN",
        "id": "way/232884144"
      },
      "geometry": {
        "type": "Polygon",
        "coordinates": [
          [
            [
              -40.6095238,
              -19.9396483
            ],
            [
              -40.6095282,
              -19.9397416
            ],
            [
              -40.609322,
              -19.9397502
            ],
            [
              -40.6093256,
              -19.9398279
            ],
            [
              -40.6095421,
              -19.939819
            ],
            [
              -40.6095474,
              -19.9399324
            ],
            [
              -40.6090468,
              -19.9399529
            ],
            [
              -40.6090415,
              -19.9398376
            ],
            [
              -40.6091758,
              -19.9398321
            ],
            [
              -40.6091723,
              -19.9397584
            ],
            [
              -40.609021,
              -19.9397646
            ],
            [
              -40.6090166,
              -19.9396692
            ],
            [
              -40.6095238,
              -19.9396483
            ]
          ]
        ]
      }
    },
    {
      "type": "Feature",
      "id": "way/382366436",
      "properties": {
        "timestamp": "2016-02-25T02:03:19Z",
        "version": 2,
        "changeset": 37426154,
        "IJSN:administra": "Municipal",
        "IJSN:classeCnae": "Infantil e Fundamental",
        "addr:city": "Santa Teresa",
        "addr:postcode": "29662-000",
        "addr:street": "Rua São Paulo",
        "addr:suburb": "Comunidade Alto Santa Maria",
        "alt_name": "Escola Municipal de Ensino Infantil e Fundamental",
        "amenity": "school",
        "contact:phone": "(27) 3259-5041",
        "name": "EMEIEF Sebastião José Pivetta",
        "source": "IJSN",
        "id": "way/382366436"
      },
      "geometry": {
        "type": "Polygon",
        "coordinates": [
          [
            [
              -40.7631689,
              -19.8954758
            ],
            [
              -40.7630543,
              -19.8959685
            ],
            [
              -40.7626749,
              -19.8958823
            ],
            [
              -40.7627565,
              -19.8957087
            ],
            [
              -40.7625919,
              -19.8956737
            ],
            [
              -40.7626835,
              -19.8953735
            ],
            [
              -40.7631689,
              -19.8954758
            ]
          ]
        ]
      }
    },
    {
      "type": "Feature",
      "id": "way/980144935",
      "properties": {
        "timestamp": "2021-09-06T14:36:41Z",
        "version": 1,
        "changeset": 110807484,
        "IJSN:administra": "Municipal",
        "IJSN:classeCnae": "Infantil e Fundamental",
        "addr:city": "Santa Teresa",
        "addr:postcode": "29656-000",
        "addr:suburb": "Alto Caldeirão",
        "alt_name": "Escola Municipal de Ensino Infantil e Fundamental",
        "amenity": "school",
        "building": "yes",
        "building:levels": "2",
        "contact:phone": "(27) 3259-9606",
        "name": "EMEIEF Paulino Roncon",
        "source": "IJSN",
        "id": "way/980144935"
      },
      "geometry": {
        "type": "Polygon",
        "coordinates": [
          [
            [
              -40.742428,
              -19.9543397
            ],
            [
              -40.7424154,
              -19.9544394
            ],
            [
              -40.7423915,
              -19.9544367
            ],
            [
              -40.7423844,
              -19.9544928
            ],
            [
              -40.7419918,
              -19.9544493
            ],
            [
              -40.7419974,
              -19.9544047
            ],
            [
              -40.7419378,
              -19.9543981
            ],
            [
              -40.7419518,
              -19.9542868
            ],
            [
              -40.742428,
              -19.9543397
            ]
          ]
        ]
      }
    },
    {
      "type": "Feature",
      "id": "way/1030922250",
      "properties": {
        "timestamp": "2022-02-13T21:48:01Z",
        "version": 2,
        "changeset": 117370576,
        "addr:city": "Santa Teresa",
        "addr:housenumber": "682",
        "addr:postcode": "29650-000",
        "addr:street": "Rua Bernardino Monteiro",
        "addr:suburb": "Dois Pinheiros",
        "amenity": "school",
        "name": "Unidade do Senac Santa Teresa",
        "operator": "Serviço Nacional de Aprendizagem Comercial do Espírito Santo",
        "operator:type": "government",
        "phone": "+55 27 3259 9450",
        "id": "way/1030922250"
      },
      "geometry": {
        "type": "Polygon",
        "coordinates": [
          [
            [
              -40.5923598,
              -19.9360904
            ],
            [
              -40.591408,
              -19.9364024
            ],
            [
              -40.5912046,
              -19.9358223
            ],
            [
              -40.5921017,
              -19.935476
            ],
            [
              -40.5923598,
              -19.9360904
            ]
          ]
        ]
      }
    },
    {
      "type": "Feature",
      "id": "node/2412005860",
      "properties": {
        "timestamp": "2013-08-09T13:16:09Z",
        "version": 1,
        "changeset": 17278760,
        "amenity": "school",
        "id": "node/2412005860"
      },
      "geometry": {
        "type": "Point",
        "coordinates": [
          -40.600769,
          -19.9335648
        ]
      }
    },
    {
      "type": "Feature",
      "id": "node/2412005884",
      "properties": {
        "timestamp": "2013-08-09T13:16:10Z",
        "version": 1,
        "changeset": 17278760,
        "amenity": "school",
        "id": "node/2412005884"
      },
      "geometry": {
        "type": "Point",
        "coordinates": [
          -40.6008388,
          -19.9338422
        ]
      }
    },
    {
      "type": "Feature",
      "id": "node/2412010366",
      "properties": {
        "timestamp": "2022-02-13T21:48:01Z",
        "version": 2,
        "changeset": 117370576,
        "addr:city": "Santa Teresa",
        "addr:postcode": "29650-000",
        "addr:street": "Avenida Ângelo Pretti",
        "addr:suburb": "Centro",
        "amenity": "school",
        "name": "Agência de Treinamento da Findes",
        "operator": "Federação das Indústrias do Espírito Santo - Findes",
        "operator:type": "government",
        "id": "node/2412010366"
      },
      "geometry": {
        "type": "Point",
        "coordinates": [
          -40.6044621,
          -19.9315706
        ]
      }
    },
    {
      "type": "Feature",
      "id": "node/4024904801",
      "properties": {
        "timestamp": "2016-02-25T01:59:32Z",
        "version": 1,
        "changeset": 37426154,
        "IJSN:administra": "Estadual",
        "IJSN:classeCnae": "Fundamental e Médio",
        "addr:city": "Santa Teresa",
        "addr:postcode": "29660-000",
        "addr:street": "Rua Projetada",
        "addr:suburb": "Comunidade São João de Petrópolis",
        "alt_name": "Escola Estadual de Ensino Fundamental e Médio",
        "amenity": "school",
        "contact:phone": "(27) 3259-6314 / 3259-6172",
        "name": "EEEFM Frederico Pretti",
        "source": "IJSN",
        "id": "node/4024904801"
      },
      "geometry": {
        "type": "Point",
        "coordinates": [
          -40.6774356,
          -19.8130914
        ]
      }
    },
    {
      "type": "Feature",
      "id": "node/4024905045",
      "properties": {
        "timestamp": "2022-02-12T13:38:05Z",
        "version": 2,
        "changeset": 117321784,
        "IJSN:administra": "Estadual",
        "IJSN:classeCnae": "Fundamental",
        "addr:city": "Santa Teresa",
        "addr:postcode": "29650-000",
        "addr:street": "Rua Assentamento Tomazini",
        "addr:suburb": "Córrego Seco de São João",
        "alt_name": "Escola Estadual Unidocente de Ensino Fundamental",
        "amenity": "school",
        "name": "EEUEF Maria Julita",
        "source": "IJSN",
        "id": "node/4024905045"
      },
      "geometry": {
        "type": "Point",
        "coordinates": [
          -40.6329479,
          -19.7982219
        ]
      }
    },
    {
      "type": "Feature",
      "id": "node/4024905259",
      "properties": {
        "timestamp": "2016-02-25T02:00:14Z",
        "version": 1,
        "changeset": 37426154,
        "IJSN:administra": "Municipal",
        "IJSN:classeCnae": "Fundamental",
        "addr:city": "Santa Teresa",
        "addr:postcode": "29654-000",
        "addr:street": "Rua 14 de Julho",
        "addr:suburb": "Santo Antônio do Canaã",
        "alt_name": "Escola Municipal de Ensino Fundamental",
        "amenity": "school",
        "contact:phone": "(27) 3259-6330",
        "name": "EMEF Antônio Valesini",
        "source": "IJSN",
        "id": "node/4024905259"
      },
      "geometry": {
        "type": "Point",
        "coordinates": [
          -40.654465,
          -19.8232532
        ]
      }
    },
    {
      "type": "Feature",
      "id": "node/4024905662",
      "properties": {
        "timestamp": "2016-02-25T02:00:49Z",
        "version": 1,
        "changeset": 37426154,
        "IJSN:administra": "Municipal",
        "IJSN:classeCnae": "Fundamental",
        "addr:city": "Santa Teresa",
        "addr:housenumber": "1060",
        "addr:postcode": "29650-000",
        "addr:street": "Rodovia Josil Espíndula Agostini",
        "addr:suburb": "Residência",
        "alt_name": "Escola Municipal de Ensino Fundamental",
        "amenity": "school",
        "contact:phone": "(27) 3259-3612",
        "name": "EMEF Professor Ethevaldo Damazio",
        "source": "IJSN",
        "id": "node/4024905662"
      },
      "geometry": {
        "type": "Point",
        "coordinates": [
          -40.5818827,
          -19.9420082
        ]
      }
    },
    {
      "type": "Feature",
      "id": "node/4024905933",
      "properties": {
        "timestamp": "2016-02-25T02:01:17Z",
        "version": 1,
        "changeset": 37426154,
        "IJSN:administra": "Municipal",
        "IJSN:classeCnae": "Infantil e Fundamental",
        "addr:city": "Santa Teresa",
        "addr:postcode": "29652-000",
        "addr:suburb": "Comunidade Vinte e Cinco de Julho",
        "alt_name": "Escola Municipal de Ensino Infantil e Fundamental",
        "amenity": "school",
        "contact:phone": "(27) 3770-4121",
        "name": "EMEIEF Professor Hausler",
        "source": "IJSN",
        "id": "node/4024905933"
      },
      "geometry": {
        "type": "Point",
        "coordinates": [
          -40.6089198,
          -19.7779797
        ]
      }
    },
    {
      "type": "Feature",
      "id": "node/4024905958",
      "properties": {
        "timestamp": "2016-02-25T02:01:21Z",
        "version": 1,
        "changeset": 37426154,
        "IJSN:administra": "Municipal",
        "IJSN:classeCnae": "Infantil e Fundamental",
        "addr:city": "Santa Teresa",
        "addr:postcode": "29650-000",
        "addr:suburb": "Comunidade Tabocas",
        "alt_name": "Escola Municipal de Ensino Infantil e Fundamental",
        "amenity": "school",
        "name": "EMEIEF Vale de Tabocas",
        "source": "IJSN",
        "id": "node/4024905958"
      },
      "geometry": {
        "type": "Point",
        "coordinates": [
          -40.6943832,
          -19.9135272
        ]
      }
    },
    {
      "type": "Feature",
      "id": "node/4024905960",
      "properties": {
        "timestamp": "2016-02-25T02:01:21Z",
        "version": 1,
        "changeset": 37426154,
        "IJSN:administra": "Municipal",
        "IJSN:classeCnae": "Infantil e Fundamental",
        "addr:city": "Santa Teresa",
        "addr:housenumber": "186",
        "addr:postcode": "29654-000",
        "addr:street": "Rua 25 de Março",
        "addr:suburb": "Comunidade Santo Antônio do Canaã",
        "alt_name": "Escola Municipal de Ensino Infantil e Fundamental",
        "amenity": "school",
        "contact:phone": "(27) 3259-6334",
        "name": "EMEIEF Visconde de Inhaúma",
        "source": "IJSN",
        "id": "node/4024905960"
      },
      "geometry": {
        "type": "Point",
        "coordinates": [
          -40.6546661,
          -19.8254688
        ]
      }
    },
    {
      "type": "Feature",
      "id": "node/4024906179",
      "properties": {
        "timestamp": "2016-02-25T02:01:40Z",
        "version": 1,
        "changeset": 37426154,
        "IJSN:administra": "Municipal",
        "IJSN:classeCnae": "Infantil e Fundamental",
        "addr:city": "Santa Teresa",
        "addr:postcode": "29662-000",
        "addr:suburb": "Comunidade Alto Varzea Alegre",
        "alt_name": "Escola Municipal de Ensino Infantil Pluridocente e Ensino Fundamental",
        "amenity": "school",
        "name": "EMPEIEF Alto Várzea Alegre",
        "source": "IJSN",
        "id": "node/4024906179"
      },
      "geometry": {
        "type": "Point",
        "coordinates": [
          -40.8008345,
          -19.8880349
        ]
      }
    },
    {
      "type": "Feature",
      "id": "node/4024906182",
      "properties": {
        "timestamp": "2016-02-25T02:01:41Z",
        "version": 1,
        "changeset": 37426154,
        "IJSN:administra": "Municipal",
        "IJSN:classeCnae": "Infantil e Fundamental",
        "addr:city": "Santa Teresa",
        "addr:postcode": "29662-000",
        "addr:street": "Rodovia ES - 260",
        "addr:suburb": "Comunidade Córrego Frio",
        "alt_name": "Escola Municipal de Ensino Infantil Pluridocente e Ensino Fundamental",
        "amenity": "school",
        "name": "EMPEIEF Córrego Frio",
        "source": "IJSN",
        "id": "node/4024906182"
      },
      "geometry": {
        "type": "Point",
        "coordinates": [
          -40.7747542,
          -19.8324452
        ]
      }
    },
    {
      "type": "Feature",
      "id": "node/4024906183",
      "properties": {
        "timestamp": "2016-02-25T02:01:41Z",
        "version": 1,
        "changeset": 37426154,
        "IJSN:administra": "Municipal",
        "IJSN:classeCnae": "Infantil e Fundamental",
        "addr:city": "Santa Teresa",
        "addr:postcode": "29662-000",
        "addr:suburb": "Comunidade Pedra Alegre",
        "alt_name": "Escola Municipal de Ensino Infantil Pluridocente e Ensino Fundamental",
        "amenity": "school",
        "name": "EMPEIEF Geralda Rodrigues Sarmento",
        "source": "IJSN",
        "id": "node/4024906183"
      },
      "geometry": {
        "type": "Point",
        "coordinates": [
          -40.8202985,
          -19.8668522
        ]
      }
    },
    {
      "type": "Feature",
      "id": "node/4024906184",
      "properties": {
        "timestamp": "2016-02-25T02:01:41Z",
        "version": 1,
        "changeset": 37426154,
        "IJSN:administra": "Municipal",
        "IJSN:classeCnae": "Infantil e Fundamental",
        "addr:city": "Santa Teresa",
        "addr:postcode": "29650-000",
        "addr:suburb": "Comunidade Goiapaba- Açu",
        "alt_name": "Escola Municipal de Ensino Infantil Pluridocente e Ensino Fundamental",
        "amenity": "school",
        "name": "EMPEIEF Goiapoboaçu",
        "source": "IJSN",
        "id": "node/4024906184"
      },
      "geometry": {
        "type": "Point",
        "coordinates": [
          -40.4869761,
          -19.914397
        ]
      }
    },
    {
      "type": "Feature",
      "id": "node/4024906217",
      "properties": {
        "timestamp": "2016-02-25T02:01:46Z",
        "version": 1,
        "changeset": 37426154,
        "IJSN:administra": "Municipal",
        "IJSN:classeCnae": "Fundamental",
        "addr:city": "Santa Teresa",
        "addr:postcode": "29662-000",
        "addr:street": "Rodovia ES - 260",
        "addr:suburb": "Comunidade Itanhangá",
        "alt_name": "Escola Municipal Unidocente de Ensino Fundamental",
        "amenity": "school",
        "name": "EMUEF Alto Rio Perdido",
        "source": "IJSN",
        "id": "node/4024906217"
      },
      "geometry": {
        "type": "Point",
        "coordinates": [
          -40.7813902,
          -19.8528678
        ]
      }
    },
    {
      "type": "Feature",
      "id": "node/4024906218",
      "properties": {
        "timestamp": "2016-02-25T02:01:46Z",
        "version": 1,
        "changeset": 37426154,
        "IJSN:administra": "Municipal",
        "IJSN:classeCnae": "Fundamental",
        "addr:city": "Santa Teresa",
        "addr:postcode": "29650-000",
        "addr:suburb": "Comunidade Alto Santo Antônio",
        "alt_name": "Escola Municipal Unidocente de Ensino Fundamental",
        "amenity": "school",
        "name": "EMUEF Alto Santo Antônio",
        "source": "IJSN",
        "id": "node/4024906218"
      },
      "geometry": {
        "type": "Point",
        "coordinates": [
          -40.57545,
          -19.8872167
        ]
      }
    },
    {
      "type": "Feature",
      "id": "node/4024906220",
      "properties": {
        "timestamp": "2016-02-25T02:01:46Z",
        "version": 1,
        "changeset": 37426154,
        "IJSN:administra": "Municipal",
        "IJSN:classeCnae": "Fundamental",
        "addr:city": "Santa Teresa",
        "addr:postcode": "29662-000",
        "addr:suburb": "Comunidade Toma Vento",
        "alt_name": "Escola Municipal Unidocente de Ensino Fundamental",
        "amenity": "school",
        "name": "EMUEF Alto Toma Vento",
        "source": "IJSN",
        "id": "node/4024906220"
      },
      "geometry": {
        "type": "Point",
        "coordinates": [
          -40.7924506,
          -19.9156884
        ]
      }
    },
    {
      "type": "Feature",
      "id": "node/4024906325",
      "properties": {
        "timestamp": "2016-02-25T02:02:02Z",
        "version": 1,
        "changeset": 37426154,
        "IJSN:administra": "Municipal",
        "IJSN:classeCnae": "Fundamental",
        "addr:city": "Santa Teresa",
        "addr:postcode": "29662-000",
        "addr:suburb": "Comunidade Itanhangá",
        "alt_name": "Escola Municipal Unidocente de Ensino Fundamental",
        "amenity": "school",
        "name": "EMUEF Itanhangá",
        "source": "IJSN",
        "id": "node/4024906325"
      },
      "geometry": {
        "type": "Point",
        "coordinates": [
          -40.807225,
          -19.8508708
        ]
      }
    },
    {
      "type": "Feature",
      "id": "node/4024906343",
      "properties": {
        "timestamp": "2016-02-25T02:02:05Z",
        "version": 1,
        "changeset": 37426154,
        "IJSN:administra": "Municipal",
        "IJSN:classeCnae": "Fundamental",
        "addr:city": "Santa Teresa",
        "addr:postcode": "29650-000",
        "addr:suburb": "Comunidade Valão de São Pedro",
        "alt_name": "Escola Municipal Unidocente de Ensino Fundamental",
        "amenity": "school",
        "name": "EMUEF Novo Planalto",
        "source": "IJSN",
        "id": "node/4024906343"
      },
      "geometry": {
        "type": "Point",
        "coordinates": [
          -40.6374335,
          -19.9540778
        ]
      }
    },
    {
      "type": "Feature",
      "id": "node/4024906953",
      "properties": {
        "timestamp": "2023-05-09T12:17:03Z",
        "version": 2,
        "changeset": 135893308,
        "IJSN:administra": "Privada",
        "IJSN:classeCnae": "Fundamental e Médio",
        "addr:city": "Santa Teresa",
        "addr:housenumber": "700",
        "addr:postcode": "29650-000",
        "addr:street": "Rua Bernadino Monteiro",
        "addr:suburb": "Dois Pinheiros",
        "amenity": "school",
        "contact:phone": "+55 27 3259 3997",
        "name": "Educandário Seráfico São Francisco de Assis",
        "source": "IJSN",
        "id": "node/4024906953"
      },
      "geometry": {
        "type": "Point",
        "coordinates": [
          -40.5912625,
          -19.9372691
        ]
      }
    },
    {
      "type": "Feature",
      "id": "node/4024906958",
      "properties": {
        "timestamp": "2016-02-25T02:02:52Z",
        "version": 1,
        "changeset": 37426154,
        "IJSN:administra": "Privada",
        "IJSN:classeCnae": "Fundamental",
        "addr:city": "Santa Teresa",
        "addr:housenumber": "114",
        "addr:postcode": "29650-000",
        "addr:street": "Praça Augusto Ruschi",
        "addr:suburb": "Centro",
        "amenity": "school",
        "contact:phone": "(27) 3259-1164",
        "name": "Escola Santa Catarina",
        "source": "IJSN",
        "id": "node/4024906958"
      },
      "geometry": {
        "type": "Point",
        "coordinates": [
          -40.600635,
          -19.9353541
        ]
      }
    }
  ]
}
