{
  "type": "FeatureCollection",
  "features": [
    {
      "type": "Feature",
      "id": "node/2412010371",
      "properties": {
        "timestamp": "2023-02-02T15:57:14Z",
        "version": 3,
        "changeset": 132009182,
        "addr:city": "Santa Teresa",
        "addr:postcode": "29650-000",
        "addr:street": "Avenida Ângelo Pretti",
        "addr:suburb": "Centro",
        "alt_name": "Centro de Referência de Assistência Social de Santa Teresa",
        "amenity": "social_facility",
        "name": "CRAS de Santa Teresa",
        "operator": "Município de Santa Teresa",
        "operator:type": "government",
        "social_facility": "outreach",
        "social_facility:for": "underprivileged",
        "id": "node/2412010371"
      },
      "geometry": {
        "type": "Point",
        "coordinates": [
          -40.6048121,
          -19.931715
        ]
      }
    },
    {
      "type": "Feature",
      "id": "node/3999140688",
      "properties": {
        "timestamp": "2016-02-10T13:37:24Z",
        "version": 1,
        "changeset": 37124622,
        "addr:city": "Santa Teresa",
        "addr:housenumber": "18",
        "addr:postcode": "29650-000",
        "addr:street": "Rua Virgilio Germano Basseti",
        "addr:suburb": "Dois Pinheiros",
        "alt_name": "Centro de Referência de Assistência Social",
        "amenity": "social_facility",
        "contact:phone": "(27) 3259-1100",
        "name": "CRAS - Santa Teresa",
        "social_facility": "outreach",
        "source": "IJSN",
        "id": "node/3999140688"
      },
      "geometry": {
        "type": "Point",
        "coordinates": [
          -40.5954081,
          -19.9407095
        ]
      }
    }
  ]
}
