{
  "type": "FeatureCollection",
  "features": [
    {
      "type": "Feature",
      "id": "way/540434298",
      "properties": {
        "timestamp": "2019-09-10T07:33:17Z",
        "version": 2,
        "changeset": 74293487,
        "addr:street": "Avenida Silva Lobo",
        "building": "yes",
        "name": "TERRITÓRIO AVENTURA",
        "shop": "bicycle",
        "wheelchair": "yes",
        "id": "way/540434298"
      },
      "geometry": {
        "type": "Polygon",
        "coordinates": [
          [
            [
              -43.9705683,
              -19.9358699
            ],
            [
              -43.9705096,
              -19.9359383
            ],
            [
              -43.9702874,
              -19.9357697
            ],
            [
              -43.970346,
              -19.9357013
            ],
            [
              -43.9705683,
              -19.9358699
            ]
          ]
        ]
      }
    },
    {
      "type": "Feature",
      "id": "way/1105966640",
      "properties": {
        "timestamp": "2022-10-22T05:51:44Z",
        "version": 1,
        "changeset": 127909442,
        "building": "yes",
        "name": "Pedalshop",
        "shop": "bicycle",
        "id": "way/1105966640"
      },
      "geometry": {
        "type": "Polygon",
        "coordinates": [
          [
            [
              -43.9763419,
              -19.9280134
            ],
            [
              -43.9761702,
              -19.9279775
            ],
            [
              -43.976187,
              -19.9279066
            ],
            [
              -43.9763587,
              -19.9279425
            ],
            [
              -43.9763419,
              -19.9280134
            ]
          ]
        ]
      }
    },
    {
      "type": "Feature",
      "id": "way/1289381688",
      "properties": {
        "timestamp": "2024-06-04T14:52:50Z",
        "version": 1,
        "changeset": 152247982,
        "addr:city": "Belo Horizonte",
        "addr:housenumber": "35",
        "addr:postcode": "30411-320",
        "addr:street": "Rua Cachoeira do Campo",
        "addr:suburb": "Calafate",
        "building": "yes",
        "name": "Estrada Pedal",
        "opening_hours": "Mo-Fr 08:00-17:00",
        "operator": "Serginho Cesário",
        "shop": "bicycle",
        "id": "way/1289381688"
      },
      "geometry": {
        "type": "Polygon",
        "coordinates": [
          [
            [
              -43.970707,
              -19.9247297
            ],
            [
              -43.9706505,
              -19.9247758
            ],
            [
              -43.9705703,
              -19.9246906
            ],
            [
              -43.9706238,
              -19.9246459
            ],
            [
              -43.970707,
              -19.9247297
            ]
          ]
        ]
      }
    },
    {
      "type": "Feature",
      "id": "node/1087086162",
      "properties": {
        "timestamp": "2023-11-19T01:15:34Z",
        "version": 3,
        "changeset": 144193967,
        "name": "Na Trilha Certa BikeShop",
        "shop": "bicycle",
        "website": "https://www.natrilhacertabikes.com.br/",
        "id": "node/1087086162"
      },
      "geometry": {
        "type": "Point",
        "coordinates": [
          -43.9322796,
          -19.9377363
        ]
      }
    },
    {
      "type": "Feature",
      "id": "node/1828065534",
      "properties": {
        "timestamp": "2012-07-16T21:53:55Z",
        "version": 1,
        "changeset": 12250556,
        "name": "Kiowa Bike",
        "shop": "bicycle",
        "id": "node/1828065534"
      },
      "geometry": {
        "type": "Point",
        "coordinates": [
          -44.0160873,
          -19.9706334
        ]
      }
    },
    {
      "type": "Feature",
      "id": "node/2175095354",
      "properties": {
        "timestamp": "2019-03-04T18:46:09Z",
        "version": 3,
        "changeset": 67778232,
        "addr:housenumber": "868",
        "addr:street": "Rua dos Inconfidentes",
        "name": "Global Bicicletas",
        "shop": "bicycle",
        "website": "https://www.globalbicicletas.com.br/",
        "id": "node/2175095354"
      },
      "geometry": {
        "type": "Point",
        "coordinates": [
          -43.9340522,
          -19.9357551
        ]
      }
    },
    {
      "type": "Feature",
      "id": "node/2296585941",
      "properties": {
        "timestamp": "2013-05-09T02:03:56Z",
        "version": 1,
        "changeset": 16040843,
        "addr:housenumber": "1361",
        "addr:street": "Avenida Silva Lobo",
        "name": "Território Aventura",
        "service:bicycle:repair": "yes",
        "service:bicycle:retail": "yes",
        "shop": "bicycle",
        "source": "Bing;survey",
        "id": "node/2296585941"
      },
      "geometry": {
        "type": "Point",
        "coordinates": [
          -43.9703656,
          -19.9358256
        ]
      }
    },
    {
      "type": "Feature",
      "id": "node/2297719551",
      "properties": {
        "timestamp": "2013-12-03T04:52:45Z",
        "version": 2,
        "changeset": 19245608,
        "addr:housenumber": "592",
        "name": "Global Bicicletas",
        "service:bicycle:retail": "yes",
        "shop": "bicycle",
        "source": "Bing",
        "id": "node/2297719551"
      },
      "geometry": {
        "type": "Point",
        "coordinates": [
          -43.9419958,
          -19.9194458
        ]
      }
    },
    {
      "type": "Feature",
      "id": "node/2310148933",
      "properties": {
        "timestamp": "2022-05-17T13:44:19Z",
        "version": 2,
        "changeset": 121101847,
        "addr:housenumber": "14",
        "addr:postcode": "30330-050",
        "addr:street": "Rua Major Lopes",
        "name": "CicloGiro",
        "opening_hours": "Mo-Fr 08:30-20:00; Sa 08:30-18:00",
        "shop": "bicycle",
        "source": "survey",
        "website": "https://www.ciclogiro.com.br/",
        "id": "node/2310148933"
      },
      "geometry": {
        "type": "Point",
        "coordinates": [
          -43.9375685,
          -19.9414927
        ]
      }
    },
    {
      "type": "Feature",
      "id": "node/2498771331",
      "properties": {
        "timestamp": "2014-03-15T20:51:53Z",
        "version": 2,
        "changeset": 21124519,
        "addr:city": "Belo Horizonte",
        "addr:housenumber": "41",
        "addr:street": "Rua Piaui",
        "name": "Viana",
        "shop": "bicycle",
        "id": "node/2498771331"
      },
      "geometry": {
        "type": "Point",
        "coordinates": [
          -43.9995139,
          -19.8686596
        ]
      }
    },
    {
      "type": "Feature",
      "id": "node/3702860918",
      "properties": {
        "timestamp": "2015-08-18T13:08:21Z",
        "version": 1,
        "changeset": 33414953,
        "addr:housenumber": "270",
        "addr:street": "Avenida Santos Dumont",
        "name": "Bike & Moby",
        "shop": "bicycle",
        "id": "node/3702860918"
      },
      "geometry": {
        "type": "Point",
        "coordinates": [
          -43.936273,
          -19.9160065
        ]
      }
    },
    {
      "type": "Feature",
      "id": "node/3708102283",
      "properties": {
        "timestamp": "2019-03-04T18:45:31Z",
        "version": 4,
        "changeset": 67778201,
        "addr:city": "Belo Horizonte",
        "addr:housenumber": "967",
        "addr:street": "Rua Izabel Bueno",
        "addr:suburb": "Jaraguá",
        "name": "Planet Bike",
        "opening_hours": "09:00-19:00",
        "phone": "+55 31 3441-4716",
        "shop": "bicycle",
        "website": "https://planetbikebh.com.br/",
        "id": "node/3708102283"
      },
      "geometry": {
        "type": "Point",
        "coordinates": [
          -43.9501533,
          -19.8580335
        ]
      }
    },
    {
      "type": "Feature",
      "id": "node/3882235868",
      "properties": {
        "timestamp": "2015-12-07T18:25:25Z",
        "version": 1,
        "changeset": 35811553,
        "name": "Bike",
        "shop": "bicycle",
        "id": "node/3882235868"
      },
      "geometry": {
        "type": "Point",
        "coordinates": [
          -43.9864144,
          -19.8741073
        ]
      }
    },
    {
      "type": "Feature",
      "id": "node/11255208827",
      "properties": {
        "timestamp": "2023-10-11T14:27:42Z",
        "version": 1,
        "changeset": 142439549,
        "name": "Atacadão da Bike",
        "shop": "bicycle",
        "id": "node/11255208827"
      },
      "geometry": {
        "type": "Point",
        "coordinates": [
          -43.9376074,
          -19.9149267
        ]
      }
    }
  ]
}
