{
  "type": "FeatureCollection",
  "features": [
    {
      "type": "Feature",
      "id": "way/116515130",
      "properties": {
        "timestamp": "2016-02-25T02:03:13Z",
        "version": 2,
        "changeset": 37426154,
        "IJSN:administra": "Municipal",
        "IJSN:classeCnae": "Fundamental",
        "addr:city": "Piúma",
        "addr:housenumber": "822",
        "addr:postcode": "29285-000",
        "addr:street": "Rua Herminia Clemente Gonçalves",
        "addr:suburb": "Centro",
        "alt_name": "Escola Municipal de Ensino Fundamental",
        "amenity": "school",
        "contact:phone": "(28) 3520-5338 / 3520-4337",
        "name": "EMEF Lacerda de Aguiar",
        "source": "IJSN",
        "id": "way/116515130"
      },
      "geometry": {
        "type": "Polygon",
        "coordinates": [
          [
            [
              -40.728046,
              -20.8385837
            ],
            [
              -40.7284537,
              -20.8386137
            ],
            [
              -40.7285127,
              -20.838719
            ],
            [
              -40.7285019,
              -20.8389747
            ],
            [
              -40.7280191,
              -20.8389547
            ],
            [
              -40.728046,
              -20.8385837
            ]
          ]
        ]
      }
    },
    {
      "type": "Feature",
      "id": "way/274965059",
      "properties": {
        "timestamp": "2016-02-25T02:03:13Z",
        "version": 2,
        "changeset": 37426154,
        "IJSN:administra": "Municipal",
        "IJSN:classeCnae": "Fundamental",
        "addr:city": "Piúma",
        "addr:housenumber": "15",
        "addr:postcode": "29285-000",
        "addr:street": "Rodovia Jorge Feres",
        "addr:suburb": "Niteroi",
        "alt_name": "Escola Municipal de Ensino Fundamental",
        "amenity": "school",
        "contact:phone": "(28) 3520-3048",
        "name": "EMEF Manoel dos Santos Pedroza",
        "source": "IJSN",
        "id": "way/274965059"
      },
      "geometry": {
        "type": "Polygon",
        "coordinates": [
          [
            [
              -40.7244864,
              -20.8322074
            ],
            [
              -40.7247411,
              -20.8323938
            ],
            [
              -40.7242869,
              -20.8330047
            ],
            [
              -40.724186,
              -20.8329216
            ],
            [
              -40.7242581,
              -20.8325578
            ],
            [
              -40.7243014,
              -20.8324365
            ],
            [
              -40.7244864,
              -20.8322074
            ]
          ]
        ]
      }
    },
    {
      "type": "Feature",
      "id": "way/437524712",
      "properties": {
        "timestamp": "2017-11-16T19:31:23Z",
        "version": 2,
        "changeset": 53853132,
        "amenity": "school",
        "name": "Escola Municipal José de Vargas Scherrer",
        "id": "way/437524712"
      },
      "geometry": {
        "type": "Polygon",
        "coordinates": [
          [
            [
              -40.7319278,
              -20.836317
            ],
            [
              -40.731842,
              -20.837395
            ],
            [
              -40.7314396,
              -20.8372195
            ],
            [
              -40.7315469,
              -20.8362819
            ],
            [
              -40.7319278,
              -20.836317
            ]
          ]
        ]
      }
    },
    {
      "type": "Feature",
      "id": "way/1016514307",
      "properties": {
        "timestamp": "2021-12-29T09:38:46Z",
        "version": 1,
        "changeset": 115508514,
        "addr:city": "Piúma",
        "addr:postcode": "29285-000",
        "addr:street": "Rua Augusto da Costa Oliveira",
        "addr:suburb": "Tamarindo",
        "amenity": "school",
        "building:levels": "2",
        "name": "Centro de Atendimento Educacional Especializado José Vieira Jatobá",
        "operator": "Associação de Pais e Amigos dos Excepcionais - APAE",
        "operator:type": "association",
        "id": "way/1016514307"
      },
      "geometry": {
        "type": "Polygon",
        "coordinates": [
          [
            [
              -40.7229732,
              -20.8391594
            ],
            [
              -40.7227961,
              -20.8391569
            ],
            [
              -40.7228014,
              -20.838975
            ],
            [
              -40.7230507,
              -20.8389806
            ],
            [
              -40.7229732,
              -20.8391594
            ]
          ]
        ]
      }
    },
    {
      "type": "Feature",
      "id": "node/4024904425",
      "properties": {
        "timestamp": "2016-02-25T01:59:19Z",
        "version": 1,
        "changeset": 37426154,
        "IJSN:administra": "Privada",
        "IJSN:classeCnae": "Infantil e Fundamental",
        "addr:city": "Piúma",
        "addr:postcode": "29285-000",
        "addr:street": "Rua João Abraão",
        "addr:suburb": "Praia de Acaiaca",
        "amenity": "school",
        "contact:phone": "(28) 3520-4134",
        "name": "Centro Educacional Paulo Freire",
        "source": "IJSN",
        "id": "node/4024904425"
      },
      "geometry": {
        "type": "Point",
        "coordinates": [
          -40.7357657,
          -20.8410196
        ]
      }
    },
    {
      "type": "Feature",
      "id": "node/4024904842",
      "properties": {
        "timestamp": "2016-02-25T01:59:39Z",
        "version": 1,
        "changeset": 37426154,
        "IJSN:administra": "Estadual",
        "IJSN:classeCnae": "Fundamental e Médio",
        "addr:city": "Piúma",
        "addr:housenumber": "884",
        "addr:postcode": "29285-000",
        "addr:street": "Rua Mimoso do Sul",
        "addr:suburb": "Centro",
        "alt_name": "Escola Estadual de Ensino Fundamental e Médio",
        "amenity": "school",
        "name": "EEEFM Professora Filomena Quitiba",
        "source": "IJSN",
        "id": "node/4024904842"
      },
      "geometry": {
        "type": "Point",
        "coordinates": [
          -40.7266492,
          -20.837777
        ]
      }
    },
    {
      "type": "Feature",
      "id": "node/4024905400",
      "properties": {
        "timestamp": "2016-02-25T02:00:21Z",
        "version": 1,
        "changeset": 37426154,
        "IJSN:administra": "Municipal",
        "IJSN:classeCnae": "Fundamental",
        "addr:city": "Piúma",
        "addr:postcode": "29285-000",
        "addr:street": "Rua Cafarnacin",
        "addr:suburb": "Céu Azul",
        "alt_name": "Escola Municipal de Ensino Fundamental",
        "amenity": "school",
        "contact:phone": "(27) 9955-2371 / 3520-3066",
        "name": "EMEF Céu Azul",
        "source": "IJSN",
        "id": "node/4024905400"
      },
      "geometry": {
        "type": "Point",
        "coordinates": [
          -40.7197963,
          -20.8275989
        ]
      }
    },
    {
      "type": "Feature",
      "id": "node/4024905473",
      "properties": {
        "timestamp": "2016-02-25T02:00:34Z",
        "version": 1,
        "changeset": 37426154,
        "IJSN:administra": "Municipal",
        "IJSN:classeCnae": "Fundamental",
        "addr:city": "Piúma",
        "addr:postcode": "29285-000",
        "addr:street": "Rua Alegre",
        "addr:suburb": "Monte Aghá",
        "alt_name": "Escola Municipal de Ensino Fundamental",
        "amenity": "school",
        "contact:phone": "(28) 3520-1986",
        "name": "EMEF Itaputanga",
        "source": "IJSN",
        "id": "node/4024905473"
      },
      "geometry": {
        "type": "Point",
        "coordinates": [
          -40.7528417,
          -20.8505302
        ]
      }
    },
    {
      "type": "Feature",
      "id": "node/4024905474",
      "properties": {
        "timestamp": "2016-02-25T02:00:34Z",
        "version": 1,
        "changeset": 37426154,
        "IJSN:administra": "Municipal",
        "IJSN:classeCnae": "Fundamental",
        "addr:city": "Piúma",
        "addr:postcode": "29285-000",
        "addr:suburb": "Comunidade Itinga",
        "alt_name": "Escola Municipal de Ensino Fundamental",
        "amenity": "school",
        "contact:phone": "(28) 3520-1828",
        "name": "EMEF Itinga",
        "source": "IJSN",
        "id": "node/4024905474"
      },
      "geometry": {
        "type": "Point",
        "coordinates": [
          -40.8067045,
          -20.8381605
        ]
      }
    },
    {
      "type": "Feature",
      "id": "node/4024905625",
      "properties": {
        "timestamp": "2016-02-25T02:00:42Z",
        "version": 1,
        "changeset": 37426154,
        "IJSN:administra": "Municipal",
        "IJSN:classeCnae": "Infantil e Fundamental",
        "addr:city": "Piúma",
        "addr:postcode": "29285-000",
        "addr:suburb": "Comunidade Piúma",
        "alt_name": "Escola Municipal de Ensino Fundamental",
        "amenity": "school",
        "contact:phone": "(28) 3520-1996",
        "name": "EMEF Nova Esperança",
        "source": "IJSN",
        "id": "node/4024905625"
      },
      "geometry": {
        "type": "Point",
        "coordinates": [
          -40.7383114,
          -20.8101886
        ]
      }
    },
    {
      "type": "Feature",
      "id": "node/4024905657",
      "properties": {
        "timestamp": "2016-02-25T02:00:48Z",
        "version": 1,
        "changeset": 37426154,
        "IJSN:administra": "Municipal",
        "IJSN:classeCnae": "Fundamental",
        "addr:city": "Piúma",
        "addr:postcode": "29285-000",
        "addr:street": "Rua Adelaide Miranda",
        "addr:suburb": "Portinho",
        "alt_name": "Escola Municipal de Ensino Fundamental",
        "amenity": "school",
        "contact:phone": "(28) 3520-1970",
        "name": "EMEF Portinho",
        "source": "IJSN",
        "id": "node/4024905657"
      },
      "geometry": {
        "type": "Point",
        "coordinates": [
          -40.7140144,
          -20.8359009
        ]
      }
    },
    {
      "type": "Feature",
      "id": "node/4024905715",
      "properties": {
        "timestamp": "2016-02-25T02:00:57Z",
        "version": 1,
        "changeset": 37426154,
        "IJSN:administra": "Municipal",
        "IJSN:classeCnae": "Fundamental",
        "addr:city": "Piúma",
        "addr:postcode": "29285-000",
        "addr:street": "Fazenda São João da Boa Vista",
        "addr:suburb": "São João de Ibitiba",
        "alt_name": "Escola Municipal de Ensino Fundamental",
        "amenity": "school",
        "contact:phone": "(28) 3520-1828",
        "name": "EMEF São João Boa Vista",
        "source": "IJSN",
        "id": "node/4024905715"
      },
      "geometry": {
        "type": "Point",
        "coordinates": [
          -40.8212702,
          -20.8743599
        ]
      }
    }
  ]
}
