{
  "type": "FeatureCollection",
  "features": [
    {
      "type": "Feature",
      "id": "way/1029862038",
      "properties": {
        "timestamp": "2022-02-09T21:21:18Z",
        "version": 1,
        "changeset": 117219827,
        "amenity": "school",
        "name": "Escola Municipal Vicente De Oliveira Lopes",
        "id": "way/1029862038"
      },
      "geometry": {
        "type": "Polygon",
        "coordinates": [
          [
            [
              -42.673624,
              -5.3620119
            ],
            [
              -42.6734923,
              -5.3623803
            ],
            [
              -42.6731364,
              -5.3622567
            ],
            [
              -42.6732606,
              -5.3619097
            ],
            [
              -42.673624,
              -5.3620119
            ]
          ]
        ]
      }
    },
    {
      "type": "Feature",
      "id": "way/1029862105",
      "properties": {
        "timestamp": "2022-02-09T21:22:44Z",
        "version": 1,
        "changeset": 117219860,
        "addr:city": "Demerval Lobão",
        "addr:housenumber": "719",
        "addr:postcode": "64390-000",
        "addr:street": "Rua José Ribeiro",
        "addr:suburb": "Centro",
        "amenity": "school",
        "name": "Cepe-Centro De Ensino Pre-Educando",
        "id": "way/1029862105"
      },
      "geometry": {
        "type": "Polygon",
        "coordinates": [
          [
            [
              -42.6773135,
              -5.3631808
            ],
            [
              -42.6772734,
              -5.3633609
            ],
            [
              -42.6770275,
              -5.3633147
            ],
            [
              -42.6770729,
              -5.3631329
            ],
            [
              -42.6773135,
              -5.3631808
            ]
          ]
        ]
      }
    },
    {
      "type": "Feature",
      "id": "way/1029863452",
      "properties": {
        "timestamp": "2022-02-09T21:27:43Z",
        "version": 1,
        "changeset": 117219991,
        "addr:city": "Demerval Lobão",
        "addr:housenumber": "1025",
        "addr:postcode": "64390-000",
        "addr:street": "Rua Givaldo de Morais",
        "addr:suburb": "Centro",
        "amenity": "school",
        "name": "Esc Mun Tia Emilia",
        "id": "way/1029863452"
      },
      "geometry": {
        "type": "Polygon",
        "coordinates": [
          [
            [
              -42.6791546,
              -5.3638948
            ],
            [
              -42.6790414,
              -5.3642381
            ],
            [
              -42.6783505,
              -5.3640626
            ],
            [
              -42.6784753,
              -5.3637334
            ],
            [
              -42.6791546,
              -5.3638948
            ]
          ]
        ]
      }
    },
    {
      "type": "Feature",
      "id": "way/1029863483",
      "properties": {
        "timestamp": "2022-02-09T21:28:36Z",
        "version": 1,
        "changeset": 117220007,
        "addr:city": "Demerval Lobão",
        "addr:housenumber": "1065",
        "addr:postcode": "64390-000",
        "addr:street": "Rua Givaldo de Morais",
        "addr:suburb": "Centro",
        "amenity": "school",
        "name": "U E Domingos Alves Da Costa",
        "id": "way/1029863483"
      },
      "geometry": {
        "type": "Polygon",
        "coordinates": [
          [
            [
              -42.6790414,
              -5.3642381
            ],
            [
              -42.678931,
              -5.3646012
            ],
            [
              -42.6782354,
              -5.3644122
            ],
            [
              -42.6783505,
              -5.3640626
            ],
            [
              -42.6790414,
              -5.3642381
            ]
          ]
        ]
      }
    },
    {
      "type": "Feature",
      "id": "way/1029863780",
      "properties": {
        "timestamp": "2022-02-09T21:30:58Z",
        "version": 1,
        "changeset": 117220070,
        "addr:city": "Demerval Lobão",
        "addr:housenumber": "450",
        "addr:postcode": "64390-000",
        "addr:street": "Rua do Norte",
        "addr:suburb": "Centro",
        "amenity": "school",
        "name": "U E Antonieta Ribeiro Moraes",
        "phone": "+55 86 3260 1700",
        "id": "way/1029863780"
      },
      "geometry": {
        "type": "Polygon",
        "coordinates": [
          [
            [
              -42.6768884,
              -5.3553526
            ],
            [
              -42.6767478,
              -5.3557299
            ],
            [
              -42.6764478,
              -5.3556191
            ],
            [
              -42.6765883,
              -5.3552418
            ],
            [
              -42.6768884,
              -5.3553526
            ]
          ]
        ]
      }
    },
    {
      "type": "Feature",
      "id": "way/1029866815",
      "properties": {
        "timestamp": "2022-02-09T21:41:14Z",
        "version": 1,
        "changeset": 117220327,
        "addr:city": "Demerval Lobão",
        "addr:housenumber": "321",
        "addr:postcode": "64390-000",
        "addr:street": "Rua do Norte",
        "addr:suburb": "Centro",
        "amenity": "school",
        "name": "Unid Escola Jacob Barbosa",
        "id": "way/1029866815"
      },
      "geometry": {
        "type": "Polygon",
        "coordinates": [
          [
            [
              -42.6752903,
              -5.3553339
            ],
            [
              -42.6750638,
              -5.3560281
            ],
            [
              -42.6743826,
              -5.3558077
            ],
            [
              -42.6744914,
              -5.3554742
            ],
            [
              -42.6747265,
              -5.3555502
            ],
            [
              -42.6748441,
              -5.3551896
            ],
            [
              -42.6752903,
              -5.3553339
            ]
          ]
        ]
      }
    },
    {
      "type": "Feature",
      "id": "way/1029867052",
      "properties": {
        "timestamp": "2022-02-09T21:42:56Z",
        "version": 1,
        "changeset": 117220363,
        "addr:city": "Demerval Lobão",
        "addr:housenumber": "560",
        "addr:postcode": "64390-000",
        "addr:street": "Rua Luís de Castro",
        "amenity": "school",
        "name": "Esc Mun Tia Jacinta",
        "id": "way/1029867052"
      },
      "geometry": {
        "type": "Polygon",
        "coordinates": [
          [
            [
              -42.6706258,
              -5.3579007
            ],
            [
              -42.6705999,
              -5.358441
            ],
            [
              -42.6703391,
              -5.3584315
            ],
            [
              -42.6703477,
              -5.3581594
            ],
            [
              -42.6702643,
              -5.3581565
            ],
            [
              -42.6702787,
              -5.3578892
            ],
            [
              -42.6706258,
              -5.3579007
            ]
          ]
        ]
      }
    },
    {
      "type": "Feature",
      "id": "way/1029867192",
      "properties": {
        "timestamp": "2022-02-09T21:43:48Z",
        "version": 1,
        "changeset": 117220383,
        "addr:city": "Demerval Lobão",
        "addr:housenumber": "640",
        "addr:postcode": "64390-000",
        "addr:street": "Rua Elias Santos",
        "addr:suburb": "Santa Inês",
        "amenity": "school",
        "name": "Esc Mun Tia Margarida",
        "id": "way/1029867192"
      },
      "geometry": {
        "type": "Polygon",
        "coordinates": [
          [
            [
              -42.6815282,
              -5.3525875
            ],
            [
              -42.6814785,
              -5.3527039
            ],
            [
              -42.6811643,
              -5.352571
            ],
            [
              -42.681214,
              -5.3524545
            ],
            [
              -42.6815282,
              -5.3525875
            ]
          ]
        ]
      }
    },
    {
      "type": "Feature",
      "id": "way/1029867735",
      "properties": {
        "timestamp": "2022-02-09T21:46:08Z",
        "version": 1,
        "changeset": 117220451,
        "addr:city": "Demerval Lobão",
        "addr:housenumber": "520",
        "addr:postcode": "64390-000",
        "addr:street": "Rua São Francisco",
        "addr:suburb": "Piaçava",
        "amenity": "school",
        "name": "Francisco Luis De Melo",
        "id": "way/1029867735"
      },
      "geometry": {
        "type": "Polygon",
        "coordinates": [
          [
            [
              -42.6776602,
              -5.3425984
            ],
            [
              -42.6775273,
              -5.3430243
            ],
            [
              -42.6768157,
              -5.3425432
            ],
            [
              -42.676943,
              -5.3423061
            ],
            [
              -42.6772269,
              -5.3425019
            ],
            [
              -42.6772906,
              -5.3423502
            ],
            [
              -42.6776602,
              -5.3425984
            ]
          ]
        ]
      }
    },
    {
      "type": "Feature",
      "id": "node/9493829843",
      "properties": {
        "timestamp": "2022-02-09T21:21:41Z",
        "version": 1,
        "changeset": 117219838,
        "amenity": "school",
        "name": "Esc Mun Helena Veloso",
        "id": "node/9493829843"
      },
      "geometry": {
        "type": "Point",
        "coordinates": [
          -42.6757358,
          -5.3603231
        ]
      }
    }
  ]
}
