{
  "type": "FeatureCollection",
  "features": [
    {
      "type": "Feature",
      "id": "way/589998205",
      "properties": {
        "timestamp": "2018-05-22T01:27:33Z",
        "version": 1,
        "changeset": 59166683,
        "addr:city": "Florianópolis",
        "addr:housenumber": "520",
        "addr:street": "Avenida Professor Milton Leite da Costa",
        "addr:suburb": "Canasvieiras",
        "building": "yes",
        "name": "Eric Bike",
        "shop": "bicycle",
        "id": "way/589998205"
      },
      "geometry": {
        "type": "Polygon",
        "coordinates": [
          [
            [
              -48.4603781,
              -27.4302094
            ],
            [
              -48.4603732,
              -27.430312
            ],
            [
              -48.460117,
              -27.4303024
            ],
            [
              -48.4601219,
              -27.4301998
            ],
            [
              -48.4603781,
              -27.4302094
            ]
          ]
        ]
      }
    },
    {
      "type": "Feature",
      "id": "way/771417117",
      "properties": {
        "timestamp": "2021-09-18T20:12:17Z",
        "version": 2,
        "changeset": 111388336,
        "addr:city": "Florianópolis",
        "addr:housenumber": "518",
        "addr:postcode": "88070-810",
        "addr:street": "Rua José Abreu",
        "addr:suburb": "Canto",
        "building": "commercial",
        "contact:phone": "+55 48 98435-6802",
        "name": "Mono Bike",
        "opening_hours": "Mo-Fr 09:00-19:00; Sa 09:00-13:00; Su,PH off",
        "operator": "Mono Bike",
        "repair": "yes",
        "service:bicycle:parts": "yes",
        "service:bicycle:pump": "yes",
        "service:bicycle:repair": "yes",
        "service:bicycle:second_hand": "yes",
        "service:bicycle:service": "yes",
        "shop": "bicycle",
        "id": "way/771417117"
      },
      "geometry": {
        "type": "Polygon",
        "coordinates": [
          [
            [
              -48.5872464,
              -27.5873005
            ],
            [
              -48.5871828,
              -27.5873938
            ],
            [
              -48.5871563,
              -27.5873828
            ],
            [
              -48.5871781,
              -27.58735
            ],
            [
              -48.5870946,
              -27.5872963
            ],
            [
              -48.5871383,
              -27.5872307
            ],
            [
              -48.5872464,
              -27.5873005
            ]
          ]
        ]
      }
    },
    {
      "type": "Feature",
      "id": "way/1198261038",
      "properties": {
        "timestamp": "2023-08-15T11:26:52Z",
        "version": 1,
        "changeset": 139909941,
        "building": "yes",
        "name": "ET Bike",
        "shop": "bicycle",
        "id": "way/1198261038"
      },
      "geometry": {
        "type": "Polygon",
        "coordinates": [
          [
            [
              -48.4809983,
              -27.6547066
            ],
            [
              -48.4809338,
              -27.6546052
            ],
            [
              -48.4807854,
              -27.6546736
            ],
            [
              -48.480573,
              -27.6545755
            ],
            [
              -48.4808443,
              -27.654426
            ],
            [
              -48.4810256,
              -27.6546899
            ],
            [
              -48.4809983,
              -27.6547066
            ]
          ]
        ]
      }
    },
    {
      "type": "Feature",
      "id": "node/1453300935",
      "properties": {
        "timestamp": "2011-12-28T19:16:25Z",
        "version": 4,
        "changeset": 10229333,
        "addr:housenumber": "2176",
        "addr:street": "Avenida Pequeno Príncipe",
        "name": "Cicle Campeche",
        "opening_hours": "Mo-Fr 09:00-12:00,14:00-19:00; Sa 09:00-16:00",
        "shop": "bicycle",
        "id": "node/1453300935"
      },
      "geometry": {
        "type": "Point",
        "coordinates": [
          -48.4907059,
          -27.6833696
        ]
      }
    },
    {
      "type": "Feature",
      "id": "node/1492870690",
      "properties": {
        "timestamp": "2017-04-10T11:38:01Z",
        "version": 2,
        "changeset": 47619574,
        "addr:housenumber": "2134",
        "addr:street": "Avenida Jornalista Rubens de Arruda Ramos",
        "name": "Bike Dream",
        "shop": "bicycle",
        "website": "http://www.bikedream.com.br",
        "id": "node/1492870690"
      },
      "geometry": {
        "type": "Point",
        "coordinates": [
          -48.549563,
          -27.5859897
        ]
      }
    },
    {
      "type": "Feature",
      "id": "node/1737663553",
      "properties": {
        "timestamp": "2022-05-12T08:12:38Z",
        "version": 12,
        "changeset": 120874584,
        "addr:city": "Florianópolis",
        "addr:housenumber": "269",
        "addr:postcode": "88036-270",
        "addr:street": "Rua Juvêncio Costa",
        "addr:suburb": "Trindade",
        "name": "Della Bikes",
        "opening_hours": "Mo-Fr 08:30-19:00; Sa 08:30-13:00",
        "phone": "+55 48 3234-5000",
        "service:bicycle:retail": "yes",
        "shop": "bicycle",
        "website": "https://www.dellabikes.com.br/",
        "id": "node/1737663553"
      },
      "geometry": {
        "type": "Point",
        "coordinates": [
          -48.5212707,
          -27.5864914
        ]
      }
    },
    {
      "type": "Feature",
      "id": "node/1749056011",
      "properties": {
        "timestamp": "2020-01-28T01:14:33Z",
        "version": 3,
        "changeset": 80166044,
        "name": "Ciclobike Trindade",
        "phone": "+55 48 3333 3669",
        "service:bicycle:repair": "yes",
        "shop": "bicycle",
        "id": "node/1749056011"
      },
      "geometry": {
        "type": "Point",
        "coordinates": [
          -48.5241789,
          -27.5801572
        ]
      }
    },
    {
      "type": "Feature",
      "id": "node/3075472394",
      "properties": {
        "timestamp": "2021-08-28T01:18:28Z",
        "version": 7,
        "changeset": 110363072,
        "addr:housenumber": "42",
        "addr:street": "Rua Francisco Goulart",
        "name": "Garupa",
        "opening_hours": "Mo-Fr 10:00-20:00; Sa 10:00-14:00",
        "shop": "bicycle",
        "website": "http://garupa.bike/",
        "id": "node/3075472394"
      },
      "geometry": {
        "type": "Point",
        "coordinates": [
          -48.5215258,
          -27.5951102
        ]
      }
    },
    {
      "type": "Feature",
      "id": "node/3992175393",
      "properties": {
        "timestamp": "2021-12-02T14:12:22Z",
        "version": 2,
        "changeset": 114485101,
        "addr:city": "Florianópolis",
        "addr:housenumber": "1187",
        "addr:street": "Rodovia Admar Gonzaga",
        "addr:suburb": "Itacorubi",
        "name": "TriBikes",
        "phone": "+55 48 3204-7656",
        "service:bicycle:repair": "yes",
        "service:bicycle:retail": "yes",
        "shop": "bicycle",
        "id": "node/3992175393"
      },
      "geometry": {
        "type": "Point",
        "coordinates": [
          -48.5042272,
          -27.5807116
        ]
      }
    },
    {
      "type": "Feature",
      "id": "node/3992181672",
      "properties": {
        "timestamp": "2023-06-11T21:30:10Z",
        "version": 4,
        "changeset": 137220566,
        "addr:housenumber": "532",
        "addr:street": "Rua Francisco Tolentino",
        "contact:instagram": "tribikes_floripa",
        "name": "Tribikes",
        "service:bicycle:repair": "yes",
        "service:bicycle:retail": "yes",
        "shop": "bicycle",
        "id": "node/3992181672"
      },
      "geometry": {
        "type": "Point",
        "coordinates": [
          -48.5555021,
          -27.59579
        ]
      }
    },
    {
      "type": "Feature",
      "id": "node/4870308723",
      "properties": {
        "timestamp": "2022-06-04T02:33:23Z",
        "version": 2,
        "changeset": 121920829,
        "name": "Bike Oliveira",
        "service:bicycle:repair": "yes",
        "service:bicycle:retail": "yes",
        "shop": "bicycle",
        "id": "node/4870308723"
      },
      "geometry": {
        "type": "Point",
        "coordinates": [
          -48.521886,
          -27.6410829
        ]
      }
    },
    {
      "type": "Feature",
      "id": "node/5921486460",
      "properties": {
        "timestamp": "2018-09-21T20:31:06Z",
        "version": 1,
        "changeset": 62809886,
        "addr:city": "Florianópolis",
        "addr:street": "Rua Cândido Ramos",
        "addr:suburb": "Capoeiras",
        "name": "Ciclo Hoffmann",
        "payment:cards": "yes",
        "payment:cash": "yes",
        "payment:credit_cards": "yes",
        "payment:debit_cards": "yes",
        "service:bicycle:clothing": "yes",
        "service:bicycle:mtb": "yes",
        "service:bicycle:parts": "yes",
        "service:bicycle:pump": "yes",
        "service:bicycle:repair": "yes",
        "service:bicycle:sales": "yes",
        "service:bicycle:second_hand": "yes",
        "shop": "bicycle",
        "id": "node/5921486460"
      },
      "geometry": {
        "type": "Point",
        "coordinates": [
          -48.6029293,
          -27.5986798
        ]
      }
    },
    {
      "type": "Feature",
      "id": "node/7201438829",
      "properties": {
        "timestamp": "2021-08-11T13:46:38Z",
        "version": 2,
        "changeset": 109519968,
        "addr:housenumber": "425",
        "addr:postcode": "88095-700",
        "addr:street": "Avenida Atlântica",
        "contact:phone": "+55 48 3240-2341",
        "name": "Stop Bike",
        "opening_hours": "Mo-Fr 09:00-12:00,13:30-18:30; Sa 09:00-13:00; Su,PH off",
        "repair": "yes",
        "service:bicycle:parts": "yes",
        "service:bicycle:repair": "yes",
        "service:bicycle:service": "yes",
        "shop": "bicycle",
        "id": "node/7201438829"
      },
      "geometry": {
        "type": "Point",
        "coordinates": [
          -48.5994731,
          -27.5772486
        ]
      }
    },
    {
      "type": "Feature",
      "id": "node/7201740965",
      "properties": {
        "timestamp": "2021-12-15T13:32:58Z",
        "version": 4,
        "changeset": 114965174,
        "addr:city": "Florianópolis",
        "addr:housenumber": "745",
        "addr:postcode": "88058-700",
        "addr:street": "Estrada Vereador Onildo Lemos",
        "addr:suburb": "Ingleses do Rio Vermelho",
        "name": "Amsterdam Bike",
        "opening_hours": "Mo-Fr 08:00-12:00, 13:00-19:00; Sa 08:00-12:00",
        "phone": "+55 48 99162-5153",
        "repair": "yes",
        "service:bicycle:parts": "yes",
        "service:bicycle:pump": "unknown",
        "service:bicycle:repair": "yes",
        "service:bicycle:service": "yes",
        "shop": "bicycle",
        "id": "node/7201740965"
      },
      "geometry": {
        "type": "Point",
        "coordinates": [
          -48.3794881,
          -27.4495408
        ]
      }
    },
    {
      "type": "Feature",
      "id": "node/7201740970",
      "properties": {
        "timestamp": "2021-08-16T21:45:28Z",
        "version": 2,
        "changeset": 109774003,
        "contact:phone": "+55 48 3269-1192",
        "name": "Cicle Bike Shop",
        "repair": "yes",
        "service:bicycle:repair": "yes",
        "service:bicycle:service": "yes",
        "shop": "bicycle",
        "id": "node/7201740970"
      },
      "geometry": {
        "type": "Point",
        "coordinates": [
          -48.4035519,
          -27.4375229
        ]
      }
    },
    {
      "type": "Feature",
      "id": "node/7201742448",
      "properties": {
        "timestamp": "2022-07-16T00:35:09Z",
        "version": 3,
        "changeset": 123672639,
        "addr:city": "Florianópolis",
        "addr:housenumber": "6631",
        "addr:postcode": "88066-260",
        "addr:street": "Rodovia \"Seu Chico\" Francisco Thomaz dos Santos",
        "addr:suburb": "Armação do Pântano do Sul",
        "name": "Chapolim Bike",
        "opening_hours": "Mo-Fr 08:00-12:00,13:00-18:00; Sa 08:00-12:00",
        "phone": "+55 48 3334 5620",
        "service:bicycle:parts": "yes",
        "service:bicycle:pump": "unknown",
        "shop": "bicycle",
        "id": "node/7201742448"
      },
      "geometry": {
        "type": "Point",
        "coordinates": [
          -48.509641,
          -27.7577737
        ]
      }
    },
    {
      "type": "Feature",
      "id": "node/7201742453",
      "properties": {
        "timestamp": "2022-10-16T15:21:56Z",
        "version": 3,
        "changeset": 127623111,
        "addr:city": "Florianópolis",
        "addr:housenumber": "47",
        "addr:postcode": "88066-070",
        "addr:street": "Rua Sargento João Machado",
        "addr:suburb": "Morro das Pedras",
        "name": "Cicle Daniel Falcão",
        "opening_hours": "Mo-Sa 09:30-11:30, 14:30-18:00",
        "phone": "+55 48 3338-0234",
        "service:bicycle:parts": "yes",
        "service:bicycle:pump": "yes",
        "service:bicycle:rental": "yes",
        "service:bicycle:repair": "yes",
        "service:bicycle:service": "yes",
        "shop": "bicycle",
        "id": "node/7201742453"
      },
      "geometry": {
        "type": "Point",
        "coordinates": [
          -48.5036996,
          -27.7065406
        ]
      }
    },
    {
      "type": "Feature",
      "id": "node/8742599878",
      "properties": {
        "timestamp": "2021-08-23T03:48:18Z",
        "version": 2,
        "changeset": 110085527,
        "name": "Bike Up!",
        "shop": "bicycle",
        "id": "node/8742599878"
      },
      "geometry": {
        "type": "Point",
        "coordinates": [
          -48.5720198,
          -27.5915763
        ]
      }
    },
    {
      "type": "Feature",
      "id": "node/9306457118",
      "properties": {
        "timestamp": "2021-12-02T14:12:22Z",
        "version": 1,
        "changeset": 114485101,
        "addr:city": "Florianópolis",
        "addr:housenumber": "2565",
        "addr:street": "Rodovia Admar Gonzaga",
        "addr:suburb": "Itacorubi",
        "name": "Escritório da Bike",
        "phone": "+55 48 99181-6700",
        "service:bicycle:cleaning": "yes",
        "service:bicycle:parts": "yes",
        "service:bicycle:repair": "yes",
        "shop": "bicycle",
        "id": "node/9306457118"
      },
      "geometry": {
        "type": "Point",
        "coordinates": [
          -48.4936024,
          -27.5904434
        ]
      }
    },
    {
      "type": "Feature",
      "id": "node/9306457119",
      "properties": {
        "timestamp": "2021-12-02T14:12:22Z",
        "version": 1,
        "changeset": 114485101,
        "addr:city": "Florianópolis",
        "addr:housenumber": "1200",
        "addr:street": "Rodovia João Paulo",
        "addr:suburb": "João Paulo",
        "name": "Bicicletaria Linhares",
        "phone": "+55 48 3018-2780",
        "service:bicycle:repair": "yes",
        "shop": "bicycle",
        "id": "node/9306457119"
      },
      "geometry": {
        "type": "Point",
        "coordinates": [
          -48.5155319,
          -27.5624318
        ]
      }
    },
    {
      "type": "Feature",
      "id": "node/11116150593",
      "properties": {
        "timestamp": "2023-08-15T11:13:46Z",
        "version": 1,
        "changeset": 139909331,
        "name": "GELÉA",
        "shop": "bicycle",
        "id": "node/11116150593"
      },
      "geometry": {
        "type": "Point",
        "coordinates": [
          -48.4725322,
          -27.6339776
        ]
      }
    }
  ]
}
