{
  "type": "FeatureCollection",
  "features": [
    {
      "type": "Feature",
      "id": "way/682185716",
      "properties": {
        "timestamp": "2019-04-12T23:38:46Z",
        "version": 2,
        "changeset": 69166089,
        "addr:city": "Umari",
        "addr:housenumber": "389",
        "addr:postcode": "63310000",
        "addr:street": "Rua Dom Quintino",
        "addr:suburb": "Centro",
        "amenity": "school",
        "name": "EEM Monsenhor Manoel Carlos de Morais",
        "id": "way/682185716"
      },
      "geometry": {
        "type": "Polygon",
        "coordinates": [
          [
            [
              -38.6984853,
              -6.6466345
            ],
            [
              -38.6980615,
              -6.647186
            ],
            [
              -38.697356,
              -6.6466718
            ],
            [
              -38.6977932,
              -6.6461083
            ],
            [
              -38.6984853,
              -6.6466345
            ]
          ]
        ]
      }
    },
    {
      "type": "Feature",
      "id": "way/682185717",
      "properties": {
        "timestamp": "2019-04-07T02:32:19Z",
        "version": 1,
        "changeset": 68966000,
        "addr:city": "Umari",
        "addr:housenumber": "332",
        "addr:postcode": "63310000",
        "addr:street": "Rua Coronel Ant√¥nio Malheiros",
        "addr:suburb": "Centro",
        "amenity": "school",
        "name": "EEF Padre Manuel Pereira",
        "operator": "Umari-CE",
        "id": "way/682185717"
      },
      "geometry": {
        "type": "Polygon",
        "coordinates": [
          [
            [
              -38.7035761,
              -6.6465066
            ],
            [
              -38.7032703,
              -6.6461257
            ],
            [
              -38.7034071,
              -6.6460297
            ],
            [
              -38.7036968,
              -6.6464134
            ],
            [
              -38.7035761,
              -6.6465066
            ]
          ]
        ]
      }
    }
  ]
}
