{
  "type": "FeatureCollection",
  "features": [
    {
      "type": "Feature",
      "id": "way/990467703",
      "properties": {
        "timestamp": "2021-10-06T14:32:32Z",
        "version": 1,
        "changeset": 112172996,
        "addr:city": "S達o Pedro dos Crentes",
        "addr:postcode": "65978-000",
        "addr:street": "Avenida Canna",
        "addr:suburb": "Santa Rosa",
        "amenity": "school",
        "name": "Centro De Ensino Pastor Joao Jonas",
        "id": "way/990467703"
      },
      "geometry": {
        "type": "Polygon",
        "coordinates": [
          [
            [
              -46.5366139,
              -6.8213682
            ],
            [
              -46.537146,
              -6.8211266
            ],
            [
              -46.5372899,
              -6.8216376
            ],
            [
              -46.5367612,
              -6.8218466
            ],
            [
              -46.5366139,
              -6.8213682
            ]
          ]
        ]
      }
    },
    {
      "type": "Feature",
      "id": "way/990468304",
      "properties": {
        "timestamp": "2021-10-06T14:34:07Z",
        "version": 1,
        "changeset": 112173077,
        "addr:city": "S達o Pedro dos Crentes",
        "addr:housenumber": "489",
        "addr:postcode": "S達o Pedro dos Crentes",
        "addr:street": "Rua Piaui",
        "addr:suburb": "Centro",
        "amenity": "school",
        "name": "Em Anibal Mascarenhas",
        "id": "way/990468304"
      },
      "geometry": {
        "type": "Polygon",
        "coordinates": [
          [
            [
              -46.531666,
              -6.8275907
            ],
            [
              -46.5317028,
              -6.828027
            ],
            [
              -46.5311789,
              -6.8280706
            ],
            [
              -46.5311421,
              -6.8276341
            ],
            [
              -46.531666,
              -6.8275907
            ]
          ]
        ]
      }
    },
    {
      "type": "Feature",
      "id": "node/9041901751",
      "properties": {
        "timestamp": "2021-08-27T22:09:17Z",
        "version": 1,
        "changeset": 110360579,
        "addr:city": "S達o Pedro dos Crentes",
        "addr:postcode": "65978-000",
        "addr:street": "Avenida Canna",
        "addr:suburb": "Santa Rosa",
        "amenity": "school",
        "name": "Escola Municipal Vovo Ana Rocha",
        "id": "node/9041901751"
      },
      "geometry": {
        "type": "Point",
        "coordinates": [
          -46.5339406,
          -6.8221839
        ]
      }
    },
    {
      "type": "Feature",
      "id": "node/9152350711",
      "properties": {
        "timestamp": "2021-10-06T14:27:53Z",
        "version": 1,
        "changeset": 112172800,
        "amenity": "school",
        "name": "Em Hidelbrando Coelho",
        "id": "node/9152350711"
      },
      "geometry": {
        "type": "Point",
        "coordinates": [
          -46.7710493,
          -6.8677201
        ]
      }
    }
  ]
}
