{
  "type": "FeatureCollection",
  "features": [
    {
      "type": "Feature",
      "id": "way/770954110",
      "properties": {
        "timestamp": "2020-02-09T03:35:25Z",
        "version": 1,
        "changeset": 80740502,
        "addr:street": "Avenida Iporanga",
        "amenity": "school",
        "name": "E. E. Nascimento Sátiro da Silva",
        "id": "way/770954110"
      },
      "geometry": {
        "type": "Polygon",
        "coordinates": [
          [
            [
              -48.5976786,
              -24.5876969
            ],
            [
              -48.597312,
              -24.5879266
            ],
            [
              -48.5967143,
              -24.5874504
            ],
            [
              -48.5971148,
              -24.5872542
            ],
            [
              -48.5976786,
              -24.5876969
            ]
          ]
        ]
      }
    },
    {
      "type": "Feature",
      "id": "node/8754439643",
      "properties": {
        "timestamp": "2021-05-22T01:01:30Z",
        "version": 1,
        "changeset": 105115834,
        "addr:city": "Iporanga",
        "addr:housenumber": "13",
        "addr:postcode": "18330-000",
        "addr:street": "Rodovia Antônio Honório da Silva",
        "addr:suburb": "Serra",
        "amenity": "school",
        "grades": "1-10",
        "name": "Escola Vitor Rodrigues Motta",
        "id": "node/8754439643"
      },
      "geometry": {
        "type": "Point",
        "coordinates": [
          -48.6782762,
          -24.5554999
        ]
      }
    }
  ]
}
