{
  "type": "FeatureCollection",
  "features": [
    {
      "type": "Feature",
      "id": "way/1320753747",
      "properties": {
        "timestamp": "2024-10-04T16:17:45Z",
        "version": 2,
        "changeset": 157468927,
        "addr:city": "Chiador",
        "addr:housenumber": "16",
        "addr:postcode": "36630-000",
        "addr:street": "Rua Padre Carlos Dondero",
        "addr:suburb": "Centro",
        "building": "yes",
        "building:levels": "2",
        "email": "gabineteoficial@chiador.mg.gov.br",
        "government": "administrative",
        "name": "Prefeitura Municipal de Chiador",
        "office": "government",
        "opening_hours": "Mo-Fr 07:00-15:00",
        "phone": "(32) 3285-1000",
        "townhall:type": "municipality",
        "website": "https://www.chiador.mg.gov.br/",
        "id": "way/1320753747"
      },
      "geometry": {
        "type": "Polygon",
        "coordinates": [
          [
            [
              -43.057862,
              -22.0034747
            ],
            [
              -43.0576963,
              -22.0033264
            ],
            [
              -43.057879,
              -22.0031636
            ],
            [
              -43.0579073,
              -22.0031767
            ],
            [
              -43.058046,
              -22.0033172
            ],
            [
              -43.058046,
              -22.0033395
            ],
            [
              -43.0578804,
              -22.0034931
            ],
            [
              -43.057862,
              -22.0034747
            ]
          ]
        ]
      }
    },
    {
      "type": "Feature",
      "id": "way/1320758825",
      "properties": {
        "timestamp": "2024-10-04T16:17:45Z",
        "version": 2,
        "changeset": 157468927,
        "addr:city": "Chiador",
        "addr:housenumber": "39",
        "addr:postcode": "36630-000",
        "addr:street": "Rua Tenente Ademar Martins",
        "addr:suburb": "Centro",
        "building": "yes",
        "email": "social@chiador.mg.gov.br",
        "government": "administrative",
        "name": "Secretária Municipal de Assistência Social",
        "office": "government",
        "opening_hours": "Mo-Fr 07:00-16:00",
        "phone": "(32) 3285-1108",
        "website": "https://www.chiador.mg.gov.br/",
        "id": "way/1320758825"
      },
      "geometry": {
        "type": "Polygon",
        "coordinates": [
          [
            [
              -43.0574141,
              -22.0033326
            ],
            [
              -43.0574945,
              -22.0034151
            ],
            [
              -43.0574216,
              -22.0034788
            ],
            [
              -43.0573357,
              -22.0033972
            ],
            [
              -43.0574141,
              -22.0033326
            ]
          ]
        ]
      }
    },
    {
      "type": "Feature",
      "id": "way/1320767476",
      "properties": {
        "timestamp": "2024-10-04T16:17:45Z",
        "version": 1,
        "changeset": 157468927,
        "addr:city": "Chiador",
        "addr:housenumber": "16",
        "addr:postcode": "36630-000",
        "addr:street": "Rua Padre Carlos Dondero",
        "addr:suburb": "Centro",
        "building": "yes",
        "email": "saude@chiador.mg.gov.br",
        "government": "administrative",
        "name": "Secretaria Municipal de Saúde",
        "office": "government",
        "opening_hours": "Mo-Fr 08:00-16:00",
        "phone": "(32) 3285-1116",
        "website": "https://www.chiador.mg.gov.br/",
        "id": "way/1320767476"
      },
      "geometry": {
        "type": "Polygon",
        "coordinates": [
          [
            [
              -43.0577209,
              -22.0031684
            ],
            [
              -43.0576651,
              -22.0032251
            ],
            [
              -43.0576501,
              -22.0032301
            ],
            [
              -43.0576372,
              -22.0032281
            ],
            [
              -43.0575653,
              -22.0031644
            ],
            [
              -43.0576286,
              -22.0030898
            ],
            [
              -43.0577209,
              -22.0031684
            ]
          ]
        ]
      }
    },
    {
      "type": "Feature",
      "id": "way/1320767477",
      "properties": {
        "timestamp": "2024-10-04T16:17:45Z",
        "version": 1,
        "changeset": 157468927,
        "addr:city": "Chiador",
        "addr:housenumber": "45",
        "addr:postcode": "36630-000",
        "addr:street": "Praça Antônio Joaquim da Costa",
        "addr:suburb": "Centro",
        "building": "yes",
        "email": "educacao@chiador.mg.gov.br",
        "government": "administrative",
        "name": "Secretaria Municipal de Educação, Cultura e Esportes",
        "office": "government",
        "opening_hours": "Mo-Fr 07:00-16:00",
        "phone": "(32) 3285-1133",
        "website": "https://www.chiador.mg.gov.br/",
        "id": "way/1320767477"
      },
      "geometry": {
        "type": "Polygon",
        "coordinates": [
          [
            [
              -43.0571727,
              -22.0044735
            ],
            [
              -43.0571351,
              -22.0045441
            ],
            [
              -43.0570332,
              -22.0045004
            ],
            [
              -43.0570664,
              -22.0044297
            ],
            [
              -43.0571727,
              -22.0044735
            ]
          ]
        ]
      }
    }
  ]
}
