{
  "type": "FeatureCollection",
  "features": [
    {
      "type": "Feature",
      "id": "way/1167162648",
      "properties": {
        "timestamp": "2023-04-28T17:19:26Z",
        "version": 1,
        "changeset": 135478339,
        "addr:city": "Barracão",
        "addr:country": "BR",
        "addr:postcode": "85700-000",
        "addr:state": "SC",
        "addr:street": "Rua 500",
        "addr:suburb": "Industrial",
        "amenity": "university",
        "building": "university",
        "contact:facebook": "https://facebook.com/unetri/",
        "email": "contato@unetri.edu.br",
        "isced:level": "5",
        "isced:level:1997": "5",
        "isced:level:2011": "5;6",
        "name": "Unetri Faculdades",
        "nohousenumber": "yes",
        "operator": "União de Ensino da Trifronteira Ltda",
        "operator:type": "private",
        "owner": "Município de Barracão",
        "ownership": "municipal",
        "phone": "+55-49-3644-2986",
        "short_name": "UNETRI",
        "website": "https://www.unetri.edu.br",
        "id": "way/1167162648"
      },
      "geometry": {
        "type": "Polygon",
        "coordinates": [
          [
            [
              -53.6387071,
              -26.2390067
            ],
            [
              -53.6384849,
              -26.2395142
            ],
            [
              -53.6382977,
              -26.2394483
            ],
            [
              -53.6385199,
              -26.2389407
            ],
            [
              -53.6387071,
              -26.2390067
            ]
          ]
        ]
      }
    }
  ]
}
