{
  "type": "FeatureCollection",
  "features": [
    {
      "type": "Feature",
      "id": "way/1082856914",
      "properties": {
        "timestamp": "2022-08-01T08:56:47Z",
        "version": 1,
        "changeset": 124333533,
        "building": "yes",
        "name": "Hotel Atlântico",
        "tourism": "hotel",
        "id": "way/1082856914"
      },
      "geometry": {
        "type": "Polygon",
        "coordinates": [
          [
            [
              -53.3708719,
              -33.7378796
            ],
            [
              -53.3702502,
              -33.7383277
            ],
            [
              -53.370011,
              -33.7380778
            ],
            [
              -53.3707116,
              -33.7376716
            ],
            [
              -53.3708719,
              -33.7378796
            ]
          ]
        ]
      }
    },
    {
      "type": "Feature",
      "id": "way/1244631898",
      "properties": {
        "timestamp": "2024-01-30T16:28:48Z",
        "version": 1,
        "changeset": 146870782,
        "addr:city": "Santa Vitória do Palmar",
        "addr:street": "Rua das Lembranças",
        "addr:suburb": "Hermenegildo",
        "building": "yes",
        "name": "Pousada do Jaú",
        "tourism": "hotel",
        "website": "https://www.google.com/maps/place/Pousada+do+Ja%C3%BA/@-33.6649419,-53.2605308,241m/data=!3m1!1e3!4m9!3m8!1s0x950d23dd2df0b42f:0xf1f73ca05115062!5m2!4m1!1i2!8m2!3d-33.6643304!4d-53.2596052!16s%2Fg%2F11fq_csmly?entry=ttu",
        "id": "way/1244631898"
      },
      "geometry": {
        "type": "Polygon",
        "coordinates": [
          [
            [
              -53.2596462,
              -33.6643526
            ],
            [
              -53.259324,
              -33.6645014
            ],
            [
              -53.259201,
              -33.6643213
            ],
            [
              -53.2595161,
              -33.6641775
            ],
            [
              -53.2596462,
              -33.6643526
            ]
          ]
        ]
      }
    },
    {
      "type": "Feature",
      "id": "node/4490766569",
      "properties": {
        "timestamp": "2023-01-25T00:48:21Z",
        "version": 2,
        "changeset": 131674270,
        "name": "Hotel Turismo",
        "tourism": "hotel",
        "id": "node/4490766569"
      },
      "geometry": {
        "type": "Point",
        "coordinates": [
          -53.3621763,
          -33.5232375
        ]
      }
    },
    {
      "type": "Feature",
      "id": "node/7229063413",
      "properties": {
        "timestamp": "2023-08-31T11:00:01Z",
        "version": 2,
        "changeset": 140629455,
        "addr:housenumber": "696",
        "addr:street": "Rua Conde de Porto Alegre",
        "name": "Mirante Hotel",
        "tourism": "hotel",
        "wheelchair": "no",
        "id": "node/7229063413"
      },
      "geometry": {
        "type": "Point",
        "coordinates": [
          -53.3641899,
          -33.5209488
        ]
      }
    },
    {
      "type": "Feature",
      "id": "node/7229063415",
      "properties": {
        "timestamp": "2023-08-31T11:00:42Z",
        "version": 2,
        "changeset": 140629455,
        "addr:housenumber": "703",
        "addr:street": "Rua Barão do Rio Branco",
        "name": "Hotel Brasil",
        "tourism": "hotel",
        "wheelchair": "limited",
        "id": "node/7229063415"
      },
      "geometry": {
        "type": "Point",
        "coordinates": [
          -53.3658395,
          -33.5219953
        ]
      }
    },
    {
      "type": "Feature",
      "id": "node/9924117135",
      "properties": {
        "timestamp": "2022-08-01T08:56:47Z",
        "version": 1,
        "changeset": 124333533,
        "addr:city": "Santa Vitória do Palmar",
        "addr:postcode": "96230-000",
        "brand": "Meio de Hospedagem Independente",
        "internet_access": "wlan",
        "internet_access:fee": "customers",
        "name": "Recepção Hotel Atlântico",
        "tourism": "hotel",
        "id": "node/9924117135"
      },
      "geometry": {
        "type": "Point",
        "coordinates": [
          -53.370591,
          -33.7377751
        ]
      }
    },
    {
      "type": "Feature",
      "id": "node/10917200679",
      "properties": {
        "timestamp": "2023-05-22T02:22:58Z",
        "version": 1,
        "changeset": 136392001,
        "addr:city": "Santa Vitória do Palmar",
        "addr:housenumber": "51A",
        "addr:postcode": "96230-000",
        "addr:street": "Rua 13 de Maio",
        "addr:suburb": "Centro",
        "email": "contato@hotelfranke.com",
        "internet_access": "yes",
        "internet_access:fee": "customers",
        "name": "Hotel Franke",
        "phone": "+555332636411",
        "rooms": "20",
        "tourism": "hotel",
        "website": "https://www.hotelfranke.com/",
        "id": "node/10917200679"
      },
      "geometry": {
        "type": "Point",
        "coordinates": [
          -53.3643507,
          -33.5257514
        ]
      }
    }
  ]
}
