{
  "type": "FeatureCollection",
  "features": [
    {
      "type": "Feature",
      "id": "node/9168757992",
      "properties": {
        "timestamp": "2021-10-13T15:33:45Z",
        "version": 2,
        "changeset": 112467670,
        "addr:city": "Antônio Dias",
        "addr:housenumber": "112",
        "addr:postcode": "35177-000",
        "addr:street": "Rua Presidente Vargas",
        "addr:suburb": "centro",
        "amenity": "dentist",
        "healthcare": "dentist",
        "healthcare:speciality": "clinico_geral;harmonização_orofacial;prótese_dentaria;endodontia;odontopediatria",
        "name": "Clinica Dra Gabriela Domingos",
        "id": "node/9168757992"
      },
      "geometry": {
        "type": "Point",
        "coordinates": [
          -42.8698074,
          -19.6538964
        ]
      }
    },
    {
      "type": "Feature",
      "id": "node/9169953021",
      "properties": {
        "timestamp": "2021-10-13T15:33:45Z",
        "version": 1,
        "changeset": 112467670,
        "addr:city": "Antônio dias",
        "addr:housenumber": "112",
        "addr:postcode": "35177000",
        "addr:street": "Rua Presidente Vargas",
        "addr:suburb": "centro",
        "amenity": "dentist",
        "healthcare": "dentist",
        "name": "dra gabriela domingos",
        "operator": "gabriela domingos",
        "id": "node/9169953021"
      },
      "geometry": {
        "type": "Point",
        "coordinates": [
          -42.8698789,
          -19.6535882
        ]
      }
    }
  ]
}
