{
  "type": "FeatureCollection",
  "features": [
    {
      "type": "Feature",
      "id": "way/959591457",
      "properties": {
        "timestamp": "2021-06-29T23:33:32Z",
        "version": 1,
        "changeset": 107173979,
        "building": "yes",
        "government": "register_office",
        "name": "Cartório de Registro",
        "office": "government",
        "id": "way/959591457"
      },
      "geometry": {
        "type": "Polygon",
        "coordinates": [
          [
            [
              -41.5900653,
              -20.4658642
            ],
            [
              -41.5900028,
              -20.4659273
            ],
            [
              -41.5899217,
              -20.4658567
            ],
            [
              -41.5899506,
              -20.4658275
            ],
            [
              -41.5899761,
              -20.4658496
            ],
            [
              -41.5900097,
              -20.4658158
            ],
            [
              -41.5900653,
              -20.4658642
            ]
          ]
        ]
      }
    },
    {
      "type": "Feature",
      "id": "node/5874523079",
      "properties": {
        "timestamp": "2022-11-10T12:42:43Z",
        "version": 4,
        "changeset": 128732279,
        "addr:city": "Iúna",
        "addr:housenumber": "32",
        "addr:postcode": "29390-000",
        "addr:street": "Rua Desembargador Epaminondas do Amaral",
        "addr:suburb": "Centro",
        "email": "cartorioamaral@micronline.psi.br",
        "government": "register_office",
        "name": "Cartório do Terceiro Ofício Tabelionato de Notas da Comarca de Iúna",
        "office": "government",
        "phone": "+55 28 3545 1050",
        "id": "node/5874523079"
      },
      "geometry": {
        "type": "Point",
        "coordinates": [
          -41.5341344,
          -20.3480311
        ]
      }
    },
    {
      "type": "Feature",
      "id": "node/8878482714",
      "properties": {
        "timestamp": "2021-06-29T23:33:32Z",
        "version": 1,
        "changeset": 107173979,
        "government": "register_office",
        "name": "Cartório de Registro",
        "office": "government",
        "id": "node/8878482714"
      },
      "geometry": {
        "type": "Point",
        "coordinates": [
          -41.5899922,
          -20.4658656
        ]
      }
    },
    {
      "type": "Feature",
      "id": "node/10169835649",
      "properties": {
        "timestamp": "2022-11-10T17:44:09Z",
        "version": 3,
        "changeset": 128744429,
        "addr:city": "Iúna",
        "addr:housenumber": "277",
        "addr:postcode": "29390-000",
        "addr:street": "Rua Galaor Rios",
        "addr:suburb": "Centro",
        "government": "prosecutor",
        "name": "Promotoria de Justiça da Comarca de Iúna",
        "office": "government",
        "operator": "Ministério Público do Estado do Espírito Santo",
        "phone": "+55 28 3545 1299",
        "id": "node/10169835649"
      },
      "geometry": {
        "type": "Point",
        "coordinates": [
          -41.5338293,
          -20.3497629
        ]
      }
    },
    {
      "type": "Feature",
      "id": "node/10172144281",
      "properties": {
        "timestamp": "2022-11-09T19:33:04Z",
        "version": 1,
        "changeset": 128701406,
        "addr:city": "Iúna",
        "addr:housenumber": "56",
        "addr:postcode": "29390-000",
        "addr:street": "Rua Doutor Arlindo Rodrigues Florindo",
        "addr:suburb": "Guanabara",
        "email": "jcmunizz@hotmail.com",
        "government": "register_office",
        "name": "Cartório de Registro de Títulos e Documentos da Comarca de Iúna",
        "office": "government",
        "phone": "+55 28 3545 1070",
        "id": "node/10172144281"
      },
      "geometry": {
        "type": "Point",
        "coordinates": [
          -41.5317423,
          -20.3548495
        ]
      }
    },
    {
      "type": "Feature",
      "id": "node/10172144284",
      "properties": {
        "timestamp": "2022-11-09T19:33:04Z",
        "version": 1,
        "changeset": 128701406,
        "addr:city": "Iúna",
        "addr:housenumber": "89",
        "addr:postcode": "29390-000",
        "addr:street": "Rua Quintino Bocaiuva",
        "addr:suburb": "Ferreira Vale",
        "email": "cartoriotdpj.2019iuna@bol.com.br",
        "government": "register_office",
        "name": "Cartório do Primeiro Ofício Protesto de Títulos e Documentos da Comarca de Iúna",
        "office": "government",
        "phone": "+55 28 3545 1373",
        "id": "node/10172144284"
      },
      "geometry": {
        "type": "Point",
        "coordinates": [
          -41.532084,
          -20.3455996
        ]
      }
    },
    {
      "type": "Feature",
      "id": "node/10172144285",
      "properties": {
        "timestamp": "2022-11-09T19:33:04Z",
        "version": 1,
        "changeset": 128701406,
        "addr:city": "Iúna",
        "addr:housenumber": "42",
        "addr:postcode": "29390-000",
        "addr:street": "Rua Galaor Rios",
        "addr:suburb": "Centro",
        "government": "register_office",
        "name": "Cartório de Registro Civil e Tabelionato de Iúna",
        "office": "government",
        "operator": "Jeferson Miranda",
        "phone": "+55 28 99999 9780",
        "website": "https://iunacartorio.com.br/",
        "id": "node/10172144285"
      },
      "geometry": {
        "type": "Point",
        "coordinates": [
          -41.5345435,
          -20.3482146
        ]
      }
    },
    {
      "type": "Feature",
      "id": "node/10172144286",
      "properties": {
        "timestamp": "2022-11-09T19:33:04Z",
        "version": 1,
        "changeset": 128701406,
        "addr:city": "Iúna",
        "addr:housenumber": "151",
        "addr:postcode": "29390-000",
        "addr:street": "Rua Desembargador Epaminondas do Amaral",
        "addr:suburb": "Centro",
        "email": "cartorioamaral@micronline.psi.br",
        "government": "register_office",
        "name": "Cartório de Protestos da Comarca de Iúna",
        "office": "government",
        "phone": "+55 28 3545 3002",
        "id": "node/10172144286"
      },
      "geometry": {
        "type": "Point",
        "coordinates": [
          -41.532994,
          -20.3474534
        ]
      }
    },
    {
      "type": "Feature",
      "id": "node/10172144287",
      "properties": {
        "timestamp": "2022-11-09T19:33:04Z",
        "version": 1,
        "changeset": 128701406,
        "addr:city": "Iúna",
        "addr:housenumber": "542",
        "addr:postcode": "29390-000",
        "addr:street": "Avenida Deputado João Rios",
        "addr:suburb": "Centro",
        "email": "rgi.iuna.es@gmail.com",
        "government": "register_office",
        "name": "Cartório do Primeiro Ofício, Registro Geral de Imóveis, Tabelionato, Protesto de Títulos e Documentos Civil das Pessoas Jurídicas da Comarca de Iúna",
        "office": "government",
        "id": "node/10172144287"
      },
      "geometry": {
        "type": "Point",
        "coordinates": [
          -41.5353099,
          -20.3489174
        ]
      }
    },
    {
      "type": "Feature",
      "id": "node/10172144288",
      "properties": {
        "timestamp": "2022-11-09T19:33:04Z",
        "version": 1,
        "changeset": 128701406,
        "addr:city": "Iúna",
        "addr:housenumber": "201",
        "addr:postcode": "29390-000",
        "addr:street": "Rua Capitão João Inácio de Almeida",
        "addr:suburb": "Centro",
        "government": "transportation",
        "name": "Ciretran Iúna",
        "office": "government",
        "id": "node/10172144288"
      },
      "geometry": {
        "type": "Point",
        "coordinates": [
          -41.5350966,
          -20.3489238
        ]
      }
    },
    {
      "type": "Feature",
      "id": "node/10172242128",
      "properties": {
        "timestamp": "2022-11-10T00:56:25Z",
        "version": 2,
        "changeset": 128709212,
        "addr:city": "Iúna",
        "addr:housenumber": "221",
        "addr:postcode": "29390-000",
        "addr:street": "Avenida Deputado João Rios",
        "addr:suburb": "Quilombo",
        "email": "educacao@iuna.es.gov.br",
        "government": "administrative",
        "name": "Secretaria Municipal de Educação, Cultura e Esporte",
        "office": "government",
        "phone": "+55 28 3545 4752",
        "id": "node/10172242128"
      },
      "geometry": {
        "type": "Point",
        "coordinates": [
          -41.5340115,
          -20.35137
        ]
      }
    },
    {
      "type": "Feature",
      "id": "node/10172599518",
      "properties": {
        "timestamp": "2022-11-10T00:56:25Z",
        "version": 1,
        "changeset": 128709212,
        "addr:city": "Iúna",
        "addr:housenumber": "920",
        "addr:postcode": "29390-000",
        "addr:street": "Avenida Presidente Tancredo Neves",
        "addr:suburb": "Niterói",
        "email": "interior@iuna.es.gov.br",
        "government": "administrative",
        "name": "Secretaria Municipal de Interior e Transporte",
        "office": "government",
        "phone": "+55 28 3545 4750",
        "id": "node/10172599518"
      },
      "geometry": {
        "type": "Point",
        "coordinates": [
          -41.5411884,
          -20.3378058
        ]
      }
    },
    {
      "type": "Feature",
      "id": "node/10172599519",
      "properties": {
        "timestamp": "2022-11-10T00:56:25Z",
        "version": 1,
        "changeset": 128709212,
        "addr:city": "Iúna",
        "addr:housenumber": "920",
        "addr:postcode": "29390-000",
        "addr:street": "Avenida Presidente Tancredo Neves",
        "addr:suburb": "Niterói",
        "email": "obras@iuna.es.gov.br",
        "government": "administrative",
        "name": "Secretaria Municipal de Infraestrutura e Serviços Urbanos",
        "office": "government",
        "phone": "+55 28 3545 4750",
        "id": "node/10172599519"
      },
      "geometry": {
        "type": "Point",
        "coordinates": [
          -41.5411619,
          -20.337934
        ]
      }
    },
    {
      "type": "Feature",
      "id": "node/10172599541",
      "properties": {
        "timestamp": "2022-11-10T00:56:25Z",
        "version": 1,
        "changeset": 128709212,
        "addr:city": "Iúna",
        "addr:postcode": "29390-000",
        "addr:street": "Avenida Vereador Brás Lofego",
        "addr:suburb": "Quilombo",
        "email": "aps07001250@inss.gov.br",
        "government": "social_security",
        "name": "Agência da Previdência Social em Iúna - Inss",
        "office": "government",
        "id": "node/10172599541"
      },
      "geometry": {
        "type": "Point",
        "coordinates": [
          -41.5336394,
          -20.3531388
        ]
      }
    },
    {
      "type": "Feature",
      "id": "node/10172599547",
      "properties": {
        "timestamp": "2022-11-10T00:56:25Z",
        "version": 1,
        "changeset": 128709212,
        "addr:city": "Iúna",
        "addr:postcode": "29390-000",
        "addr:street": "Avenida Amintas Osório de Matos",
        "addr:suburb": "Niterói",
        "email": "agricultura@iuna.es.gov.br",
        "government": "administrative",
        "name": "Secretaria Municipal de Agricultura",
        "office": "government",
        "phone": "+55 28 3545 4759",
        "id": "node/10172599547"
      },
      "geometry": {
        "type": "Point",
        "coordinates": [
          -41.5332341,
          -20.3564791
        ]
      }
    },
    {
      "type": "Feature",
      "id": "node/10172599603",
      "properties": {
        "timestamp": "2022-11-10T00:56:25Z",
        "version": 1,
        "changeset": 128709212,
        "addr:city": "Iúna",
        "addr:housenumber": "79",
        "addr:postcode": "29390-000",
        "addr:street": "Avenida Prefeito Antônio Lacerda",
        "addr:suburb": "Quilombo",
        "email": "saude@iuna.es.gov.br",
        "government": "administrative",
        "name": "Secretaria Municipal de Saúde",
        "office": "government",
        "phone": "+55 28 3545 4751",
        "id": "node/10172599603"
      },
      "geometry": {
        "type": "Point",
        "coordinates": [
          -41.534406,
          -20.3513558
        ]
      }
    },
    {
      "type": "Feature",
      "id": "node/10172599623",
      "properties": {
        "timestamp": "2022-11-10T00:56:25Z",
        "version": 1,
        "changeset": 128709212,
        "addr:city": "Iúna",
        "addr:housenumber": "76",
        "addr:postcode": "29390-000",
        "addr:street": "Avenida Presidente Getúlio Vargas",
        "addr:suburb": "Centro",
        "email": "assistencia@iuna.es.gov.br",
        "government": "administrative",
        "name": "Secretaria Municipal de Assistência e Desenvolvimento Social",
        "office": "government",
        "phone": "+55 28 3545 4753",
        "id": "node/10172599623"
      },
      "geometry": {
        "type": "Point",
        "coordinates": [
          -41.5348429,
          -20.3476761
        ]
      }
    },
    {
      "type": "Feature",
      "id": "node/10173339653",
      "properties": {
        "timestamp": "2022-11-10T20:19:00Z",
        "version": 2,
        "changeset": 128749771,
        "addr:city": "Iúna",
        "addr:housenumber": "372",
        "addr:postcode": "29390-000",
        "addr:street": "Avenida Deputado João Rios",
        "addr:suburb": "Centro",
        "government": "register_office",
        "name": "Cartório Eleitoral da Décima Oitava Zona de Iúna",
        "office": "government",
        "phone": "+55 28 3545 1985",
        "id": "node/10173339653"
      },
      "geometry": {
        "type": "Point",
        "coordinates": [
          -41.5349271,
          -20.3497292
        ]
      }
    },
    {
      "type": "Feature",
      "id": "node/10174079953",
      "properties": {
        "timestamp": "2022-11-10T17:44:09Z",
        "version": 1,
        "changeset": 128744429,
        "addr:city": "Iúna",
        "addr:housenumber": "213",
        "addr:postcode": "29390-000",
        "addr:street": "Rua Galaor Rios",
        "addr:suburb": "Centro",
        "government": "administrative",
        "name": "Junta de Alistamento Militar de Iúna",
        "office": "government",
        "id": "node/10174079953"
      },
      "geometry": {
        "type": "Point",
        "coordinates": [
          -41.5340638,
          -20.3494904
        ]
      }
    }
  ]
}
