{
  "type": "FeatureCollection",
  "features": [
    {
      "type": "Feature",
      "id": "node/7351104564",
      "properties": {
        "timestamp": "2020-03-31T14:32:45Z",
        "version": 1,
        "changeset": 82876456,
        "addr:city": "Iúna",
        "addr:postcode": "29390-000",
        "addr:suburb": "Rio Claro",
        "name": "Pousada Origens do Caparaó",
        "tourism": "hotel",
        "id": "node/7351104564"
      },
      "geometry": {
        "type": "Point",
        "coordinates": [
          -41.8429882,
          -20.3647925
        ]
      }
    },
    {
      "type": "Feature",
      "id": "node/10169835645",
      "properties": {
        "timestamp": "2022-11-08T19:09:39Z",
        "version": 1,
        "changeset": 128654323,
        "addr:city": "Iúna",
        "addr:postcode": "29390-000",
        "addr:street": "Rua Raulino Finamore",
        "addr:suburb": "Centro",
        "name": "Hotel Catuaí",
        "tourism": "hotel",
        "id": "node/10169835645"
      },
      "geometry": {
        "type": "Point",
        "coordinates": [
          -41.5343883,
          -20.3503211
        ]
      }
    },
    {
      "type": "Feature",
      "id": "node/10171409988",
      "properties": {
        "timestamp": "2022-11-09T12:51:02Z",
        "version": 1,
        "changeset": 128686454,
        "addr:city": "Iúna",
        "addr:housenumber": "327",
        "addr:postcode": "29390-000",
        "addr:street": "Avenida Presidente Getúlio Vargas",
        "addr:suburb": "Centro",
        "email": "htsjudas@hotmail.com",
        "name": "Hotel São Judas Tadeu",
        "phone": "+55 28 3548 1604",
        "tourism": "hotel",
        "id": "node/10171409988"
      },
      "geometry": {
        "type": "Point",
        "coordinates": [
          -41.5364858,
          -20.3460244
        ]
      }
    },
    {
      "type": "Feature",
      "id": "node/10171556273",
      "properties": {
        "timestamp": "2022-11-10T00:56:25Z",
        "version": 2,
        "changeset": 128709212,
        "addr:city": "Iúna",
        "addr:housenumber": "1024",
        "addr:postcode": "29390-000",
        "addr:street": "Avenida Presidente Tancredo Neves",
        "addr:suburb": "Niterói",
        "email": "hotelrotaimperial@gmail.com",
        "name": "Rota Imperial Hotel e Café Bistro",
        "phone": "+55 28 3545 2544",
        "tourism": "hotel",
        "id": "node/10171556273"
      },
      "geometry": {
        "type": "Point",
        "coordinates": [
          -41.5411157,
          -20.3370469
        ]
      }
    },
    {
      "type": "Feature",
      "id": "node/10171556276",
      "properties": {
        "timestamp": "2022-11-10T00:56:25Z",
        "version": 2,
        "changeset": 128709212,
        "addr:city": "Iúna",
        "addr:housenumber": "1054",
        "addr:postcode": "29390-000",
        "addr:street": "Avenida Presidente Tancredo Neves",
        "addr:suburb": "Niterói",
        "name": "Hotel Beira Rio",
        "phone": "+55 28 3545 1230",
        "tourism": "hotel",
        "id": "node/10171556276"
      },
      "geometry": {
        "type": "Point",
        "coordinates": [
          -41.5410901,
          -20.3367945
        ]
      }
    },
    {
      "type": "Feature",
      "id": "node/10171556279",
      "properties": {
        "timestamp": "2022-11-09T14:22:55Z",
        "version": 1,
        "changeset": 128690344,
        "addr:city": "Iúna",
        "addr:housenumber": "km 184",
        "addr:postcode": "29390-000",
        "addr:street": "Rodovia Federal Deputado Aloízio Santos",
        "addr:suburb": "Boas Novas",
        "name": "Hotel Boas Novas",
        "phone": "+55 28 99941 6238",
        "tourism": "hotel",
        "id": "node/10171556279"
      },
      "geometry": {
        "type": "Point",
        "coordinates": [
          -41.7083283,
          -20.3006908
        ]
      }
    }
  ]
}
