{
  "type": "FeatureCollection",
  "features": [
    {
      "type": "Feature",
      "id": "node/10171409989",
      "properties": {
        "timestamp": "2022-11-10T11:04:47Z",
        "version": 2,
        "changeset": 128727644,
        "addr:city": "Iúna",
        "addr:housenumber": "327",
        "addr:postcode": "29390-000",
        "addr:street": "Avenida Presidente Getúlio Vargas",
        "addr:suburb": "Centro",
        "amenity": "pharmacy",
        "dispensing": "yes",
        "healthcare": "pharmacy",
        "name": "Farmácia São Judas Tadeu",
        "operator": "Nilo Alves Martins & Cia Limitada",
        "id": "node/10171409989"
      },
      "geometry": {
        "type": "Point",
        "coordinates": [
          -41.5364744,
          -20.346066
        ]
      }
    },
    {
      "type": "Feature",
      "id": "node/10173629734",
      "properties": {
        "timestamp": "2022-11-10T13:44:33Z",
        "version": 1,
        "changeset": 128734995,
        "addr:city": "Iúna",
        "addr:postcode": "29390-000",
        "addr:street": "Avenida Professor Amphilóphio de Oliveira",
        "addr:suburb": "Guanabara",
        "amenity": "pharmacy",
        "dispensing": "yes",
        "healthcare": "pharmacy",
        "name": "Drogaria Poleto",
        "id": "node/10173629734"
      },
      "geometry": {
        "type": "Point",
        "coordinates": [
          -41.5326174,
          -20.3545521
        ]
      }
    },
    {
      "type": "Feature",
      "id": "node/10174403384",
      "properties": {
        "timestamp": "2022-11-10T20:19:00Z",
        "version": 1,
        "changeset": 128749771,
        "addr:city": "Iúna",
        "addr:postcode": "29390-000",
        "addr:street": "Rua Argemiro Antônio da Silva",
        "addr:suburb": "Quilombo",
        "amenity": "pharmacy",
        "dispensing": "yes",
        "healthcare": "pharmacy",
        "name": "Drogaria Iúna Farma",
        "id": "node/10174403384"
      },
      "geometry": {
        "type": "Point",
        "coordinates": [
          -41.5332472,
          -20.3512459
        ]
      }
    }
  ]
}
