{
  "type": "FeatureCollection",
  "features": [
    {
      "type": "Feature",
      "id": "node/3491299262",
      "properties": {
        "timestamp": "2019-07-07T03:56:52Z",
        "version": 2,
        "changeset": 71972900,
        "IJSN:tipoUnidad": "Hospital Geral",
        "addr:city": "São Gabriel da Palha",
        "addr:housenumber": "90",
        "addr:place": "Glória",
        "addr:postcode": "29780-000",
        "addr:street": "Rua 14 de Maio",
        "amenity": "hospital",
        "contact:phone": "(27) 3727-1387",
        "healthcare": "hospital",
        "name": "Hospital Doutor Fernando Serra",
        "id": "node/3491299262"
      },
      "geometry": {
        "type": "Point",
        "coordinates": [
          -40.5333735,
          -19.0204664
        ]
      }
    },
    {
      "type": "Feature",
      "id": "node/3491299273",
      "properties": {
        "timestamp": "2019-07-07T03:56:52Z",
        "version": 2,
        "changeset": 71972900,
        "IJSN:tipoUnidad": "Hospital Geral",
        "addr:city": "São Gabriel da Palha",
        "addr:housenumber": "25",
        "addr:place": "Santa Rita",
        "addr:postcode": "29780-000",
        "addr:street": "Praça Maria da Penha do Nascimento",
        "amenity": "hospital",
        "contact:phone": "(27) 3727-1200",
        "healthcare": "hospital",
        "name": "Hospital Santa Rita",
        "id": "node/3491299273"
      },
      "geometry": {
        "type": "Point",
        "coordinates": [
          -40.5434247,
          -19.0131413
        ]
      }
    }
  ]
}
