{
  "type": "FeatureCollection",
  "features": [
    {
      "type": "Feature",
      "id": "way/427474264",
      "properties": {
        "timestamp": "2020-02-06T14:10:50Z",
        "version": 2,
        "changeset": 80646802,
        "IJSN:administra": "Municipal",
        "IJSN:classeCnae": "Fundamental",
        "addr:city": "São Gabriel da Palha",
        "addr:postcode": "29780-000",
        "addr:suburb": "Comunidade São José",
        "alt_name": "Escola Municipal Unidocente de Ensino Fundamental",
        "amenity": "school",
        "contact:phone": "(27) 3727-1132",
        "name": "EMUEF Ladir da Penha",
        "source": "IJSN",
        "id": "way/427474264"
      },
      "geometry": {
        "type": "Polygon",
        "coordinates": [
          [
            [
              -40.6154573,
              -19.0391163
            ],
            [
              -40.615611,
              -19.0389352
            ],
            [
              -40.6158157,
              -19.0390433
            ],
            [
              -40.6163347,
              -19.0394284
            ],
            [
              -40.616321,
              -19.0396855
            ],
            [
              -40.6154573,
              -19.0391163
            ]
          ]
        ]
      }
    },
    {
      "type": "Feature",
      "id": "way/428660662",
      "properties": {
        "timestamp": "2016-07-02T00:07:33Z",
        "version": 1,
        "changeset": 40430326,
        "IJSN:administra": "Municipal",
        "IJSN:classeCnae": "Fundamental",
        "addr:city": "São Gabriel da Palha",
        "addr:housenumber": "42",
        "addr:postcode": "29780-000",
        "addr:street": "Rua João Justino Correia",
        "addr:suburb": "Cachoeira da Onça",
        "alt_name": "Escola Municipal de Ensino Fundamental",
        "amenity": "school",
        "contact:phone": "(27) 3727-2631",
        "name": "EMEF Bertolo Malacarne",
        "source": "IJSN",
        "id": "way/428660662"
      },
      "geometry": {
        "type": "Polygon",
        "coordinates": [
          [
            [
              -40.5420064,
              -19.0413058
            ],
            [
              -40.541549,
              -19.0410513
            ],
            [
              -40.541826,
              -19.0405869
            ],
            [
              -40.5422964,
              -19.0408537
            ],
            [
              -40.5420064,
              -19.0413058
            ]
          ]
        ]
      }
    },
    {
      "type": "Feature",
      "id": "way/428660663",
      "properties": {
        "timestamp": "2016-07-02T00:07:33Z",
        "version": 1,
        "changeset": 40430326,
        "IJSN:administra": "Municipal",
        "IJSN:classeCnae": "Fundamental",
        "addr:city": "São Gabriel da Palha",
        "addr:postcode": "29780-000",
        "addr:suburb": "Comunidade General Rondon",
        "alt_name": "Escola Municipal de Ensino Fundamental",
        "amenity": "school",
        "name": "EMEF Francisco José Mattedi",
        "source": "IJSN",
        "id": "way/428660663"
      },
      "geometry": {
        "type": "Polygon",
        "coordinates": [
          [
            [
              -40.4822766,
              -18.8958308
            ],
            [
              -40.4817727,
              -18.8961593
            ],
            [
              -40.4815429,
              -18.8958382
            ],
            [
              -40.4820442,
              -18.8954923
            ],
            [
              -40.4822766,
              -18.8958308
            ]
          ]
        ]
      }
    },
    {
      "type": "Feature",
      "id": "node/3293411470",
      "properties": {
        "timestamp": "2015-01-16T22:53:00Z",
        "version": 1,
        "changeset": 28197828,
        "amenity": "school",
        "id": "node/3293411470"
      },
      "geometry": {
        "type": "Point",
        "coordinates": [
          -40.4485102,
          -18.9037021
        ]
      }
    },
    {
      "type": "Feature",
      "id": "node/3293411472",
      "properties": {
        "timestamp": "2016-02-25T02:03:30Z",
        "version": 2,
        "changeset": 37426154,
        "IJSN:administra": "Estadual",
        "IJSN:classeCnae": "Fundamental e Médio",
        "addr:city": "São Gabriel da Palha",
        "addr:postcode": "29780-000",
        "addr:suburb": "Fartura",
        "alt_name": "Escola Estadual de Ensino Fundamental e Médio",
        "amenity": "school",
        "name": "EEEFM Vera Cruz",
        "source": "IJSN",
        "id": "node/3293411472"
      },
      "geometry": {
        "type": "Point",
        "coordinates": [
          -40.4479294,
          -18.9040366
        ]
      }
    },
    {
      "type": "Feature",
      "id": "node/4024904439",
      "properties": {
        "timestamp": "2016-02-25T01:59:21Z",
        "version": 1,
        "changeset": 37426154,
        "IJSN:administra": "Privada",
        "IJSN:classeCnae": "Infantil e Fundamental",
        "addr:city": "São Gabriel da Palha",
        "addr:housenumber": "86",
        "addr:postcode": "29780-000",
        "addr:street": "Rua Mário Frederico Zanotelli",
        "addr:suburb": "Populares",
        "alt_name": "Escola de Ensino Básico",
        "amenity": "school",
        "contact:phone": "(27) 3727-2355 / 3727-2784",
        "name": "EEB Coopesg Robusta",
        "source": "IJSN",
        "id": "node/4024904439"
      },
      "geometry": {
        "type": "Point",
        "coordinates": [
          -40.542742,
          -19.0159801
        ]
      }
    },
    {
      "type": "Feature",
      "id": "node/4024904445",
      "properties": {
        "timestamp": "2016-02-25T01:59:22Z",
        "version": 1,
        "changeset": 37426154,
        "IJSN:administra": "Estadual",
        "IJSN:classeCnae": "Fundamental",
        "addr:city": "São Gabriel da Palha",
        "addr:housenumber": "24",
        "addr:postcode": "29780-000",
        "addr:street": "Rua Francisco Neves",
        "addr:suburb": "Boa Vista",
        "alt_name": "Escola Estadual de Ensino Fundamental",
        "amenity": "school",
        "contact:phone": "(27) 3727-4926 / 3727-4963",
        "name": "EEEF Bairro Boa Vista",
        "source": "IJSN",
        "id": "node/4024904445"
      },
      "geometry": {
        "type": "Point",
        "coordinates": [
          -40.5397176,
          -19.006843
        ]
      }
    },
    {
      "type": "Feature",
      "id": "node/4024904447",
      "properties": {
        "timestamp": "2016-02-25T01:59:22Z",
        "version": 1,
        "changeset": 37426154,
        "IJSN:administra": "Estadual",
        "IJSN:classeCnae": "Fundamental",
        "addr:city": "São Gabriel da Palha",
        "addr:postcode": "29780-000",
        "addr:suburb": "Comunidade Queixada",
        "alt_name": "Escola Estadual de Ensino Fundamental",
        "amenity": "school",
        "contact:phone": "(27) 3728-1426",
        "name": "EEEF Córrego Queixada",
        "source": "IJSN",
        "id": "node/4024904447"
      },
      "geometry": {
        "type": "Point",
        "coordinates": [
          -40.4200811,
          -18.9445871
        ]
      }
    },
    {
      "type": "Feature",
      "id": "node/4024904462",
      "properties": {
        "timestamp": "2016-02-25T01:59:25Z",
        "version": 1,
        "changeset": 37426154,
        "IJSN:administra": "Estadual",
        "IJSN:classeCnae": "Fundamental",
        "addr:city": "São Gabriel da Palha",
        "addr:housenumber": "22",
        "addr:postcode": "29780-000",
        "addr:street": "Rua José Alves",
        "addr:suburb": "Populares",
        "alt_name": "Escola Estadual de Ensino Fundamental",
        "amenity": "school",
        "contact:phone": "(27) 3727-2088",
        "name": "EEEF Professor Carlos Dias Miranda Cunha",
        "source": "IJSN",
        "id": "node/4024904462"
      },
      "geometry": {
        "type": "Point",
        "coordinates": [
          -40.5408694,
          -19.0153038
        ]
      }
    },
    {
      "type": "Feature",
      "id": "node/4024904849",
      "properties": {
        "timestamp": "2016-02-25T01:59:40Z",
        "version": 1,
        "changeset": 37426154,
        "IJSN:administra": "Estadual",
        "IJSN:classeCnae": "Fundamental e Médio",
        "addr:city": "São Gabriel da Palha",
        "addr:postcode": "29780-000",
        "addr:street": "Rodovia João Izoton Filho",
        "addr:suburb": "Mirante",
        "alt_name": "Escola Estadual de Ensino Fundamental e Médio",
        "amenity": "school",
        "contact:phone": "(27) 3727-1356 / 3727-1953",
        "name": "EEEFM São Gabriel da Palha",
        "source": "IJSN",
        "id": "node/4024904849"
      },
      "geometry": {
        "type": "Point",
        "coordinates": [
          -40.535174,
          -19.0117767
        ]
      }
    },
    {
      "type": "Feature",
      "id": "node/4024905018",
      "properties": {
        "timestamp": "2016-02-25T01:59:52Z",
        "version": 1,
        "changeset": 37426154,
        "IJSN:administra": "Estadual",
        "IJSN:classeCnae": "Fundamental",
        "addr:city": "São Gabriel da Palha",
        "addr:postcode": "29780-000",
        "addr:suburb": "Comunidade Córrego Bley",
        "alt_name": "Escola Estadual Unidocente de Ensino Fundamental",
        "amenity": "school",
        "name": "EEUEF Córrego Bley",
        "source": "IJSN",
        "id": "node/4024905018"
      },
      "geometry": {
        "type": "Point",
        "coordinates": [
          -40.4736446,
          -19.014893
        ]
      }
    },
    {
      "type": "Feature",
      "id": "node/4024905019",
      "properties": {
        "timestamp": "2016-02-25T01:59:52Z",
        "version": 1,
        "changeset": 37426154,
        "IJSN:administra": "Estadual",
        "IJSN:classeCnae": "Fundamental",
        "addr:city": "São Gabriel da Palha",
        "addr:postcode": "29780-000",
        "addr:suburb": "Comunidade Comprido",
        "alt_name": "Escola Estadual Unidocente de Ensino Fundamental",
        "amenity": "school",
        "name": "EEUEF Córrego Comprido",
        "source": "IJSN",
        "id": "node/4024905019"
      },
      "geometry": {
        "type": "Point",
        "coordinates": [
          -40.5108243,
          -19.0285112
        ]
      }
    },
    {
      "type": "Feature",
      "id": "node/4024905020",
      "properties": {
        "timestamp": "2016-02-25T01:59:52Z",
        "version": 1,
        "changeset": 37426154,
        "IJSN:administra": "Estadual",
        "IJSN:classeCnae": "Fundamental",
        "addr:city": "São Gabriel da Palha",
        "addr:postcode": "29780-000",
        "addr:suburb": "Comunidade Córrego do Sossego",
        "alt_name": "Escola Estadual Unidocente de Ensino Fundamental",
        "amenity": "school",
        "name": "EEUEF Córrego Iracema",
        "source": "IJSN",
        "id": "node/4024905020"
      },
      "geometry": {
        "type": "Point",
        "coordinates": [
          -40.4087955,
          -18.8589178
        ]
      }
    },
    {
      "type": "Feature",
      "id": "node/4024905022",
      "properties": {
        "timestamp": "2016-02-25T01:59:53Z",
        "version": 1,
        "changeset": 37426154,
        "IJSN:administra": "Estadual",
        "IJSN:classeCnae": "Fundamental",
        "addr:city": "São Gabriel da Palha",
        "addr:postcode": "29780-000",
        "addr:suburb": "Comunidade São Bento I",
        "alt_name": "Escola Estadual Unidocente de Ensino Fundamental",
        "amenity": "school",
        "name": "EEUEF Córrego da Lapa",
        "source": "IJSN",
        "id": "node/4024905022"
      },
      "geometry": {
        "type": "Point",
        "coordinates": [
          -40.5633359,
          -18.918978
        ]
      }
    },
    {
      "type": "Feature",
      "id": "node/4024905023",
      "properties": {
        "timestamp": "2016-02-25T01:59:53Z",
        "version": 1,
        "changeset": 37426154,
        "IJSN:administra": "Estadual",
        "IJSN:classeCnae": "Fundamental",
        "addr:city": "São Gabriel da Palha",
        "addr:postcode": "29780-000",
        "addr:suburb": "Comunidade Córrego Arara",
        "alt_name": "Escola Estadual Unidocente de Ensino Fundamental",
        "amenity": "school",
        "name": "EEUEF Córrego das Araras",
        "source": "IJSN",
        "id": "node/4024905023"
      },
      "geometry": {
        "type": "Point",
        "coordinates": [
          -40.4916678,
          -18.9783329
        ]
      }
    },
    {
      "type": "Feature",
      "id": "node/4024905028",
      "properties": {
        "timestamp": "2016-02-25T01:59:53Z",
        "version": 1,
        "changeset": 37426154,
        "IJSN:administra": "Estadual",
        "IJSN:classeCnae": "Fundamental",
        "addr:city": "São Gabriel da Palha",
        "addr:postcode": "29780-000",
        "addr:suburb": "Comunidade Córrego Bonfim",
        "alt_name": "Escola Estadual Unidocente de Ensino Fundamental",
        "amenity": "school",
        "name": "EEUEF Duas Barras",
        "source": "IJSN",
        "id": "node/4024905028"
      },
      "geometry": {
        "type": "Point",
        "coordinates": [
          -40.3823357,
          -18.9249684
        ]
      }
    },
    {
      "type": "Feature",
      "id": "node/4024905032",
      "properties": {
        "timestamp": "2016-02-25T01:59:54Z",
        "version": 1,
        "changeset": 37426154,
        "IJSN:administra": "Estadual",
        "IJSN:classeCnae": "Fundamental",
        "addr:city": "São Gabriel da Palha",
        "addr:postcode": "29780-000",
        "addr:suburb": "Comunidade de Sossego",
        "alt_name": "Escola Estadual Unidocente de Ensino Fundamental",
        "amenity": "school",
        "name": "EEUEF Fazenda Dobrowolsky",
        "source": "IJSN",
        "id": "node/4024905032"
      },
      "geometry": {
        "type": "Point",
        "coordinates": [
          -40.4274836,
          -18.8847618
        ]
      }
    },
    {
      "type": "Feature",
      "id": "node/4024905034",
      "properties": {
        "timestamp": "2016-02-25T01:59:54Z",
        "version": 1,
        "changeset": 37426154,
        "IJSN:administra": "Estadual",
        "IJSN:classeCnae": "Fundamental",
        "addr:city": "São Gabriel da Palha",
        "addr:postcode": "29780-000",
        "addr:suburb": "Comunidade do Louvo",
        "alt_name": "Escola Estadual Unidocente de Ensino Fundamental",
        "amenity": "school",
        "name": "EEUEF Fazenda Lovo",
        "source": "IJSN",
        "id": "node/4024905034"
      },
      "geometry": {
        "type": "Point",
        "coordinates": [
          -40.4850112,
          -18.9454896
        ]
      }
    },
    {
      "type": "Feature",
      "id": "node/4024905038",
      "properties": {
        "timestamp": "2016-02-25T01:59:55Z",
        "version": 1,
        "changeset": 37426154,
        "IJSN:administra": "Estadual",
        "IJSN:classeCnae": "Fundamental",
        "addr:city": "São Gabriel da Palha",
        "addr:postcode": "29780-000",
        "addr:suburb": "Comunidade Córrego do Sete",
        "alt_name": "Escola Estadual Unidocente de Ensino Fundamental",
        "amenity": "school",
        "name": "EEUEF Fazenda Suave",
        "source": "IJSN",
        "id": "node/4024905038"
      },
      "geometry": {
        "type": "Point",
        "coordinates": [
          -40.5721663,
          -18.989978
        ]
      }
    },
    {
      "type": "Feature",
      "id": "node/4024905054",
      "properties": {
        "timestamp": "2016-02-25T01:59:57Z",
        "version": 1,
        "changeset": 37426154,
        "IJSN:administra": "Estadual",
        "IJSN:classeCnae": "Fundamental",
        "addr:city": "São Gabriel da Palha",
        "addr:postcode": "29780-000",
        "addr:suburb": "Comunidade Córrego Arara",
        "alt_name": "Escola Estadual Unidocente de Ensino Fundamental",
        "amenity": "school",
        "name": "EEUEF São João Batista",
        "source": "IJSN",
        "id": "node/4024905054"
      },
      "geometry": {
        "type": "Point",
        "coordinates": [
          -40.4919339,
          -19.0023857
        ]
      }
    },
    {
      "type": "Feature",
      "id": "node/4024905055",
      "properties": {
        "timestamp": "2016-02-25T01:59:57Z",
        "version": 1,
        "changeset": 37426154,
        "IJSN:administra": "Estadual",
        "IJSN:classeCnae": "Fundamental",
        "addr:city": "São Gabriel da Palha",
        "addr:postcode": "29780-000",
        "addr:suburb": "Comunidade Castelan",
        "alt_name": "Escola Estadual Unidocente de Ensino Fundamental",
        "amenity": "school",
        "name": "EEUEF São Salvador",
        "source": "IJSN",
        "id": "node/4024905055"
      },
      "geometry": {
        "type": "Point",
        "coordinates": [
          -40.4912276,
          -19.0473483
        ]
      }
    },
    {
      "type": "Feature",
      "id": "node/4024905056",
      "properties": {
        "timestamp": "2016-02-25T01:59:58Z",
        "version": 1,
        "changeset": 37426154,
        "IJSN:administra": "Estadual",
        "IJSN:classeCnae": "Fundamental",
        "addr:city": "São Gabriel da Palha",
        "addr:postcode": "29780-000",
        "addr:suburb": "Comunidade Córrego Bley",
        "alt_name": "Escola Estadual Unidocente de Ensino Fundamental",
        "amenity": "school",
        "name": "EEUEF Valdivino Grooner",
        "source": "IJSN",
        "id": "node/4024905056"
      },
      "geometry": {
        "type": "Point",
        "coordinates": [
          -40.4770064,
          -18.9908228
        ]
      }
    },
    {
      "type": "Feature",
      "id": "node/4024905057",
      "properties": {
        "timestamp": "2016-07-02T00:07:57Z",
        "version": 2,
        "changeset": 40430326,
        "IJSN:administra": "Estadual",
        "IJSN:classeCnae": "Fundamental",
        "addr:city": "São Gabriel da Palha",
        "addr:postcode": "29780-000",
        "addr:suburb": "Comunidade do Louvo",
        "alt_name": "Escola Estadual Unidocente de Ensino Fundamental",
        "amenity": "school",
        "name": "EEUEF Vale Encantado",
        "source": "IJSN",
        "id": "node/4024905057"
      },
      "geometry": {
        "type": "Point",
        "coordinates": [
          -40.4745224,
          -18.9641136
        ]
      }
    },
    {
      "type": "Feature",
      "id": "node/4024905074",
      "properties": {
        "timestamp": "2016-02-25T02:00:00Z",
        "version": 1,
        "changeset": 37426154,
        "IJSN:administra": "Privada",
        "IJSN:classeCnae": "Fundamental",
        "addr:city": "São Gabriel da Palha",
        "addr:postcode": "29780-000",
        "addr:suburb": "Comunidade Córrego Bley",
        "alt_name": "Escola Família Agrícola",
        "amenity": "school",
        "contact:phone": "(27) 9849-7439",
        "name": "EFAEFMEP do Bley",
        "source": "IJSN",
        "id": "node/4024905074"
      },
      "geometry": {
        "type": "Point",
        "coordinates": [
          -40.476978,
          -19.0090249
        ]
      }
    },
    {
      "type": "Feature",
      "id": "node/4024905469",
      "properties": {
        "timestamp": "2016-02-25T02:00:33Z",
        "version": 1,
        "changeset": 37426154,
        "IJSN:administra": "Municipal",
        "IJSN:classeCnae": "Fundamental",
        "addr:city": "São Gabriel da Palha",
        "addr:housenumber": "50",
        "addr:postcode": "29780-000",
        "addr:street": "Rua Antônio Borgo",
        "addr:suburb": "Jardim de Infância",
        "alt_name": "Escola Municipal de Ensino Fundamental",
        "amenity": "school",
        "contact:phone": "(27) 3727-3912",
        "name": "EMEF Ilda Ferreira da Fonseca Martins",
        "source": "IJSN",
        "id": "node/4024905469"
      },
      "geometry": {
        "type": "Point",
        "coordinates": [
          -40.5394889,
          -19.0103074
        ]
      }
    },
    {
      "type": "Feature",
      "id": "node/4024905470",
      "properties": {
        "timestamp": "2016-02-25T02:00:33Z",
        "version": 1,
        "changeset": 37426154,
        "IJSN:administra": "Municipal",
        "IJSN:classeCnae": "Fundamental",
        "addr:city": "São Gabriel da Palha",
        "addr:housenumber": "45",
        "addr:postcode": "29780-000",
        "addr:street": "Rua Ely Cardoso",
        "addr:suburb": "Santa Cecília",
        "alt_name": "Escola Municipal de Ensino Fundamental",
        "amenity": "school",
        "contact:phone": "(27) 3727-1172",
        "name": "EMEF Irmã Adelaide Bertocchi",
        "source": "IJSN",
        "id": "node/4024905470"
      },
      "geometry": {
        "type": "Point",
        "coordinates": [
          -40.5354088,
          -19.0220631
        ]
      }
    },
    {
      "type": "Feature",
      "id": "node/4024905676",
      "properties": {
        "timestamp": "2016-02-25T02:00:51Z",
        "version": 1,
        "changeset": 37426154,
        "IJSN:administra": "Municipal",
        "IJSN:classeCnae": "Fundamental",
        "addr:city": "São Gabriel da Palha",
        "addr:housenumber": "107",
        "addr:postcode": "29780-000",
        "addr:street": "Rua Deolindo Rocha Loureiro",
        "addr:suburb": "Santa Cecília",
        "alt_name": "Escola Municipal de Ensino Fundamental",
        "amenity": "school",
        "contact:phone": "(27) 3727-4737 / 3727-1969",
        "name": "EMEF Professora Maria Celeste Torezzani Storch",
        "source": "IJSN",
        "id": "node/4024905676"
      },
      "geometry": {
        "type": "Point",
        "coordinates": [
          -40.5370533,
          -19.0213975
        ]
      }
    },
    {
      "type": "Feature",
      "id": "node/4024905766",
      "properties": {
        "timestamp": "2016-02-25T02:01:05Z",
        "version": 1,
        "changeset": 37426154,
        "IJSN:administra": "Municipal",
        "IJSN:classeCnae": "Infantil e Fundamental",
        "addr:city": "São Gabriel da Palha",
        "addr:postcode": "29780-000",
        "addr:street": "Rua Daniel Comboni",
        "addr:suburb": "Asa Branca",
        "alt_name": "Escola Municipal de Ensino Infantil e Fundamental",
        "amenity": "school",
        "contact:phone": "(27) 3727-2983",
        "name": "EMEIEF Bem Viver",
        "source": "IJSN",
        "id": "node/4024905766"
      },
      "geometry": {
        "type": "Point",
        "coordinates": [
          -40.5296432,
          -19.0305043
        ]
      }
    },
    {
      "type": "Feature",
      "id": "node/4024905905",
      "properties": {
        "timestamp": "2016-02-25T02:01:12Z",
        "version": 1,
        "changeset": 37426154,
        "IJSN:administra": "Municipal",
        "IJSN:classeCnae": "Infantil e Fundamental",
        "addr:city": "São Gabriel da Palha",
        "addr:postcode": "29780-000",
        "addr:street": "Rua Santa Inês",
        "addr:suburb": "Santa Terezinha",
        "alt_name": "Escola Municipal de Ensino Infantil e Fundamental",
        "amenity": "school",
        "contact:phone": "(27) 3727-4931 / 3727-4750",
        "name": "EMEIEF João Gabriel",
        "source": "IJSN",
        "id": "node/4024905905"
      },
      "geometry": {
        "type": "Point",
        "coordinates": [
          -40.5408693,
          -19.0335654
        ]
      }
    },
    {
      "type": "Feature",
      "id": "node/4024906259",
      "properties": {
        "timestamp": "2016-02-25T02:01:52Z",
        "version": 1,
        "changeset": 37426154,
        "IJSN:administra": "Municipal",
        "IJSN:classeCnae": "Fundamental",
        "addr:city": "São Gabriel da Palha",
        "addr:postcode": "29780-000",
        "addr:suburb": "Comunidade de Queixada",
        "alt_name": "Escola Municipal Unidocente de Ensino Fundamental",
        "amenity": "school",
        "name": "EMUEF Córrego Fartura",
        "source": "IJSN",
        "id": "node/4024906259"
      },
      "geometry": {
        "type": "Point",
        "coordinates": [
          -40.47049,
          -18.9332901
        ]
      }
    },
    {
      "type": "Feature",
      "id": "node/4024906261",
      "properties": {
        "timestamp": "2016-02-25T02:01:53Z",
        "version": 1,
        "changeset": 37426154,
        "IJSN:administra": "Municipal",
        "IJSN:classeCnae": "Fundamental",
        "addr:city": "São Gabriel da Palha",
        "addr:postcode": "29780-000",
        "addr:suburb": "Comunidade Córrego Jacarandá",
        "alt_name": "Escola Municipal Unidocente de Ensino Fundamental",
        "amenity": "school",
        "name": "EMUEF Córrego Jacarandá",
        "source": "IJSN",
        "id": "node/4024906261"
      },
      "geometry": {
        "type": "Point",
        "coordinates": [
          -40.3903899,
          -18.9161075
        ]
      }
    },
    {
      "type": "Feature",
      "id": "node/4024906266",
      "properties": {
        "timestamp": "2016-02-25T02:01:53Z",
        "version": 1,
        "changeset": 37426154,
        "IJSN:administra": "Municipal",
        "IJSN:classeCnae": "Fundamental",
        "addr:city": "São Gabriel da Palha",
        "addr:postcode": "29780-000",
        "addr:suburb": "Comunidade Sete de Setembro",
        "alt_name": "Escola Municipal Unidocente de Ensino Fundamental",
        "amenity": "school",
        "name": "EMUEF Córrego Sete de Setembro",
        "source": "IJSN",
        "id": "node/4024906266"
      },
      "geometry": {
        "type": "Point",
        "coordinates": [
          -40.5866233,
          -19.0114269
        ]
      }
    },
    {
      "type": "Feature",
      "id": "node/4024906281",
      "properties": {
        "timestamp": "2016-02-25T02:01:55Z",
        "version": 1,
        "changeset": 37426154,
        "IJSN:administra": "Municipal",
        "IJSN:classeCnae": "Fundamental",
        "addr:city": "São Gabriel da Palha",
        "addr:postcode": "29780-000",
        "addr:suburb": "Comunidade Córrego Dourados",
        "alt_name": "Escola Municipal Unidocente de Ensino Fundamental",
        "amenity": "school",
        "name": "EMUEF Córrego da Laje",
        "source": "IJSN",
        "id": "node/4024906281"
      },
      "geometry": {
        "type": "Point",
        "coordinates": [
          -40.5238863,
          -18.9541881
        ]
      }
    },
    {
      "type": "Feature",
      "id": "node/4024906311",
      "properties": {
        "timestamp": "2016-02-25T02:02:00Z",
        "version": 1,
        "changeset": 37426154,
        "IJSN:administra": "Municipal",
        "IJSN:classeCnae": "Fundamental",
        "addr:city": "São Gabriel da Palha",
        "addr:postcode": "29780-000",
        "addr:suburb": "Comunidade de Terra Roxa",
        "alt_name": "Escola Municipal Unidocente de Ensino Fundamental",
        "amenity": "school",
        "name": "EMUEF Flor da Terra Roxa",
        "source": "IJSN",
        "id": "node/4024906311"
      },
      "geometry": {
        "type": "Point",
        "coordinates": [
          -40.3951898,
          -18.8835341
        ]
      }
    },
    {
      "type": "Feature",
      "id": "node/4024906350",
      "properties": {
        "timestamp": "2016-02-25T02:02:06Z",
        "version": 1,
        "changeset": 37426154,
        "IJSN:administra": "Municipal",
        "IJSN:classeCnae": "Fundamental",
        "addr:city": "São Gabriel da Palha",
        "addr:postcode": "29780-000",
        "addr:suburb": "Comunidade São Roque da Terra Roxa",
        "alt_name": "Escola Municipal Unidocente de Ensino Fundamental",
        "amenity": "school",
        "name": "EMUEF Patrimônio São Roque",
        "source": "IJSN",
        "id": "node/4024906350"
      },
      "geometry": {
        "type": "Point",
        "coordinates": [
          -40.5079039,
          -18.9136588
        ]
      }
    },
    {
      "type": "Feature",
      "id": "node/4024906369",
      "properties": {
        "timestamp": "2016-02-25T02:02:08Z",
        "version": 1,
        "changeset": 37426154,
        "IJSN:administra": "Municipal",
        "IJSN:classeCnae": "Fundamental",
        "addr:city": "São Gabriel da Palha",
        "addr:postcode": "29780-000",
        "addr:suburb": "Comunidade Rancho Alto",
        "alt_name": "Escola Municipal Unidocente de Ensino Fundamental",
        "amenity": "school",
        "name": "EMUEF Rancho Alto",
        "source": "IJSN",
        "id": "node/4024906369"
      },
      "geometry": {
        "type": "Point",
        "coordinates": [
          -40.6421578,
          -18.9605197
        ]
      }
    },
    {
      "type": "Feature",
      "id": "node/4024906602",
      "properties": {
        "timestamp": "2016-02-25T02:02:13Z",
        "version": 1,
        "changeset": 37426154,
        "IJSN:administra": "Municipal",
        "IJSN:classeCnae": "Fundamental",
        "addr:city": "São Gabriel da Palha",
        "addr:postcode": "29780-000",
        "addr:suburb": "Comunidade São Sebastião da Barra Seca",
        "alt_name": "Escola Municipal Unidocente de Ensino Fundamental",
        "amenity": "school",
        "name": "EMUEF São Sebastião da Barra Seca",
        "source": "IJSN",
        "id": "node/4024906602"
      },
      "geometry": {
        "type": "Point",
        "coordinates": [
          -40.5841498,
          -18.91049
        ]
      }
    },
    {
      "type": "Feature",
      "id": "node/5503350894",
      "properties": {
        "timestamp": "2018-03-25T15:35:36Z",
        "version": 1,
        "changeset": 57510472,
        "addr:city": "São Gabriel da Palha",
        "addr:postcode": "29780000",
        "addr:street": "Rua Pedro Alvares Cabral",
        "addr:suburb": "centro",
        "amenity": "school",
        "denomination": "catholic",
        "name": "Centro de Formação Dom José Dalvit",
        "religion": "christian",
        "id": "node/5503350894"
      },
      "geometry": {
        "type": "Point",
        "coordinates": [
          -40.5360827,
          -19.0173322
        ]
      }
    }
  ]
}
