{
  "type": "FeatureCollection",
  "features": [
    {
      "type": "Feature",
      "id": "way/204902988",
      "properties": {
        "timestamp": "2019-04-13T02:32:37Z",
        "version": 3,
        "changeset": 69167394,
        "addr:housenumber": "654",
        "addr:postcode": "18603-700",
        "addr:street": "Avenida Santana",
        "addr:suburb": "Centro",
        "amenity": "college",
        "contact:phone": "+55 14 3848 1810",
        "email": "e051dir@cps.sp.gov.br",
        "name": "Escola TÃ©cnica Doutor Domingos Minicucci Filho",
        "operator": "Centro Paula Souza",
        "phone": "+55 14 3814 0816",
        "ref": "35014722",
        "short_name": "ETEC Dr Domingos Minicucci Filho",
        "id": "way/204902988"
      },
      "geometry": {
        "type": "Polygon",
        "coordinates": [
          [
            [
              -48.4450467,
              -22.8826614
            ],
            [
              -48.4451224,
              -22.8834019
            ],
            [
              -48.4442645,
              -22.8834685
            ],
            [
              -48.4441724,
              -22.882721
            ],
            [
              -48.4450467,
              -22.8826614
            ]
          ]
        ]
      }
    }
  ]
}
