{
  "type": "FeatureCollection",
  "features": [
    {
      "type": "Feature",
      "id": "way/302123349",
      "properties": {
        "timestamp": "2020-06-06T02:03:21Z",
        "version": 7,
        "changeset": 86266650,
        "addr:city": "Diadema",
        "addr:country": "BR",
        "addr:housenumber": "19",
        "addr:postcode": "09941-140",
        "addr:street": "Rua Guatemala",
        "addr:suburb": "Canhema",
        "amenity": "college",
        "name": "Escola Senai Manuel Garcia Filho",
        "operator": "Senai",
        "operator:type": "public",
        "phone": "+55 11 4070 8950",
        "ref": "INEP-35147965",
        "id": "way/302123349"
      },
      "geometry": {
        "type": "Polygon",
        "coordinates": [
          [
            [
              -46.6114919,
              -23.6795968
            ],
            [
              -46.6109072,
              -23.6800341
            ],
            [
              -46.6106363,
              -23.6802281
            ],
            [
              -46.6104485,
              -23.6800857
            ],
            [
              -46.6098048,
              -23.6795133
            ],
            [
              -46.6098799,
              -23.6794298
            ],
            [
              -46.6099979,
              -23.6793168
            ],
            [
              -46.6101266,
              -23.6794052
            ],
            [
              -46.6104995,
              -23.6790908
            ],
            [
              -46.6106389,
              -23.6790614
            ],
            [
              -46.6107481,
              -23.6790513
            ],
            [
              -46.6108857,
              -23.6790933
            ],
            [
              -46.6114919,
              -23.6795968
            ]
          ]
        ]
      }
    },
    {
      "type": "Feature",
      "id": "way/321906213",
      "properties": {
        "timestamp": "2020-10-29T12:56:47Z",
        "version": 8,
        "changeset": 93237927,
        "addr:city": "Diadema",
        "addr:housenumber": "735",
        "addr:postcode": "09991-060",
        "addr:street": "Rua Guarani",
        "addr:suburb": "Conceição",
        "amenity": "college",
        "contact:phone": "+55 11 4043 2447",
        "email": "e166acad@cps.sp.gov.br",
        "name": "Escola Técnica Estadual Juscelino Kubitschek de Oliveira",
        "operator": "Centro Paula Souza",
        "operator:type": "government",
        "phone": "+55 11 4056 1302",
        "ref": "INEP-35345891",
        "short_name": "ETEC Juscelino Kubitscheck de Oliveira",
        "website": "http://www.etecjk.com/",
        "id": "way/321906213"
      },
      "geometry": {
        "type": "Polygon",
        "coordinates": [
          [
            [
              -46.6108852,
              -23.6992488
            ],
            [
              -46.6102394,
              -23.6991587
            ],
            [
              -46.6103034,
              -23.6987738
            ],
            [
              -46.6109492,
              -23.6988638
            ],
            [
              -46.6108852,
              -23.6992488
            ]
          ]
        ]
      }
    }
  ]
}
