{
  "type": "FeatureCollection",
  "features": [
    {
      "type": "Feature",
      "id": "way/384567295",
      "properties": {
        "timestamp": "2019-03-06T03:17:49Z",
        "version": 3,
        "changeset": 67828494,
        "addr:city": "Diadema",
        "addr:housenumber": "885",
        "addr:street": "Avenida Conceição",
        "addr:suburb": "Centro",
        "building": "yes",
        "name": "Só Love Hotel",
        "phone": "+55 11 4056 7013",
        "tourism": "hotel",
        "website": "https://www.solovehotel.com.br/o-hotel",
        "id": "way/384567295"
      },
      "geometry": {
        "type": "Polygon",
        "coordinates": [
          [
            [
              -46.6279356,
              -23.677524
            ],
            [
              -46.6277128,
              -23.6774601
            ],
            [
              -46.6277765,
              -23.6773297
            ],
            [
              -46.627838,
              -23.67727
            ],
            [
              -46.6278735,
              -23.6773257
            ],
            [
              -46.6279946,
              -23.6773666
            ],
            [
              -46.6279356,
              -23.677524
            ]
          ]
        ]
      }
    },
    {
      "type": "Feature",
      "id": "node/11380615904",
      "properties": {
        "timestamp": "2023-11-28T01:43:43Z",
        "version": 1,
        "changeset": 144528948,
        "addr:street": "Rua dos Escudeiros",
        "name": "Hotel Piraporinha",
        "tourism": "hotel",
        "id": "node/11380615904"
      },
      "geometry": {
        "type": "Point",
        "coordinates": [
          -46.5815012,
          -23.6920875
        ]
      }
    }
  ]
}
