{
  "type": "FeatureCollection",
  "features": [
    {
      "type": "Feature",
      "id": "way/272985143",
      "properties": {
        "timestamp": "2023-08-14T00:49:28Z",
        "version": 6,
        "changeset": 139848845,
        "addr:city": "Diadema",
        "addr:housenumber": "257",
        "addr:postcode": "09951-550",
        "addr:street": "Praça Bom Jesus de Piraporinha",
        "addr:suburb": "Piraporinha",
        "amenity": "pharmacy",
        "brand": "Drogaria São Paulo",
        "brand:wikidata": "Q5308184",
        "brand:wikipedia": "en:Grupo DPSP",
        "building": "yes",
        "contact:mobile": "+55 11 97297 8416",
        "contact:phone": "+55 11 4067 4949",
        "dispensing": "yes",
        "drive_through": "no",
        "healthcare": "pharmacy",
        "name": "Drogaria São Paulo",
        "opening_hours": "24/7",
        "phone": "+55 11 4067 4949",
        "id": "way/272985143"
      },
      "geometry": {
        "type": "Polygon",
        "coordinates": [
          [
            [
              -46.5815683,
              -23.691594
            ],
            [
              -46.5815056,
              -23.6915594
            ],
            [
              -46.5816346,
              -23.6913594
            ],
            [
              -46.5817036,
              -23.6913918
            ],
            [
              -46.5815683,
              -23.691594
            ]
          ]
        ]
      }
    },
    {
      "type": "Feature",
      "id": "way/301561628",
      "properties": {
        "timestamp": "2020-02-22T14:49:08Z",
        "version": 4,
        "changeset": 81347483,
        "addr:city": "Diadema",
        "addr:street": "Praça Bom Jesus de Piraporinha",
        "addr:suburb": "Piraporinha",
        "amenity": "pharmacy",
        "building": "yes",
        "dispensing": "yes",
        "drive_through": "no",
        "healthcare": "pharmacy",
        "name": "Bifarma",
        "operator": "Bifarma",
        "website": "https://www.bifarma.com.br/",
        "id": "way/301561628"
      },
      "geometry": {
        "type": "Polygon",
        "coordinates": [
          [
            [
              -46.5812834,
              -23.691927
            ],
            [
              -46.5811386,
              -23.6922144
            ],
            [
              -46.581093,
              -23.6921923
            ],
            [
              -46.5812384,
              -23.6919039
            ],
            [
              -46.5812834,
              -23.691927
            ]
          ]
        ]
      }
    },
    {
      "type": "Feature",
      "id": "way/329346138",
      "properties": {
        "timestamp": "2020-02-22T14:49:08Z",
        "version": 2,
        "changeset": 81347483,
        "addr:city": "Diadema",
        "addr:housenumber": "304",
        "addr:postcode": "09851-550",
        "addr:street": "Avenida Piraporinha",
        "addr:suburb": "Piraporinha",
        "amenity": "pharmacy",
        "building": "yes",
        "dispensing": "yes",
        "drive_through": "no",
        "healthcare": "pharmacy",
        "name": "Farmais",
        "phone": "+55 11 4066 1598",
        "id": "way/329346138"
      },
      "geometry": {
        "type": "Polygon",
        "coordinates": [
          [
            [
              -46.580909,
              -23.6919285
            ],
            [
              -46.5808593,
              -23.6918892
            ],
            [
              -46.5809586,
              -23.6917296
            ],
            [
              -46.5809961,
              -23.6917664
            ],
            [
              -46.580909,
              -23.6919285
            ]
          ]
        ]
      }
    },
    {
      "type": "Feature",
      "id": "way/436776656",
      "properties": {
        "timestamp": "2024-01-30T06:06:47Z",
        "version": 6,
        "changeset": 146848886,
        "addr:city": "Diadema",
        "addr:postcode": "09951-550",
        "addr:street": "Praça Bom Jesus de Piraporinha",
        "addr:suburb": "Piraporinha",
        "amenity": "pharmacy",
        "building": "yes",
        "contact:phone": "+55 114069 8961",
        "dispensing": "yes",
        "drive_through": "no",
        "healthcare": "pharmacy",
        "name": "Drugstore Pague Menos",
        "opening_hours": "24/7",
        "phone": "+55 11 4067 7804",
        "id": "way/436776656"
      },
      "geometry": {
        "type": "Polygon",
        "coordinates": [
          [
            [
              -46.5811478,
              -23.6909843
            ],
            [
              -46.5809426,
              -23.691121
            ],
            [
              -46.580886,
              -23.6910401
            ],
            [
              -46.5808929,
              -23.6910105
            ],
            [
              -46.5810348,
              -23.6909077
            ],
            [
              -46.5811097,
              -23.6909432
            ],
            [
              -46.5811478,
              -23.6909843
            ]
          ]
        ]
      }
    },
    {
      "type": "Feature",
      "id": "way/682547252",
      "properties": {
        "timestamp": "2019-10-14T11:54:08Z",
        "version": 4,
        "changeset": 75662039,
        "addr:city": "Diadema",
        "addr:housenumber": "601",
        "addr:postcode": "09981-420",
        "addr:street": "Avenida Licio Maia",
        "addr:suburb": "Conceição",
        "amenity": "pharmacy",
        "brand": "Drogaria São Paulo",
        "brand:wikidata": "Q5308184",
        "brand:wikipedia": "en:Grupo DPSP",
        "building": "retail",
        "building:levels": "1",
        "dispensing": "yes",
        "drive_through": "no",
        "healthcare": "pharmacy",
        "name": "Drogaria São Paulo",
        "id": "way/682547252"
      },
      "geometry": {
        "type": "Polygon",
        "coordinates": [
          [
            [
              -46.6117952,
              -23.6993416
            ],
            [
              -46.6118213,
              -23.6991802
            ],
            [
              -46.6118792,
              -23.6992001
            ],
            [
              -46.612005,
              -23.6992434
            ],
            [
              -46.611942,
              -23.6993716
            ],
            [
              -46.6117952,
              -23.6993416
            ]
          ]
        ]
      }
    },
    {
      "type": "Feature",
      "id": "way/814805551",
      "properties": {
        "timestamp": "2020-06-11T02:26:42Z",
        "version": 1,
        "changeset": 86489143,
        "amenity": "pharmacy",
        "building": "yes",
        "dispensing": "yes",
        "healthcare": "pharmacy",
        "name": "Farmácia PopuDiadema",
        "id": "way/814805551"
      },
      "geometry": {
        "type": "Polygon",
        "coordinates": [
          [
            [
              -46.619824,
              -23.6873278
            ],
            [
              -46.6196952,
              -23.6874998
            ],
            [
              -46.6196336,
              -23.6874752
            ],
            [
              -46.6197543,
              -23.687291
            ],
            [
              -46.619824,
              -23.6873278
            ]
          ]
        ]
      }
    },
    {
      "type": "Feature",
      "id": "way/1058625661",
      "properties": {
        "timestamp": "2022-05-09T16:53:06Z",
        "version": 1,
        "changeset": 120757613,
        "addr:housenumber": "663",
        "addr:street": "Avenida Nossa Senhora dos Navegantes",
        "amenity": "pharmacy",
        "building": "yes",
        "dispensing": "yes",
        "healthcare": "pharmacy",
        "name": "Doutor Farma",
        "id": "way/1058625661"
      },
      "geometry": {
        "type": "Polygon",
        "coordinates": [
          [
            [
              -46.621353,
              -23.7197272
            ],
            [
              -46.6214195,
              -23.7198328
            ],
            [
              -46.6213569,
              -23.7198704
            ],
            [
              -46.6212904,
              -23.7197576
            ],
            [
              -46.621353,
              -23.7197272
            ]
          ]
        ]
      }
    },
    {
      "type": "Feature",
      "id": "way/1135282288",
      "properties": {
        "timestamp": "2024-06-08T23:13:04Z",
        "version": 3,
        "changeset": 152435133,
        "addr:housenumber": "1070",
        "addr:postcode": "09950-000",
        "addr:street": "Avenida Piraporinha",
        "addr:suburb": "Vila Nogueira",
        "amenity": "pharmacy",
        "brand": "Drogasil",
        "brand:wikidata": "Q5308185",
        "building": "yes",
        "dispensing": "yes",
        "drive_through": "no",
        "healthcare": "pharmacy",
        "name": "Drogasil",
        "opening_hours": "Mo-Su,PH 07:00-23:00",
        "phone": "+55 11 5196 0887",
        "website": "https://www.drogasil.com.br/",
        "wheelchair": "yes",
        "id": "way/1135282288"
      },
      "geometry": {
        "type": "Polygon",
        "coordinates": [
          [
            [
              -46.5913647,
              -23.6888902
            ],
            [
              -46.5913137,
              -23.6889562
            ],
            [
              -46.5911388,
              -23.6889616
            ],
            [
              -46.5911321,
              -23.6889097
            ],
            [
              -46.591166,
              -23.6888447
            ],
            [
              -46.5912286,
              -23.6888965
            ],
            [
              -46.5912954,
              -23.6888329
            ],
            [
              -46.5913647,
              -23.6888902
            ]
          ]
        ]
      }
    },
    {
      "type": "Feature",
      "id": "node/3826869782",
      "properties": {
        "timestamp": "2021-03-20T22:25:50Z",
        "version": 5,
        "changeset": 101420376,
        "addr:city": "Diadema",
        "addr:housenumber": "121",
        "addr:street": "Avenida Piraporinha",
        "addr:suburb": "Piraporinha",
        "amenity": "pharmacy",
        "contact:mobile": "+55 11 97318 0321",
        "dispensing": "yes",
        "drive_through": "no",
        "fax": "+55 11 406 2270",
        "healthcare": "pharmacy",
        "name": "Paris Pharma Drogaria",
        "phone": "+55 11 4066 1576",
        "website": "http://www.parispharmadrogarias.com.br/",
        "id": "node/3826869782"
      },
      "geometry": {
        "type": "Point",
        "coordinates": [
          -46.582884,
          -23.69175
        ]
      }
    },
    {
      "type": "Feature",
      "id": "node/3888666917",
      "properties": {
        "timestamp": "2020-02-22T13:20:07Z",
        "version": 2,
        "changeset": 81345772,
        "addr:city": "Diadema",
        "addr:street": "Avenida Antonio Piranga",
        "addr:suburb": "Centro",
        "amenity": "pharmacy",
        "healthcare": "pharmacy",
        "name": "Drogaria Quarteirão da Saúde",
        "phone": "+55 11 3426 3328",
        "id": "node/3888666917"
      },
      "geometry": {
        "type": "Point",
        "coordinates": [
          -46.618614,
          -23.6863483
        ]
      }
    },
    {
      "type": "Feature",
      "id": "node/5797063460",
      "properties": {
        "timestamp": "2018-07-30T22:19:31Z",
        "version": 1,
        "changeset": 61209974,
        "addr:city": "Diadema",
        "addr:street": "Avenida Piraporinha",
        "addr:suburb": "Piraporinha",
        "amenity": "pharmacy",
        "dispensing": "yes",
        "healthcare": "pharmacy",
        "name": "Farmácia Super Popular",
        "id": "node/5797063460"
      },
      "geometry": {
        "type": "Point",
        "coordinates": [
          -46.5816605,
          -23.6916343
        ]
      }
    },
    {
      "type": "Feature",
      "id": "node/5797094071",
      "properties": {
        "timestamp": "2018-07-30T22:42:52Z",
        "version": 1,
        "changeset": 61210406,
        "amenity": "pharmacy",
        "dispensing": "yes",
        "healthcare": "pharmacy",
        "name": "RiosPharma",
        "id": "node/5797094071"
      },
      "geometry": {
        "type": "Point",
        "coordinates": [
          -46.5992076,
          -23.6793381
        ]
      }
    },
    {
      "type": "Feature",
      "id": "node/9727472808",
      "properties": {
        "timestamp": "2022-05-09T16:53:06Z",
        "version": 1,
        "changeset": 120757613,
        "addr:housenumber": "729",
        "addr:street": "Avenida Nossa Senhora dos Navegantes",
        "amenity": "pharmacy",
        "dispensing": "yes",
        "drive_through": "no",
        "healthcare": "pharmacy",
        "name": "Drogaria Prates",
        "phone": "+55 11 4049 3366",
        "id": "node/9727472808"
      },
      "geometry": {
        "type": "Point",
        "coordinates": [
          -46.6206667,
          -23.7202768
        ]
      }
    },
    {
      "type": "Feature",
      "id": "node/11021065741",
      "properties": {
        "timestamp": "2023-07-02T23:09:56Z",
        "version": 1,
        "changeset": 138041602,
        "addr:housenumber": "1825",
        "addr:postcode": "09950-300",
        "addr:street": "Avenida Fagundes de Oliveira",
        "addr:suburb": "Vila São José",
        "amenity": "pharmacy",
        "dispensing": "yes",
        "drive_through": "no",
        "healthcare": "pharmacy",
        "mobile": "+ 55 11 99131 1408",
        "name": "Ultrafarma Popular",
        "opening_hours": "Mo-Fr 08:00-20:00; Sa 08:00-13:00; Su,PH off",
        "phone": "+55 11 4075 2422",
        "id": "node/11021065741"
      },
      "geometry": {
        "type": "Point",
        "coordinates": [
          -46.5833492,
          -23.6760899
        ]
      }
    },
    {
      "type": "Feature",
      "id": "node/11967887684",
      "properties": {
        "timestamp": "2024-06-09T23:50:53Z",
        "version": 1,
        "changeset": 152474097,
        "addr:street": "Avenida Assembléia",
        "amenity": "pharmacy",
        "dispensing": "yes",
        "healthcare": "pharmacy",
        "mobile": "+55 11 97717 2353",
        "name": "Drogaria Élida",
        "phone": "+55 11 4044 3252",
        "id": "node/11967887684"
      },
      "geometry": {
        "type": "Point",
        "coordinates": [
          -46.6319887,
          -23.6809484
        ]
      }
    },
    {
      "type": "Feature",
      "id": "node/12030083381",
      "properties": {
        "timestamp": "2024-07-02T23:21:30Z",
        "version": 1,
        "changeset": 153479536,
        "addr:street": "Estrada do Rufino",
        "amenity": "pharmacy",
        "healthcare": "pharmacy",
        "name": "BemBarato Farma",
        "id": "node/12030083381"
      },
      "geometry": {
        "type": "Point",
        "coordinates": [
          -46.6172885,
          -23.7042508
        ]
      }
    },
    {
      "type": "Feature",
      "id": "node/12032092056",
      "properties": {
        "timestamp": "2024-07-03T22:21:40Z",
        "version": 1,
        "changeset": 153521631,
        "addr:housenumber": "974",
        "addr:street": "Avenida Antônio Sylvio Cunha Bueno",
        "amenity": "pharmacy",
        "dispensing": "yes",
        "drive_through": "no",
        "healthcare": "pharmacy",
        "name": "Drogaria Liveira",
        "phone": "+55 11 4049 1162",
        "id": "node/12032092056"
      },
      "geometry": {
        "type": "Point",
        "coordinates": [
          -46.6124757,
          -23.7176434
        ]
      }
    }
  ]
}
