{
  "type": "FeatureCollection",
  "features": [
    {
      "type": "Feature",
      "id": "way/1083564772",
      "properties": {
        "timestamp": "2022-08-03T17:04:04Z",
        "version": 1,
        "changeset": 124445682,
        "addr:street": "Avenida Água Funda",
        "amenity": "veterinary",
        "building": "yes",
        "contact:mobile": "+55 11 96036 5965",
        "name": "Tropical Vet Clínica Veterinária",
        "phone": "+55 11 2668 2935",
        "id": "way/1083564772"
      },
      "geometry": {
        "type": "Polygon",
        "coordinates": [
          [
            [
              -46.6113056,
              -23.6678053
            ],
            [
              -46.611417,
              -23.667935
            ],
            [
              -46.6112589,
              -23.6680307
            ],
            [
              -46.6111943,
              -23.6679048
            ],
            [
              -46.6112094,
              -23.667857
            ],
            [
              -46.6113056,
              -23.6678053
            ]
          ]
        ]
      }
    },
    {
      "type": "Feature",
      "id": "way/1290793446",
      "properties": {
        "timestamp": "2024-06-10T00:04:35Z",
        "version": 1,
        "changeset": 152474229,
        "addr:housenumber": "199",
        "addr:street": "Avenida Assembléia",
        "addr:suburb": "Centro",
        "amenity": "veterinary",
        "building": "yes",
        "name": "Cliníca Veterinária Dra. Janete T. Yamara",
        "opening_hours": "Mo-Fr 09:00-18:00; Sa 09:00-12:00; PH off",
        "phone": "+55 11 5621 5173",
        "id": "way/1290793446"
      },
      "geometry": {
        "type": "Polygon",
        "coordinates": [
          [
            [
              -46.6328474,
              -23.6816866
            ],
            [
              -46.6328922,
              -23.6817712
            ],
            [
              -46.6327307,
              -23.681843
            ],
            [
              -46.6326858,
              -23.6817585
            ],
            [
              -46.6328474,
              -23.6816866
            ]
          ]
        ]
      }
    },
    {
      "type": "Feature",
      "id": "node/2576321752",
      "properties": {
        "timestamp": "2021-11-27T14:04:08Z",
        "version": 5,
        "changeset": 114295735,
        "addr:city": "Diadema",
        "addr:street": "Avenida Moinho Fabrini",
        "addr:suburb": "Piraporinha",
        "amenity": "veterinary",
        "name": "Mundo Rural",
        "phone_1": "+55 11 4066 2804",
        "website": "http://www.mundoruralpet.com.br/portal/",
        "id": "node/2576321752"
      },
      "geometry": {
        "type": "Point",
        "coordinates": [
          -46.5826284,
          -23.6928122
        ]
      }
    },
    {
      "type": "Feature",
      "id": "node/4809978938",
      "properties": {
        "timestamp": "2017-04-22T16:21:10Z",
        "version": 1,
        "changeset": 48037857,
        "addr:city": "Diadema",
        "addr:housenumber": "446",
        "addr:postcode": "09920-610",
        "addr:street": "Avenida Vereador Juarez Rios de Vasconcelos",
        "addr:suburb": "Parque Galicia",
        "amenity": "veterinary",
        "name": "Love Pets Clinica Veterinária e Pet Shop",
        "id": "node/4809978938"
      },
      "geometry": {
        "type": "Point",
        "coordinates": [
          -46.6216508,
          -23.6815915
        ]
      }
    },
    {
      "type": "Feature",
      "id": "node/9727653056",
      "properties": {
        "timestamp": "2022-05-09T18:31:41Z",
        "version": 1,
        "changeset": 120761330,
        "addr:housenumber": "321",
        "addr:street": "Avenida Nossa Senhora dos Navegantes",
        "amenity": "veterinary",
        "contact:mobile": "+55 11 94262 4180",
        "name": "Animacão Hospital Vet",
        "opening_hours": "24/7",
        "phone": "+55 11 4049 6515",
        "id": "node/9727653056"
      },
      "geometry": {
        "type": "Point",
        "coordinates": [
          -46.6235526,
          -23.7178144
        ]
      }
    },
    {
      "type": "Feature",
      "id": "node/11967950212",
      "properties": {
        "timestamp": "2024-06-10T00:04:35Z",
        "version": 1,
        "changeset": 152474229,
        "addr:housenumber": "747",
        "addr:street": "Avenida Assembléia",
        "addr:suburb": "Centro",
        "amenity": "veterinary",
        "mobile": "+55 11 99308 4274",
        "name": "Pet Store Drogaria e Clinica Veterinaria",
        "phone": "+55 11 2564 0951",
        "id": "node/11967950212"
      },
      "geometry": {
        "type": "Point",
        "coordinates": [
          -46.6324615,
          -23.6818576
        ]
      }
    }
  ]
}
