{
  "type": "FeatureCollection",
  "features": [
    {
      "type": "Feature",
      "id": "way/665903369",
      "properties": {
        "timestamp": "2019-01-24T17:14:11Z",
        "version": 1,
        "changeset": 66608309,
        "addr:city": "Nova Mamoré",
        "addr:postcode": "76857000",
        "addr:street": "Av. Luís de França Torres",
        "building": "yes",
        "name": "Mila Bike",
        "shop": "bicycle",
        "id": "way/665903369"
      },
      "geometry": {
        "type": "Polygon",
        "coordinates": [
          [
            [
              -65.3318963,
              -10.4092232
            ],
            [
              -65.3319434,
              -10.4093749
            ],
            [
              -65.3318875,
              -10.4093917
            ],
            [
              -65.3318404,
              -10.40924
            ],
            [
              -65.3318963,
              -10.4092232
            ]
          ]
        ]
      }
    },
    {
      "type": "Feature",
      "id": "way/666081986",
      "properties": {
        "timestamp": "2019-01-25T12:38:52Z",
        "version": 1,
        "changeset": 66630503,
        "addr:city": "Nova Mamoré",
        "addr:postcode": "76857000",
        "addr:street": "Av. Dom Pedro II",
        "building": "yes",
        "name": "Bicicletaria Canaã",
        "shop": "bicycle",
        "id": "way/666081986"
      },
      "geometry": {
        "type": "Polygon",
        "coordinates": [
          [
            [
              -65.3294776,
              -10.4178848
            ],
            [
              -65.3295081,
              -10.4179568
            ],
            [
              -65.3294605,
              -10.4179762
            ],
            [
              -65.32943,
              -10.4179042
            ],
            [
              -65.3294776,
              -10.4178848
            ]
          ]
        ]
      }
    }
  ]
}
