{
  "type": "FeatureCollection",
  "features": [
    {
      "type": "Feature",
      "id": "way/917654881",
      "properties": {
        "timestamp": "2021-03-16T04:28:55Z",
        "version": 1,
        "changeset": 101086457,
        "addr:city": "Camocim",
        "addr:housenumber": "1456",
        "addr:postcode": "62400000",
        "addr:street": "Avenida Beira Mar",
        "addr:suburb": "Praia",
        "building": "yes",
        "name": "Central do Artesanato",
        "tourism": "gallery",
        "id": "way/917654881"
      },
      "geometry": {
        "type": "Polygon",
        "coordinates": [
          [
            [
              -40.8459699,
              -2.886752
            ],
            [
              -40.8459146,
              -2.8866637
            ],
            [
              -40.8459895,
              -2.886617
            ],
            [
              -40.8459439,
              -2.8865442
            ],
            [
              -40.846061,
              -2.8864711
            ],
            [
              -40.8461171,
              -2.8865607
            ],
            [
              -40.8460427,
              -2.8866072
            ],
            [
              -40.8460874,
              -2.8866786
            ],
            [
              -40.8459699,
              -2.886752
            ]
          ]
        ]
      }
    }
  ]
}
