{
  "type": "FeatureCollection",
  "features": [
    {
      "type": "Feature",
      "id": "node/4165806714",
      "properties": {
        "timestamp": "2016-06-06T23:53:50Z",
        "version": 2,
        "changeset": 39851320,
        "amenity": "pharmacy",
        "name": "Farmácia Bandeira Branca",
        "id": "node/4165806714"
      },
      "geometry": {
        "type": "Point",
        "coordinates": [
          -55.5157382,
          -1.9120954
        ]
      }
    },
    {
      "type": "Feature",
      "id": "node/4165806715",
      "properties": {
        "timestamp": "2016-06-13T17:06:12Z",
        "version": 2,
        "changeset": 39996944,
        "addr:city": "Óbidos",
        "addr:postcode": "68250000",
        "addr:street": "Rua Doutor Picanço Diniz",
        "addr:suburb": "Centro",
        "amenity": "pharmacy",
        "name": "Droga Mais",
        "id": "node/4165806715"
      },
      "geometry": {
        "type": "Point",
        "coordinates": [
          -55.5156749,
          -1.9124562
        ]
      }
    },
    {
      "type": "Feature",
      "id": "node/4165806719",
      "properties": {
        "timestamp": "2016-05-23T14:03:38Z",
        "version": 2,
        "changeset": 39510543,
        "amenity": "pharmacy",
        "name": "Famácia Parente",
        "id": "node/4165806719"
      },
      "geometry": {
        "type": "Point",
        "coordinates": [
          -55.5147244,
          -1.9187477
        ]
      }
    },
    {
      "type": "Feature",
      "id": "node/4165806720",
      "properties": {
        "timestamp": "2016-05-04T14:01:05Z",
        "version": 1,
        "changeset": 39097142,
        "amenity": "pharmacy",
        "id": "node/4165806720"
      },
      "geometry": {
        "type": "Point",
        "coordinates": [
          -55.5157856,
          -1.9184404
        ]
      }
    },
    {
      "type": "Feature",
      "id": "node/4165806721",
      "properties": {
        "timestamp": "2016-05-04T14:01:05Z",
        "version": 1,
        "changeset": 39097142,
        "amenity": "pharmacy",
        "id": "node/4165806721"
      },
      "geometry": {
        "type": "Point",
        "coordinates": [
          -55.5158101,
          -1.9182817
        ]
      }
    },
    {
      "type": "Feature",
      "id": "node/4165806724",
      "properties": {
        "timestamp": "2016-05-04T14:01:05Z",
        "version": 1,
        "changeset": 39097142,
        "amenity": "pharmacy",
        "id": "node/4165806724"
      },
      "geometry": {
        "type": "Point",
        "coordinates": [
          -55.5178348,
          -1.9065157
        ]
      }
    },
    {
      "type": "Feature",
      "id": "node/4241632419",
      "properties": {
        "timestamp": "2016-06-13T17:03:25Z",
        "version": 1,
        "changeset": 39996869,
        "addr:city": "Óbidos",
        "addr:postcode": "68250000",
        "addr:street": "Rua Doutor Picanço Diniz",
        "addr:suburb": "Centro",
        "amenity": "pharmacy",
        "name": "Farmacia Parente",
        "id": "node/4241632419"
      },
      "geometry": {
        "type": "Point",
        "coordinates": [
          -55.5146047,
          -1.9132624
        ]
      }
    },
    {
      "type": "Feature",
      "id": "node/4261824190",
      "properties": {
        "timestamp": "2016-06-24T00:34:08Z",
        "version": 1,
        "changeset": 40248045,
        "addr:street": "Rua Doutor Picanço Diniz",
        "amenity": "pharmacy",
        "name": "Farmácia Droga Mais",
        "id": "node/4261824190"
      },
      "geometry": {
        "type": "Point",
        "coordinates": [
          -55.5156911,
          -1.9124002
        ]
      }
    },
    {
      "type": "Feature",
      "id": "node/4266321890",
      "properties": {
        "timestamp": "2016-06-26T14:34:27Z",
        "version": 1,
        "changeset": 40301983,
        "amenity": "pharmacy",
        "name": "Farmácia do Trabalhador",
        "id": "node/4266321890"
      },
      "geometry": {
        "type": "Point",
        "coordinates": [
          -55.5149638,
          -1.9171052
        ]
      }
    },
    {
      "type": "Feature",
      "id": "node/5321784423",
      "properties": {
        "timestamp": "2018-01-05T10:31:43Z",
        "version": 1,
        "changeset": 55182823,
        "addr:postcode": "68250000",
        "addr:street": "Avenida Siqueira Campos",
        "amenity": "pharmacy",
        "name": "Farmacia do porto",
        "opening_hours": "Mo-Sa 08:00-18:00",
        "id": "node/5321784423"
      },
      "geometry": {
        "type": "Point",
        "coordinates": [
          -55.5135848,
          -1.919176
        ]
      }
    },
    {
      "type": "Feature",
      "id": "node/7019188187",
      "properties": {
        "timestamp": "2019-11-29T10:38:35Z",
        "version": 1,
        "changeset": 77721303,
        "addr:housenumber": "32",
        "addr:postcode": "68250000",
        "addr:street": "Rua Almirante Tamandaré",
        "amenity": "pharmacy",
        "name": "Farmácia Beira Mar",
        "opening_hours": "Mo-Sa 08:00-12:00, 14:30-18:00",
        "id": "node/7019188187"
      },
      "geometry": {
        "type": "Point",
        "coordinates": [
          -55.5148254,
          -1.9190771
        ]
      }
    },
    {
      "type": "Feature",
      "id": "node/7019188289",
      "properties": {
        "timestamp": "2019-11-29T10:38:29Z",
        "version": 1,
        "changeset": 77721303,
        "addr:postcode": "68250000",
        "addr:street": "Rua Presidente Washington Luís",
        "amenity": "pharmacy",
        "name": "Farmácia popular",
        "opening_hours": "Mo-Sa 08:00-18:00",
        "id": "node/7019188289"
      },
      "geometry": {
        "type": "Point",
        "coordinates": [
          -55.5208703,
          -1.901838
        ]
      }
    },
    {
      "type": "Feature",
      "id": "node/7029954885",
      "properties": {
        "timestamp": "2019-12-03T22:03:33Z",
        "version": 1,
        "changeset": 77901262,
        "addr:street": "Rua Doutor Picanço Diniz",
        "amenity": "pharmacy",
        "name": "Farmácia popular",
        "opening_hours": "Mo-Sa 08:00-21:00; Su 08:00-12:00",
        "id": "node/7029954885"
      },
      "geometry": {
        "type": "Point",
        "coordinates": [
          -55.5176043,
          -1.9104067
        ]
      }
    },
    {
      "type": "Feature",
      "id": "node/7076622785",
      "properties": {
        "timestamp": "2019-12-22T01:20:04Z",
        "version": 1,
        "changeset": 78724461,
        "addr:postcode": "68250000",
        "addr:street": "Avenida Prefeito Nelson Souza",
        "amenity": "pharmacy",
        "name": "Farmácia 24H",
        "opening_hours": "24/7",
        "id": "node/7076622785"
      },
      "geometry": {
        "type": "Point",
        "coordinates": [
          -55.5176378,
          -1.8967804
        ]
      }
    }
  ]
}
