{
  "type": "FeatureCollection",
  "features": [
    {
      "type": "Feature",
      "id": "node/1990419336",
      "properties": {
        "timestamp": "2022-05-26T18:03:12Z",
        "version": 17,
        "changeset": 121539528,
        "addr:housenumber": "41",
        "addr:street": "Rua Capitão Montanha",
        "alt_name": "BikePoA Praça da Alfândega",
        "amenity": "bicycle_rental",
        "capacity": "17",
        "fee": "yes",
        "internet_access": "wlan",
        "internet_access:password": "bicicletabikepoa",
        "internet_access:ssid": "EstacaoBikePOA",
        "name": "2 - Praça da Alfândega",
        "network": "Bike PoA",
        "opening_hours": "Su-Sa 06:00-22:00",
        "operator": "Tembici",
        "phone": "+55 51 4003-6052",
        "ref": "2",
        "website": "https://bikeitau.com.br/bikepoa",
        "id": "node/1990419336"
      },
      "geometry": {
        "type": "Point",
        "coordinates": [
          -51.2319499,
          -30.0292837
        ]
      }
    },
    {
      "type": "Feature",
      "id": "node/1990425242",
      "properties": {
        "timestamp": "2022-05-26T18:03:12Z",
        "version": 17,
        "changeset": 121539528,
        "addr:street": "Largo Glênio Peres",
        "alt_name": "BikePoA Mercado",
        "amenity": "bicycle_rental",
        "capacity": "29",
        "fee": "yes",
        "internet_access": "wlan",
        "internet_access:password": "bicicletabikepoa",
        "internet_access:ssid": "EstacaoBikePOA",
        "name": "1 - Mercado",
        "network": "Bike PoA",
        "opening_hours": "Su-Sa 06:00-22:00",
        "operator": "Tembici",
        "phone": "+55 51 4003-6052",
        "ref": "1",
        "website": "https://bikeitau.com.br/bikepoa",
        "id": "node/1990425242"
      },
      "geometry": {
        "type": "Point",
        "coordinates": [
          -51.2278943,
          -30.0283455
        ]
      }
    },
    {
      "type": "Feature",
      "id": "node/1994048764",
      "properties": {
        "timestamp": "2022-05-26T18:03:12Z",
        "version": 19,
        "changeset": 121539528,
        "addr:housenumber": "623",
        "addr:street": "Rua Coronel Fernando Machado",
        "alt_name": "BikePoA Fernando Machado",
        "amenity": "bicycle_rental",
        "capacity": "11",
        "fee": "yes",
        "internet_access": "wlan",
        "internet_access:password": "bicicletabikepoa",
        "internet_access:ssid": "EstacaoBikePOA",
        "name": "5 - Rua Fernando Machado",
        "network": "Bike PoA",
        "old_name": "Bike PoA Escola Parobé",
        "opening_hours": "Su-Sa 06:00-22:00",
        "operator": "Tembici",
        "phone": "+55 51 4003-6052",
        "ref": "35",
        "website": "https://bikeitau.com.br/bikepoa",
        "id": "node/1994048764"
      },
      "geometry": {
        "type": "Point",
        "coordinates": [
          -51.2314139,
          -30.0350457
        ]
      }
    },
    {
      "type": "Feature",
      "id": "node/2032032686",
      "properties": {
        "timestamp": "2022-05-26T18:03:12Z",
        "version": 16,
        "changeset": 121539528,
        "addr:housenumber": "71",
        "addr:street": "Rua Ibanor José Tartarotti",
        "alt_name": "BikePoA Câmara dos Vereadores",
        "amenity": "bicycle_rental",
        "capacity": "12",
        "internet_access": "wlan",
        "internet_access:password": "bicicletabikepoa",
        "internet_access:ssid": "EstacaoBikePOA",
        "name": "Bike PoA Câmara de Vereadores",
        "network": "Bike PoA",
        "opening_hours": "Su-Sa 06:00-22:00",
        "operator": "Serttel",
        "phone": "+55 51 4003-6052",
        "ref": "4",
        "website": "https://bikepoa.tembici.com.br/",
        "id": "node/2032032686"
      },
      "geometry": {
        "type": "Point",
        "coordinates": [
          -51.2374767,
          -30.037814
        ]
      }
    },
    {
      "type": "Feature",
      "id": "node/2163724150",
      "properties": {
        "timestamp": "2022-05-26T18:03:12Z",
        "version": 12,
        "changeset": 121539528,
        "addr:housenumber": "300",
        "addr:street": "Avenida Diário de Notícias",
        "alt_name": "BikePoA BarraShoppingSul",
        "amenity": "bicycle_rental",
        "capacity": "12",
        "internet_access": "wlan",
        "internet_access:password": "bicicletabikepoa",
        "internet_access:ssid": "EstacaoBikePOA",
        "name": "Bike PoA BarraShoppingSul",
        "network": "Bike PoA",
        "opening_hours": "Su-Sa 06:00-22:00",
        "operator": "Serttel",
        "phone": "+55 51 4003-6052",
        "ref": "34",
        "website": "https://bikepoa.tembici.com.br/",
        "id": "node/2163724150"
      },
      "geometry": {
        "type": "Point",
        "coordinates": [
          -51.2466768,
          -30.0831982
        ]
      }
    },
    {
      "type": "Feature",
      "id": "node/2163724156",
      "properties": {
        "timestamp": "2023-07-06T01:44:20Z",
        "version": 18,
        "changeset": 138168067,
        "addr:housenumber": "539",
        "addr:street": "Rua 7 de Setembro",
        "alt_name": "BikePoA Casa de Cultura Mario Quintana",
        "amenity": "bicycle_rental",
        "capacity": "17",
        "fee": "yes",
        "internet_access": "wlan",
        "internet_access:password": "bicicletabikepoa",
        "internet_access:ssid": "EstacaoBikePOA",
        "name": "3 - Casa de Cultura Mário Quintana",
        "network": "Bike PoA",
        "not:brand:wikidata": "Q28724",
        "opening_hours": "Su-Sa 06:00-22:00",
        "operator": "Tembici",
        "phone": "+55 51 4003-6052",
        "ref": "3",
        "website": "https://bikeitau.com.br/bikepoa",
        "id": "node/2163724156"
      },
      "geometry": {
        "type": "Point",
        "coordinates": [
          -51.234974,
          -30.0308902
        ]
      }
    },
    {
      "type": "Feature",
      "id": "node/2163724179",
      "properties": {
        "timestamp": "2022-05-26T18:03:12Z",
        "version": 16,
        "changeset": 121539528,
        "amenity": "bicycle_rental",
        "capacity": "23",
        "fee": "yes",
        "internet_access": "wlan",
        "internet_access:password": "bicicletabikepoa",
        "internet_access:ssid": "EstacaoBikePOA",
        "name": "26 - Praça Garibaldi",
        "network": "Bike PoA",
        "opening_hours": "Su-Sa 06:00-22:00",
        "operator": "Tembici",
        "phone": "+55 51 4003-6052",
        "website": "https://bikeitau.com.br/bikepoa/",
        "id": "node/2163724179"
      },
      "geometry": {
        "type": "Point",
        "coordinates": [
          -51.2198079,
          -30.0433852
        ]
      }
    },
    {
      "type": "Feature",
      "id": "node/2163724184",
      "properties": {
        "timestamp": "2022-05-26T18:03:12Z",
        "version": 15,
        "changeset": 121539528,
        "addr:housenumber": "2350",
        "addr:street": "Avenida Jerônimo de Ornelas",
        "alt_name": "BikePoA Hospital de Clínicas",
        "amenity": "bicycle_rental",
        "capacity": "11",
        "fee": "yes",
        "internet_access": "wlan",
        "internet_access:password": "bicicletabikepoa",
        "internet_access:ssid": "EstacaoBikePOA",
        "name": "32 - Hospital de Clínicas",
        "network": "Bike PoA",
        "opening_hours": "Su-Sa 06:00-22:00",
        "operator": "Tembici",
        "phone": "+55 51 4003-6052",
        "ref": "13",
        "website": "https://bikepoa.tembici.com.br/",
        "id": "node/2163724184"
      },
      "geometry": {
        "type": "Point",
        "coordinates": [
          -51.2079901,
          -30.0395188
        ]
      }
    },
    {
      "type": "Feature",
      "id": "node/2163724212",
      "properties": {
        "timestamp": "2022-05-26T18:03:12Z",
        "version": 15,
        "changeset": 121539528,
        "addr:housenumber": "2440",
        "addr:street": "Avenida Ipiranga",
        "alt_name": "BikePoA Planetário",
        "amenity": "bicycle_rental",
        "capacity": "12",
        "internet_access": "wlan",
        "internet_access:password": "bicicletabikepoa",
        "internet_access:ssid": "EstacaoBikePOA",
        "name": "Bike PoA Planetário",
        "network": "Bike PoA",
        "opening_hours": "Su-Sa 06:00-22:00",
        "operator": "Serttel",
        "phone": "+55 51 4003-6052",
        "ref": "14",
        "website": "https://bikepoa.tembici.com.br/",
        "id": "node/2163724212"
      },
      "geometry": {
        "type": "Point",
        "coordinates": [
          -51.2077901,
          -30.0440875
        ]
      }
    },
    {
      "type": "Feature",
      "id": "node/2163724222",
      "properties": {
        "timestamp": "2023-08-12T00:50:24Z",
        "version": 19,
        "changeset": 139770454,
        "addr:housenumber": "592",
        "addr:street": "Rua General Lima e Silva",
        "alt_name": "BikePoA Lima e Silva",
        "amenity": "bicycle_rental",
        "capacity": "19",
        "fee": "yes",
        "internet_access": "wlan",
        "internet_access:password": "bicicletabikepoa",
        "internet_access:ssid": "EstacaoBikePOA",
        "name": "14 - Lima e Silva",
        "network": "Bike PoA",
        "opening_hours": "Su-Sa 06:00-22:00",
        "operator": "Tembici",
        "phone": "+55 51 4003-6052",
        "website": "https://bikeitau.com.br/porto-alegre/",
        "id": "node/2163724222"
      },
      "geometry": {
        "type": "Point",
        "coordinates": [
          -51.2215053,
          -30.0382268
        ]
      }
    },
    {
      "type": "Feature",
      "id": "node/2163724228",
      "properties": {
        "timestamp": "2022-05-26T18:03:12Z",
        "version": 17,
        "changeset": 121539528,
        "amenity": "bicycle_rental",
        "capacity": "15",
        "fee": "yes",
        "internet_access": "wlan",
        "internet_access:password": "bicicletabikepoa",
        "internet_access:ssid": "EstacaoBikePOA",
        "name": "30 - Vieira de Castro",
        "network": "Bike PoA",
        "opening_hours": "Su-Sa 06:00-22:00",
        "operator": "Tembici",
        "payment:credit_cards": "yes",
        "payment:debit_cards": "yes",
        "phone": "+55 51 4003-6052",
        "ref": "31",
        "website": "https://bikeitau.com.br/bikepoa/",
        "id": "node/2163724228"
      },
      "geometry": {
        "type": "Point",
        "coordinates": [
          -51.2121995,
          -30.0390198
        ]
      }
    },
    {
      "type": "Feature",
      "id": "node/2163724234",
      "properties": {
        "timestamp": "2022-05-26T18:03:12Z",
        "version": 16,
        "changeset": 121539528,
        "addr:housenumber": "320",
        "addr:street": "Avenida Sarmento Leite",
        "alt_name": "BikePoA Universidade Federal do Rio Grande do Sul",
        "amenity": "bicycle_rental",
        "capacity": "12",
        "internet_access": "wlan",
        "internet_access:password": "bicicletabikepoa",
        "internet_access:ssid": "EstacaoBikePOA",
        "name": "Bike PoA UFRGS",
        "network": "Bike PoA",
        "opening_hours": "Su-Sa 06:00-22:00",
        "operator": "Serttel",
        "phone": "+55 51 4003-6052",
        "ref": "8",
        "website": "https://bikepoa.tembici.com.br/",
        "id": "node/2163724234"
      },
      "geometry": {
        "type": "Point",
        "coordinates": [
          -51.2207535,
          -30.0327764
        ]
      }
    },
    {
      "type": "Feature",
      "id": "node/2163724241",
      "properties": {
        "timestamp": "2022-05-26T18:03:12Z",
        "version": 13,
        "changeset": 121539528,
        "addr:housenumber": "994",
        "addr:street": "Avenida Praia de Belas",
        "alt_name": "BikePoA Shopping Praia de Belas",
        "amenity": "bicycle_rental",
        "capacity": "12",
        "internet_access": "wlan",
        "internet_access:password": "bicicletabikepoa",
        "internet_access:ssid": "EstacaoBikePOA",
        "name": "Bike PoA Shopping Praia de Belas",
        "network": "Bike PoA",
        "opening_hours": "Su-Sa 06:00-22:00",
        "operator": "Serttel",
        "phone": "+55 51 4003-6052",
        "ref": "12",
        "website": "https://bikepoa.tembici.com.br/",
        "id": "node/2163724241"
      },
      "geometry": {
        "type": "Point",
        "coordinates": [
          -51.2275646,
          -30.0470321
        ]
      }
    },
    {
      "type": "Feature",
      "id": "node/2163724246",
      "properties": {
        "timestamp": "2022-05-26T18:03:12Z",
        "version": 14,
        "changeset": 121539528,
        "addr:housenumber": "2050",
        "addr:street": "Avenida João Pessoa",
        "alt_name": "BikePoA Palácio da Polícia",
        "amenity": "bicycle_rental",
        "capacity": "12",
        "internet_access": "wlan",
        "internet_access:password": "bicicletabikepoa",
        "internet_access:ssid": "EstacaoBikePOA",
        "name": "Bike PoA Palácio da Polícia",
        "network": "Bike PoA",
        "opening_hours": "Su-Sa 06:00-22:00",
        "operator": "Serttel",
        "phone": "+55 51 4003-6052",
        "ref": "18",
        "website": "https://bikepoa.tembici.com.br/",
        "wheelchair": "no",
        "id": "node/2163724246"
      },
      "geometry": {
        "type": "Point",
        "coordinates": [
          -51.2113375,
          -30.0473904
        ]
      }
    },
    {
      "type": "Feature",
      "id": "node/2165260144",
      "properties": {
        "timestamp": "2022-05-26T18:03:12Z",
        "version": 15,
        "changeset": 121539528,
        "addr:housenumber": "750",
        "addr:street": "Rua 24 de Outubro",
        "alt_name": "BikePoA Parcão",
        "amenity": "bicycle_rental",
        "capacity": "12",
        "internet_access": "wlan",
        "internet_access:password": "bicicletabikepoa",
        "internet_access:ssid": "EstacaoBikePOA",
        "name": "Bike PoA Parcão",
        "network": "Bike PoA",
        "opening_hours": "Su-Sa 06:00-22:00",
        "operator": "Serttel",
        "phone": "+55 51 4003-6052",
        "ref": "29",
        "website": "https://bikepoa.tembici.com.br/",
        "wheelchair": "yes",
        "id": "node/2165260144"
      },
      "geometry": {
        "type": "Point",
        "coordinates": [
          -51.2009824,
          -30.0247953
        ]
      }
    },
    {
      "type": "Feature",
      "id": "node/2165260148",
      "properties": {
        "timestamp": "2022-05-26T18:03:13Z",
        "version": 16,
        "changeset": 121539528,
        "addr:street": "Largo Doutor José Faibes Lubianca",
        "alt_name": "BikePoA Redenção / Mercadinho",
        "amenity": "bicycle_rental",
        "capacity": "23",
        "fee": "yes",
        "internet_access": "wlan",
        "internet_access:password": "bicicletabikepoa",
        "internet_access:ssid": "EstacaoBikePOA",
        "name": "33 - Redenção / Mercadinho",
        "network": "Bike PoA",
        "opening_hours": "Su-Sa 06:00-22:00",
        "operator": "Tembici",
        "payment:credit_cards": "yes",
        "payment:debit_cards": "yes",
        "phone": "+55 51 4003-6052",
        "website": "https://bikeitau.com.br/bikepoa/",
        "id": "node/2165260148"
      },
      "geometry": {
        "type": "Point",
        "coordinates": [
          -51.211034,
          -30.0360333
        ]
      }
    },
    {
      "type": "Feature",
      "id": "node/2165260149",
      "properties": {
        "timestamp": "2022-05-26T18:03:13Z",
        "version": 12,
        "changeset": 121539528,
        "addr:housenumber": "331",
        "addr:street": "Avenida Erico Verissimo",
        "alt_name": "BikePoA Cascatinha",
        "amenity": "bicycle_rental",
        "capacity": "12",
        "internet_access": "wlan",
        "internet_access:password": "bicicletabikepoa",
        "internet_access:ssid": "EstacaoBikePOA",
        "name": "Bike PoA Cascatinha",
        "network": "Bike PoA",
        "opening_hours": "Su-Sa 06:00-22:00",
        "operator": "Serttel",
        "phone": "+55 51 4003-6052",
        "ref": "40",
        "website": "https://bikepoa.tembici.com.br/",
        "id": "node/2165260149"
      },
      "geometry": {
        "type": "Point",
        "coordinates": [
          -51.2184176,
          -30.0485479
        ]
      }
    },
    {
      "type": "Feature",
      "id": "node/2277906326",
      "properties": {
        "timestamp": "2022-05-26T18:03:13Z",
        "version": 16,
        "changeset": 121539528,
        "addr:street": "Esplanada Luiz Celso Gomes Hyarup",
        "alt_name": "BikePoA Usina do Gasômetro 2",
        "amenity": "bicycle_rental",
        "capacity": "31",
        "internet_access": "wlan",
        "internet_access:password": "bicicletabikepoa",
        "internet_access:ssid": "EstacaoBikePOA",
        "name": "19 - Rótula do Gasômetro",
        "network": "Bike PoA",
        "opening_hours": "Su-Sa 06:00-22:00",
        "operator": "Tembici",
        "phone": "+55 51 4003-6052",
        "ref": "5",
        "website": "https://bikeitau.com.br/bikepoa",
        "id": "node/2277906326"
      },
      "geometry": {
        "type": "Point",
        "coordinates": [
          -51.2409875,
          -30.0368843
        ]
      }
    },
    {
      "type": "Feature",
      "id": "node/3618663130",
      "properties": {
        "timestamp": "2022-05-26T18:03:13Z",
        "version": 6,
        "changeset": 121539528,
        "addr:housenumber": "286",
        "addr:street": "Rua Fernandes Vieira",
        "alt_name": "BikePoA Fernandes Vieira",
        "amenity": "bicycle_rental",
        "capacity": "17",
        "internet_access": "wlan",
        "internet_access:password": "bicicletabikepoa",
        "name": "36 - Fernandes Vieira",
        "network": "Bike PoA",
        "old_name": "Bike PoA Vasco da Gama",
        "opening_hours": "Su-Sa 06:00-22:00",
        "operator": "Tembici",
        "payment:credit_cards": "yes",
        "payment:debit_cards": "yes",
        "phone": "+55 51 4003-6052",
        "ref": "25",
        "website": "https://bikeitau.com.br/bikepoa",
        "id": "node/3618663130"
      },
      "geometry": {
        "type": "Point",
        "coordinates": [
          -51.2108061,
          -30.0318454
        ]
      }
    },
    {
      "type": "Feature",
      "id": "node/4610141634",
      "properties": {
        "timestamp": "2022-05-26T18:03:13Z",
        "version": 4,
        "changeset": 121539528,
        "addr:housenumber": "607",
        "addr:street": "Rua Barros Cassal",
        "alt_name": "BikePoA Barros Cassal",
        "amenity": "bicycle_rental",
        "capacity": "12",
        "internet_access": "wlan",
        "internet_access:password": "bicicletabikepoa",
        "internet_access:ssid": "EstacaoBikePOA",
        "name": "Bike PoA Barros Cassal",
        "network": "Bike PoA",
        "opening_hours": "Su-Sa 06:00-22:00",
        "operator": "Serttel",
        "phone": "+55 51 4003-6052",
        "ref": "26",
        "website": "https://bikepoa.tembici.com.br/",
        "id": "node/4610141634"
      },
      "geometry": {
        "type": "Point",
        "coordinates": [
          -51.2173215,
          -30.0309361
        ]
      }
    },
    {
      "type": "Feature",
      "id": "node/4621981141",
      "properties": {
        "timestamp": "2022-05-26T18:03:13Z",
        "version": 4,
        "changeset": 121539528,
        "addr:housenumber": "300",
        "addr:street": "Rua Otávio Francisco Caruso da Rocha",
        "alt_name": "BikePoA Harmonia",
        "amenity": "bicycle_rental",
        "capacity": "12",
        "internet_access": "wlan",
        "internet_access:password": "bicicletabikepoa",
        "internet_access:ssid": "EstacaoBikePOA",
        "name": "Bike PoA Harmonia",
        "network": "Bike PoA",
        "opening_hours": "Su-Sa 06:00-22:00",
        "operator": "Serttel",
        "phone": "+55 51 4003-6052",
        "ref": "23",
        "website": "https://bikepoa.tembici.com.br/",
        "id": "node/4621981141"
      },
      "geometry": {
        "type": "Point",
        "coordinates": [
          -51.237023,
          -30.0399195
        ]
      }
    },
    {
      "type": "Feature",
      "id": "node/4622194886",
      "properties": {
        "timestamp": "2022-05-26T18:03:13Z",
        "version": 5,
        "changeset": 121539528,
        "addr:street": "Avenida Aureliano de Figueiredo Pinto",
        "alt_name": "BikePoA Ministério Público",
        "amenity": "bicycle_rental",
        "capacity": "15",
        "fee": "yes",
        "internet_access": "wlan",
        "internet_access:password": "bicicletabikepoa",
        "internet_access:ssid": "EstacaoBikePOA",
        "name": "18 - Ministério Público",
        "network": "Bike PoA",
        "opening_hours": "Su-Sa 06:00-22:00",
        "operator": "Tembici",
        "phone": "+55 51 4003-6052",
        "website": "https://bikeitau.com.br/bikepoa",
        "id": "node/4622194886"
      },
      "geometry": {
        "type": "Point",
        "coordinates": [
          -51.2319541,
          -30.0424688
        ]
      }
    },
    {
      "type": "Feature",
      "id": "node/4743704059",
      "properties": {
        "timestamp": "2023-06-13T15:26:21Z",
        "version": 5,
        "changeset": 137291508,
        "addr:housenumber": "504",
        "addr:street": "Rua Barbedo",
        "alt_name": "BikePoA Barbedo",
        "amenity": "bicycle_rental",
        "capacity": "12",
        "internet_access": "wlan",
        "internet_access:password": "bicicletabikepoa",
        "internet_access:ssid": "EstacaoBikePOA",
        "name": "Bike PoA Barbedo",
        "network": "Bike PoA",
        "opening_hours": "Su-Sa 06:00-22:00",
        "operator": "Serttel",
        "phone": "+55 51 4003-6052",
        "ref": "7",
        "website": "https://bikepoa.tembici.com.br/",
        "id": "node/4743704059"
      },
      "geometry": {
        "type": "Point",
        "coordinates": [
          -51.2252136,
          -30.0575985
        ]
      }
    },
    {
      "type": "Feature",
      "id": "node/4743704060",
      "properties": {
        "timestamp": "2022-05-26T18:03:13Z",
        "version": 5,
        "changeset": 121539528,
        "addr:housenumber": "781",
        "addr:street": "Avenida Padre Cacique",
        "alt_name": "BikePoA Beira Rio",
        "amenity": "bicycle_rental",
        "capacity": "12",
        "internet_access": "wlan",
        "internet_access:password": "bicicletabikepoa",
        "internet_access:ssid": "EstacaoBikePOA",
        "name": "Bike PoA Beira-Rio",
        "network": "Bike PoA",
        "opening_hours": "Su-Sa 06:00-22:00",
        "operator": "Serttel",
        "phone": "+55 51 4003-6052",
        "ref": "16",
        "website": "https://bikepoa.tembici.com.br/",
        "id": "node/4743704060"
      },
      "geometry": {
        "type": "Point",
        "coordinates": [
          -51.2342242,
          -30.0654953
        ]
      }
    },
    {
      "type": "Feature",
      "id": "node/4743704061",
      "properties": {
        "timestamp": "2022-05-26T18:03:13Z",
        "version": 3,
        "changeset": 121539528,
        "addr:housenumber": "367",
        "addr:street": "Rua Cabral",
        "alt_name": "BikePoA Cabral",
        "amenity": "bicycle_rental",
        "capacity": "12",
        "internet_access": "wlan",
        "internet_access:password": "bicicletabikepoa",
        "internet_access:ssid": "EstacaoBikePOA",
        "name": "Bike PoA Cabral",
        "network": "Bike PoA",
        "opening_hours": "Su-Sa 06:00-22:00",
        "operator": "Serttel",
        "phone": "+55 51 4003-6052",
        "ref": "24",
        "website": "https://bikepoa.tembici.com.br/",
        "id": "node/4743704061"
      },
      "geometry": {
        "type": "Point",
        "coordinates": [
          -51.2047842,
          -30.0337313
        ]
      }
    },
    {
      "type": "Feature",
      "id": "node/4743704062",
      "properties": {
        "timestamp": "2022-05-26T18:03:13Z",
        "version": 5,
        "changeset": 121539528,
        "addr:housenumber": "233",
        "addr:street": "Rua Coronel Genuíno",
        "alt_name": "BikePoA Caminho dos Antiquários",
        "amenity": "bicycle_rental",
        "capacity": "15",
        "fee": "yes",
        "internet_access": "wlan",
        "internet_access:password": "bicicletabikepoa",
        "internet_access:ssid": "EstacaoBikePOA",
        "name": "11 - Caminho dos Antiquários",
        "network": "Bike PoA",
        "opening_hours": "Su-Sa 06:00-22:00",
        "operator": "Tembici",
        "phone": "+55 51 4003-6052",
        "ref": "39",
        "website": "https://bikeitau.com.br/bikepoa",
        "id": "node/4743704062"
      },
      "geometry": {
        "type": "Point",
        "coordinates": [
          -51.2272871,
          -30.0361394
        ]
      }
    },
    {
      "type": "Feature",
      "id": "node/4743704063",
      "properties": {
        "timestamp": "2022-05-26T18:03:13Z",
        "version": 4,
        "changeset": 121539528,
        "addr:housenumber": "41",
        "addr:street": "Avenida João Pessoa",
        "alt_name": "BikePoA Casa do Estudante",
        "amenity": "bicycle_rental",
        "capacity": "12",
        "internet_access": "wlan",
        "internet_access:password": "bicicletabikepoa",
        "internet_access:ssid": "EstacaoBikePOA",
        "name": "Bike PoA Casa do Estudante",
        "network": "Bike PoA",
        "opening_hours": "Su-Sa 06:00-22:00",
        "operator": "Serttel",
        "phone": "+55 51 4003-6052",
        "ref": "37",
        "website": "https://bikepoa.tembici.com.br/",
        "id": "node/4743704063"
      },
      "geometry": {
        "type": "Point",
        "coordinates": [
          -51.2228654,
          -30.0329124
        ]
      }
    },
    {
      "type": "Feature",
      "id": "node/4743704064",
      "properties": {
        "timestamp": "2022-05-26T18:03:13Z",
        "version": 3,
        "changeset": 121539528,
        "addr:housenumber": "1501",
        "addr:street": "Avenida Borges de Medeiros",
        "alt_name": "BikePoA Centro Administrativo",
        "amenity": "bicycle_rental",
        "capacity": "12",
        "internet_access": "wlan",
        "internet_access:password": "bicicletabikepoa",
        "internet_access:ssid": "EstacaoBikePOA",
        "name": "Bike PoA Centro Administrativo",
        "network": "Bike PoA",
        "opening_hours": "Su-Sa 06:00-22:00",
        "operator": "Serttel",
        "phone": "+55 51 4003-6052",
        "ref": "27",
        "website": "https://bikepoa.tembici.com.br/",
        "id": "node/4743704064"
      },
      "geometry": {
        "type": "Point",
        "coordinates": [
          -51.2289644,
          -30.0408157
        ]
      }
    },
    {
      "type": "Feature",
      "id": "node/4743704065",
      "properties": {
        "timestamp": "2022-05-26T18:03:13Z",
        "version": 3,
        "changeset": 121539528,
        "addr:housenumber": "1516",
        "addr:street": "Avenida Diário de Notícias",
        "alt_name": "BikePoA Diário de Notícias",
        "amenity": "bicycle_rental",
        "capacity": "12",
        "internet_access": "wlan",
        "internet_access:password": "bicicletabikepoa",
        "internet_access:ssid": "EstacaoBikePOA",
        "name": "Bike PoA Diário de Notícias",
        "network": "Bike PoA",
        "opening_hours": "Su-Sa 06:00-22:00",
        "operator": "Serttel",
        "phone": "+55 51 4003-6052",
        "ref": "20",
        "website": "https://bikepoa.tembici.com.br/",
        "id": "node/4743704065"
      },
      "geometry": {
        "type": "Point",
        "coordinates": [
          -51.2485486,
          -30.0973183
        ]
      }
    },
    {
      "type": "Feature",
      "id": "node/4743704066",
      "properties": {
        "timestamp": "2022-05-26T18:03:13Z",
        "version": 4,
        "changeset": 121539528,
        "addr:housenumber": "1271",
        "addr:street": "Avenida Getúlio Vargas",
        "alt_name": "BikePoA Getúlio Vargas",
        "amenity": "bicycle_rental",
        "capacity": "12",
        "internet_access": "wlan",
        "internet_access:password": "bicicletabikepoa",
        "internet_access:ssid": "EstacaoBikePOA",
        "name": "Bike PoA Getúlio Vargas",
        "network": "Bike PoA",
        "opening_hours": "Su-Sa 06:00-22:00",
        "operator": "Serttel",
        "phone": "+55 51 4003-6052",
        "ref": "22",
        "website": "https://bikepoa.tembici.com.br/",
        "id": "node/4743704066"
      },
      "geometry": {
        "type": "Point",
        "coordinates": [
          -51.2227796,
          -30.0562663
        ]
      }
    },
    {
      "type": "Feature",
      "id": "node/4743704067",
      "properties": {
        "timestamp": "2022-05-26T18:03:13Z",
        "version": 4,
        "changeset": 121539528,
        "addr:housenumber": "1900",
        "addr:street": "Avenida Padre Cacique",
        "alt_name": "BikePoA Iberê",
        "amenity": "bicycle_rental",
        "capacity": "12",
        "internet_access": "wlan",
        "internet_access:password": "bicicletabikepoa",
        "internet_access:ssid": "EstacaoBikePOA",
        "name": "Bike PoA Iberê",
        "network": "Bike PoA",
        "opening_hours": "Su-Sa 06:00-22:00",
        "operator": "Serttel",
        "phone": "+55 51 4003-6052",
        "ref": "19",
        "website": "https://bikepoa.tembici.com.br/",
        "id": "node/4743704067"
      },
      "geometry": {
        "type": "Point",
        "coordinates": [
          -51.2450141,
          -30.0771735
        ]
      }
    },
    {
      "type": "Feature",
      "id": "node/4743704068",
      "properties": {
        "timestamp": "2022-05-26T18:03:13Z",
        "version": 4,
        "changeset": 121539528,
        "addr:housenumber": "1831",
        "addr:street": "Avenida João Pessoa",
        "alt_name": "BikePoA Julinho",
        "amenity": "bicycle_rental",
        "capacity": "12",
        "internet_access": "wlan",
        "internet_access:password": "bicicletabikepoa",
        "internet_access:ssid": "EstacaoBikePOA",
        "name": "Bike PoA Julinho",
        "network": "Bike PoA",
        "opening_hours": "Su-Sa 06:00-22:00",
        "operator": "Serttel",
        "phone": "+55 51 4003-6052",
        "ref": "33",
        "website": "https://bikepoa.tembici.com.br/",
        "id": "node/4743704068"
      },
      "geometry": {
        "type": "Point",
        "coordinates": [
          -51.213142,
          -30.0455511
        ]
      }
    },
    {
      "type": "Feature",
      "id": "node/4743704069",
      "properties": {
        "timestamp": "2022-05-26T18:03:13Z",
        "version": 4,
        "changeset": 121539528,
        "addr:housenumber": "323",
        "addr:street": "Rua José de Alencar",
        "alt_name": "BikePoA Mãe de Deus",
        "amenity": "bicycle_rental",
        "capacity": "12",
        "internet_access": "wlan",
        "internet_access:password": "bicicletabikepoa",
        "internet_access:ssid": "EstacaoBikePOA",
        "name": "Bike PoA Mãe de Deus",
        "network": "Bike PoA",
        "opening_hours": "Su-Sa 06:00-22:00",
        "operator": "Serttel",
        "phone": "+55 51 4003-6052",
        "ref": "17",
        "website": "https://bikepoa.tembici.com.br/",
        "id": "node/4743704069"
      },
      "geometry": {
        "type": "Point",
        "coordinates": [
          -51.2284582,
          -30.0598341
        ]
      }
    },
    {
      "type": "Feature",
      "id": "node/4743704071",
      "properties": {
        "timestamp": "2022-05-26T18:03:13Z",
        "version": 5,
        "changeset": 121539528,
        "addr:housenumber": "181",
        "addr:street": "Rua Gonçalo de Carvalho",
        "alt_name": "BikePoA Shopping Total",
        "amenity": "bicycle_rental",
        "capacity": "12",
        "internet_access": "wlan",
        "internet_access:password": "bicicletabikepoa",
        "internet_access:ssid": "EstacaoBikePOA",
        "name": "Bike PoA Shopping Total",
        "network": "Bike PoA",
        "opening_hours": "Su-Sa 06:00-22:00",
        "operator": "Serttel",
        "phone": "+55 51 4003-6052",
        "ref": "21",
        "website": "https://bikepoa.tembici.com.br/",
        "id": "node/4743704071"
      },
      "geometry": {
        "type": "Point",
        "coordinates": [
          -51.2123807,
          -30.0279557
        ]
      }
    },
    {
      "type": "Feature",
      "id": "node/4868110488",
      "properties": {
        "timestamp": "2022-05-26T18:03:13Z",
        "version": 5,
        "changeset": 121539528,
        "addr:housenumber": "415",
        "addr:street": "Avenida Venâncio Aires",
        "alt_name": "BikePoA Venâncio Aires",
        "amenity": "bicycle_rental",
        "capacity": "14",
        "fee": "yes",
        "internet_access": "wlan",
        "internet_access:password": "bicicletabikepoa",
        "internet_access:ssid": "EstacaoBikePOA",
        "name": "28 - Venâncio Aires",
        "network": "Bike PoA",
        "opening_hours": "Su-Sa 06:00-22:00",
        "operator": "Tembici",
        "phone": "+55 51 4003-6052",
        "website": "https://bikeitau.com.br/bikepoa/",
        "id": "node/4868110488"
      },
      "geometry": {
        "type": "Point",
        "coordinates": [
          -51.2159234,
          -30.041035
        ]
      }
    },
    {
      "type": "Feature",
      "id": "node/5314132054",
      "properties": {
        "timestamp": "2018-02-16T21:16:31Z",
        "version": 2,
        "changeset": 56426105,
        "addr:housenumber": "1020",
        "addr:street": "Rua Dona Laura",
        "amenity": "bicycle_rental",
        "capacity": "4",
        "email": "contato@voudeloop.com",
        "fee": "no",
        "name": "LooPoint IMED",
        "network": "Loop Bike Sharing",
        "opening_hours": "Mo-Fr 08:30-20:00",
        "operator": "Loop",
        "ref": "1",
        "website": "https://www.voudeloop.com/",
        "id": "node/5314132054"
      },
      "geometry": {
        "type": "Point",
        "coordinates": [
          -51.195164,
          -30.0292277
        ]
      }
    },
    {
      "type": "Feature",
      "id": "node/5414289698",
      "properties": {
        "timestamp": "2018-02-16T21:16:32Z",
        "version": 2,
        "changeset": 56426105,
        "addr:housenumber": "777",
        "addr:street": "Rua Mostardeiro",
        "amenity": "bicycle_rental",
        "capacity": "3",
        "email": "contato@voudeloop.com",
        "fee": "no",
        "name": "LooPoint Green Office Caixeiros",
        "network": "Loop Bike Sharing",
        "opening_hours": "Mo-Fr 08:00-20:00",
        "operator": "Loop",
        "ref": "2",
        "website": "https://www.voudeloop.com/",
        "id": "node/5414289698"
      },
      "geometry": {
        "type": "Point",
        "coordinates": [
          -51.199394,
          -30.0286442
        ]
      }
    },
    {
      "type": "Feature",
      "id": "node/5417333226",
      "properties": {
        "timestamp": "2018-02-16T21:16:29Z",
        "version": 1,
        "changeset": 56426105,
        "addr:housenumber": "513",
        "addr:street": "Rua 24 de Outubro",
        "amenity": "bicycle_rental",
        "capacity": "3",
        "email": "contato@voudeloop.com",
        "fee": "no",
        "name": "LooPoint Spirito Santo",
        "network": "Loop Bike Sharing",
        "opening_hours": "Mo-Sa 10:00-20:00",
        "operator": "Loop",
        "ref": "3",
        "website": "https://www.voudeloop.com/",
        "id": "node/5417333226"
      },
      "geometry": {
        "type": "Point",
        "coordinates": [
          -51.2027874,
          -30.0263457
        ]
      }
    },
    {
      "type": "Feature",
      "id": "node/5417333234",
      "properties": {
        "timestamp": "2018-02-16T21:16:30Z",
        "version": 1,
        "changeset": 56426105,
        "addr:housenumber": "697",
        "addr:street": "Rua Félix da Cunha",
        "amenity": "bicycle_rental",
        "capacity": "1",
        "email": "contato@voudeloop.com",
        "fee": "no",
        "name": "LooPoint Belladona",
        "network": "Loop Bike Sharing",
        "opening_hours": "Mo-Fr 08:30-19:00; Sa 09:00-12:30",
        "operator": "Loop",
        "ref": "4",
        "website": "https://www.voudeloop.com/",
        "id": "node/5417333234"
      },
      "geometry": {
        "type": "Point",
        "coordinates": [
          -51.2023653,
          -30.0190992
        ]
      }
    },
    {
      "type": "Feature",
      "id": "node/5683743941",
      "properties": {
        "timestamp": "2020-01-19T19:32:33Z",
        "version": 3,
        "changeset": 79763395,
        "amenity": "bicycle_rental",
        "capacity": "15",
        "fee": "yes",
        "name": "4 - Museu Júlio de Castilhos",
        "network": "BikePoA",
        "operator": "Tembici",
        "website": "https://bikeitau.com.br/bikepoa",
        "id": "node/5683743941"
      },
      "geometry": {
        "type": "Point",
        "coordinates": [
          -51.2296194,
          -30.0334558
        ]
      }
    },
    {
      "type": "Feature",
      "id": "node/5683743942",
      "properties": {
        "timestamp": "2020-01-19T19:32:33Z",
        "version": 2,
        "changeset": 79763395,
        "amenity": "bicycle_rental",
        "capacity": "11",
        "fee": "yes",
        "name": "6 - Duque de Caxias",
        "network": "Bike PoA",
        "operator": "Tembici",
        "website": "https://bikeitau.com.br/bikepoa",
        "id": "node/5683743942"
      },
      "geometry": {
        "type": "Point",
        "coordinates": [
          -51.2354112,
          -30.0339554
        ]
      }
    },
    {
      "type": "Feature",
      "id": "node/5683743943",
      "properties": {
        "timestamp": "2024-04-23T19:03:36Z",
        "version": 3,
        "changeset": 150411549,
        "amenity": "bicycle_rental",
        "bicycle_rental": "dropoff_point",
        "capacity": "27",
        "fee": "yes",
        "name": "7 -  Usina do Gasômetro",
        "network": "Bike PoA",
        "operator": "Tembici",
        "website": "https://bikeitau.com.br/bikepoa",
        "id": "node/5683743943"
      },
      "geometry": {
        "type": "Point",
        "coordinates": [
          -51.2395602,
          -30.0332244
        ]
      }
    },
    {
      "type": "Feature",
      "id": "node/6138275274",
      "properties": {
        "timestamp": "2022-07-19T03:44:56Z",
        "version": 2,
        "changeset": 123785628,
        "amenity": "bicycle_rental",
        "bicycle_rental": "docking_station",
        "capacity": "16",
        "name": "Bike PoA - 10 UFRGS Administração",
        "network": "BikePoA",
        "payment:credit_cards": "yes",
        "id": "node/6138275274"
      },
      "geometry": {
        "type": "Point",
        "coordinates": [
          -51.2303704,
          -30.0376231
        ]
      }
    },
    {
      "type": "Feature",
      "id": "node/6138275275",
      "properties": {
        "timestamp": "2018-12-14T23:57:34Z",
        "version": 1,
        "changeset": 65488297,
        "amenity": "bicycle_rental",
        "capacity": "15",
        "name": "Bike PoA - 9 SERPRO",
        "network": "BikePoA",
        "payment:credit_cards": "yes",
        "id": "node/6138275275"
      },
      "geometry": {
        "type": "Point",
        "coordinates": [
          -51.2329767,
          -30.0377768
        ]
      }
    },
    {
      "type": "Feature",
      "id": "node/6439885077",
      "properties": {
        "timestamp": "2024-04-09T22:53:39Z",
        "version": 3,
        "changeset": 149797177,
        "amenity": "bicycle_rental",
        "bicycle_rental": "docking_station",
        "capacity": "14",
        "name": "34 - Barros Cassal",
        "network": "BikePoA",
        "not:brand:wikidata": "Q20052802",
        "operator": "Tembici",
        "payment:credit_cards": "yes",
        "payment:debit_cards": "yes",
        "id": "node/6439885077"
      },
      "geometry": {
        "type": "Point",
        "coordinates": [
          -51.2171252,
          -30.0318627
        ]
      }
    },
    {
      "type": "Feature",
      "id": "node/6439885078",
      "properties": {
        "timestamp": "2019-05-01T00:17:40Z",
        "version": 1,
        "changeset": 69754703,
        "amenity": "bicycle_rental",
        "capacity": "14",
        "name": "35 - Irmão José Otão",
        "network": "BikePoA",
        "operator": "Tembici",
        "payment:credit_cards": "yes",
        "payment:debit_cards": "yes",
        "id": "node/6439885078"
      },
      "geometry": {
        "type": "Point",
        "coordinates": [
          -51.2143797,
          -30.0311133
        ]
      }
    },
    {
      "type": "Feature",
      "id": "node/6439885079",
      "properties": {
        "timestamp": "2022-05-26T18:03:13Z",
        "version": 3,
        "changeset": 121539528,
        "amenity": "bicycle_rental",
        "capacity": "17",
        "fee": "yes",
        "internet_access": "wlan",
        "internet_access:password": "bicicletabikepoa",
        "internet_access:ssid": "EstacaoBikePOA",
        "name": "38 - César Lombroso",
        "network": "Bike PoA",
        "opening_hours": "Su-Sa 06:00-22:00",
        "operator": "Tembici",
        "payment:credit_cards": "yes",
        "payment:debit_cards": "yes",
        "phone": "+55 51 4003-6052",
        "website": "https://bikeitau.com.br/bikepoa",
        "id": "node/6439885079"
      },
      "geometry": {
        "type": "Point",
        "coordinates": [
          -51.2082325,
          -30.0350818
        ]
      }
    },
    {
      "type": "Feature",
      "id": "node/7076489916",
      "properties": {
        "timestamp": "2019-12-21T23:40:43Z",
        "version": 1,
        "changeset": 78723664,
        "amenity": "bicycle_rental",
        "capacity": "15",
        "fee": "yes",
        "name": "Praça Maj. Joaquim de Queirós",
        "network": "Bike PoA",
        "operator": "Itaú",
        "id": "node/7076489916"
      },
      "geometry": {
        "type": "Point",
        "coordinates": [
          -51.2119827,
          -30.0420071
        ]
      }
    },
    {
      "type": "Feature",
      "id": "node/7076489953",
      "properties": {
        "timestamp": "2019-12-21T23:40:43Z",
        "version": 1,
        "changeset": 78723664,
        "amenity": "bicycle_rental",
        "capacity": "19",
        "fee": "yes",
        "name": "Praça Itália",
        "network": "Bike PoA",
        "operator": "Itaú",
        "id": "node/7076489953"
      },
      "geometry": {
        "type": "Point",
        "coordinates": [
          -51.2295039,
          -30.0510191
        ]
      }
    },
    {
      "type": "Feature",
      "id": "node/7137597606",
      "properties": {
        "timestamp": "2022-05-26T18:03:13Z",
        "version": 2,
        "changeset": 121539528,
        "amenity": "bicycle_rental",
        "capacity": "25",
        "fee": "yes",
        "internet_access": "wlan",
        "internet_access:password": "bicicletabikepoa",
        "internet_access:ssid": "EstacaoBikePOA",
        "name": "25 - Estação Nacional",
        "network": "Bike PoA",
        "opening_hours": "Su-Sa 06:00-22:00",
        "operator": "Tembici",
        "phone": "+55 51 4003-6052",
        "website": "https://bikeitau.com.br/bikepoa/",
        "id": "node/7137597606"
      },
      "geometry": {
        "type": "Point",
        "coordinates": [
          -51.2234219,
          -30.0444969
        ]
      }
    },
    {
      "type": "Feature",
      "id": "node/7137597607",
      "properties": {
        "timestamp": "2022-05-26T18:03:13Z",
        "version": 2,
        "changeset": 121539528,
        "amenity": "bicycle_rental",
        "capacity": "11",
        "fee": "yes",
        "internet_access": "wlan",
        "internet_access:password": "bicicletabikepoa",
        "internet_access:ssid": "EstacaoBikePOA",
        "name": "15 - Rua Alberto Tôrres",
        "network": "Bike PoA",
        "opening_hours": "Su-Sa 06:00-22:00",
        "operator": "Tembici",
        "phone": "+55 51 4003-6052",
        "website": "https://bikeitau.com.br/bikepoa",
        "id": "node/7137597607"
      },
      "geometry": {
        "type": "Point",
        "coordinates": [
          -51.2221772,
          -30.0406565
        ]
      }
    },
    {
      "type": "Feature",
      "id": "node/7137597608",
      "properties": {
        "timestamp": "2022-05-26T18:03:13Z",
        "version": 2,
        "changeset": 121539528,
        "amenity": "bicycle_rental",
        "capacity": "15",
        "fee": "yes",
        "internet_access": "wlan",
        "internet_access:password": "bicicletabikepoa",
        "internet_access:ssid": "EstacaoBikePOA",
        "name": "16 - República",
        "network": "Bike PoA",
        "opening_hours": "Su-Sa 06:00-22:00",
        "operator": "Tembici",
        "phone": "+55 51 4003-6052",
        "website": "https://bikeitau.com.br/bikepoa",
        "id": "node/7137597608"
      },
      "geometry": {
        "type": "Point",
        "coordinates": [
          -51.225576,
          -30.0401272
        ]
      }
    },
    {
      "type": "Feature",
      "id": "node/7137597609",
      "properties": {
        "timestamp": "2022-05-26T18:03:13Z",
        "version": 3,
        "changeset": 121539528,
        "amenity": "bicycle_rental",
        "capacity": "15",
        "fee": "yes",
        "internet_access": "wlan",
        "internet_access:password": "bicicletabikepoa",
        "internet_access:ssid": "EstacaoBikePOA",
        "name": "17 - Praça Isabel",
        "network": "Bike PoA",
        "opening_hours": "Su-Sa 06:00-22:00",
        "operator": "Tembici",
        "phone": "+55 51 4003-6052",
        "website": "https://bikeitau.com.br/bikepoa",
        "id": "node/7137597609"
      },
      "geometry": {
        "type": "Point",
        "coordinates": [
          -51.2278808,
          -30.0427687
        ]
      }
    },
    {
      "type": "Feature",
      "id": "node/11979182908",
      "properties": {
        "timestamp": "2024-06-13T21:13:13Z",
        "version": 1,
        "changeset": 152650432,
        "amenity": "bicycle_rental",
        "id": "node/11979182908"
      },
      "geometry": {
        "type": "Point",
        "coordinates": [
          -51.2323856,
          -30.0503554
        ]
      }
    }
  ]
}
