{
  "type": "FeatureCollection",
  "features": [
    {
      "type": "Feature",
      "id": "way/206785625",
      "properties": {
        "timestamp": "2020-01-25T16:06:14Z",
        "version": 9,
        "changeset": 80076844,
        "addr:housenumber": "1275",
        "addr:postcode": "90650-002",
        "addr:street": "Avenida Bento Gonçalves",
        "alt_name": "Maraschin Companhia das Bikes",
        "building": "yes",
        "email": "ciadasbikes@ciadasbikes.com.br",
        "name": "Maraschin Cia. das Bikes",
        "opening_hours": "Mo-Fr 08:30-12:00,13:30-18:30; Sa 09:00-15:00",
        "phone": "+55 51 3336-6602",
        "service:bicycle:repair": "yes",
        "service:bicycle:retail": "yes",
        "shop": "bicycle",
        "start_date": "1993",
        "website": "http://www.ciadasbikes.com.br/",
        "wheelchair": "yes",
        "id": "way/206785625"
      },
      "geometry": {
        "type": "Polygon",
        "coordinates": [
          [
            [
              -51.2004887,
              -30.0544473
            ],
            [
              -51.2005472,
              -30.0545203
            ],
            [
              -51.200586,
              -30.0545688
            ],
            [
              -51.200644,
              -30.0546411
            ],
            [
              -51.2006023,
              -30.0546661
            ],
            [
              -51.2005477,
              -30.0546989
            ],
            [
              -51.2003924,
              -30.0545051
            ],
            [
              -51.2004887,
              -30.0544473
            ]
          ]
        ]
      }
    },
    {
      "type": "Feature",
      "id": "way/206785626",
      "properties": {
        "timestamp": "2019-03-19T05:10:06Z",
        "version": 8,
        "changeset": 68281107,
        "addr:housenumber": "382",
        "addr:postcode": "91110-040",
        "addr:street": "Rua Baden Powell",
        "alt_name": "Rodociclo Bike Shop",
        "building": "yes",
        "email": "sac@rodociclo.com.br",
        "name": "Rodociclo BikeShop",
        "opening_hours": "Mo-Fr 09:00-19:00; Sa 09:00-18:00",
        "phone": "+55 51 3365-3540",
        "service:bicycle:repair": "yes",
        "service:bicycle:retail": "yes",
        "shop": "bicycle",
        "start_date": "1990",
        "website": "https://rodociclo.com.br/",
        "id": "way/206785626"
      },
      "geometry": {
        "type": "Polygon",
        "coordinates": [
          [
            [
              -51.1378839,
              -30.0007861
            ],
            [
              -51.13811,
              -30.0008002
            ],
            [
              -51.1381028,
              -30.0008872
            ],
            [
              -51.1378767,
              -30.0008731
            ],
            [
              -51.1378839,
              -30.0007861
            ]
          ]
        ]
      }
    },
    {
      "type": "Feature",
      "id": "way/206841668",
      "properties": {
        "timestamp": "2016-10-05T04:53:25Z",
        "version": 6,
        "changeset": 42647592,
        "addr:housenumber": "484",
        "addr:postcode": "91770-001",
        "addr:street": "Avenida Juca Batista",
        "building": "yes",
        "name": "Braciclo",
        "phone": "+55 51 3248-5322",
        "shop": "bicycle",
        "id": "way/206841668"
      },
      "geometry": {
        "type": "Polygon",
        "coordinates": [
          [
            [
              -51.220702,
              -30.1380804
            ],
            [
              -51.2205854,
              -30.1380447
            ],
            [
              -51.2206176,
              -30.1379659
            ],
            [
              -51.2207342,
              -30.1380016
            ],
            [
              -51.220702,
              -30.1380804
            ]
          ]
        ]
      }
    },
    {
      "type": "Feature",
      "id": "way/206841669",
      "properties": {
        "timestamp": "2017-05-14T14:00:09Z",
        "version": 8,
        "changeset": 48674175,
        "addr:housenumber": "5380",
        "addr:postcode": "90410-000",
        "addr:street": "Avenida Protásio Alves",
        "building": "residential",
        "email": "casadasbicis@yahoo.com.br",
        "name": "Casa das Bicicletas",
        "opening_hours": "Mo-Fr 08:00-18:30; Sa 08:00-12:00",
        "phone": "+55 51 3334-1120",
        "service:bicycle:repair": "yes",
        "service:bicycle:retail": "yes",
        "shop": "bicycle",
        "start_date": "1986",
        "wheelchair": "yes",
        "id": "way/206841669"
      },
      "geometry": {
        "type": "Polygon",
        "coordinates": [
          [
            [
              -51.1577501,
              -30.040868
            ],
            [
              -51.1577114,
              -30.0408728
            ],
            [
              -51.1576727,
              -30.0408776
            ],
            [
              -51.1576709,
              -30.0408669
            ],
            [
              -51.1576513,
              -30.0407499
            ],
            [
              -51.1576432,
              -30.0407018
            ],
            [
              -51.1576802,
              -30.0406972
            ],
            [
              -51.157721,
              -30.0406921
            ],
            [
              -51.1577501,
              -30.040868
            ]
          ]
        ]
      }
    },
    {
      "type": "Feature",
      "id": "way/206841670",
      "properties": {
        "timestamp": "2017-03-01T15:29:27Z",
        "version": 7,
        "changeset": 46497167,
        "addr:housenumber": "89",
        "addr:street": "Rua Tupinambá",
        "building": "yes",
        "name": "Manlec Bike",
        "phone": "+55 51 3361-8731",
        "service:bicycle:retail": "yes",
        "shop": "bicycle",
        "id": "way/206841670"
      },
      "geometry": {
        "type": "Polygon",
        "coordinates": [
          [
            [
              -51.1642095,
              -30.010362
            ],
            [
              -51.1641355,
              -30.0107892
            ],
            [
              -51.1640291,
              -30.0107754
            ],
            [
              -51.1641032,
              -30.0103482
            ],
            [
              -51.1642095,
              -30.010362
            ]
          ]
        ]
      }
    },
    {
      "type": "Feature",
      "id": "way/206841671",
      "properties": {
        "timestamp": "2017-03-01T15:29:27Z",
        "version": 9,
        "changeset": 46497167,
        "addr:housenumber": "2201",
        "addr:postcode": "91910-001",
        "addr:street": "Avenida Otto Niemeyer",
        "building": "yes",
        "email": "estilobike@estilobike.com.br",
        "name": "Estilo Bike",
        "opening_hours": "Mo-Fr 09:00-12:00,13:30-18:30; Sa 09:00-17:00",
        "phone": "+55 51 3241-8945",
        "service:bicycle:repair": "yes",
        "service:bicycle:retail": "yes",
        "shop": "bicycle",
        "start_date": "1993",
        "website": "http://www.estilobike.com.br/",
        "wheelchair": "yes",
        "id": "way/206841671"
      },
      "geometry": {
        "type": "Polygon",
        "coordinates": [
          [
            [
              -51.2375536,
              -30.104436
            ],
            [
              -51.2375459,
              -30.1044536
            ],
            [
              -51.2375172,
              -30.1045191
            ],
            [
              -51.2374412,
              -30.1044942
            ],
            [
              -51.2374777,
              -30.1044111
            ],
            [
              -51.2375536,
              -30.104436
            ]
          ]
        ]
      }
    },
    {
      "type": "Feature",
      "id": "way/207024850",
      "properties": {
        "timestamp": "2023-10-30T14:00:48Z",
        "version": 9,
        "changeset": 143367946,
        "addr:housenumber": "216",
        "addr:postcode": "90040-372",
        "addr:street": "Rua Santana",
        "alt_name": "MBike Santana",
        "building": "yes",
        "name": "M. Bike Santana",
        "opening_hours": "Mo-Fr 09:00-18:30; Sa 09:00-16:00",
        "phone": "+55 51 3391-9565",
        "service:bicycle:repair": "yes",
        "service:bicycle:retail": "yes",
        "shop": "bicycle",
        "website": "https://www.mbike.com.br/",
        "id": "way/207024850"
      },
      "geometry": {
        "type": "Polygon",
        "coordinates": [
          [
            [
              -51.2131356,
              -30.0405368
            ],
            [
              -51.2131081,
              -30.0405746
            ],
            [
              -51.2129862,
              -30.0405083
            ],
            [
              -51.2130136,
              -30.0404705
            ],
            [
              -51.2131356,
              -30.0405368
            ]
          ]
        ]
      }
    },
    {
      "type": "Feature",
      "id": "way/207031004",
      "properties": {
        "timestamp": "2017-03-01T15:29:28Z",
        "version": 8,
        "changeset": 46497167,
        "addr:housenumber": "3915",
        "addr:postcode": "90650-001",
        "addr:street": "Avenida Bento Gonçalves",
        "building": "yes",
        "name": "Ciclelândia",
        "phone": "+55 51 3315-1120",
        "service:bicycle:repair": "yes",
        "service:bicycle:retail": "yes",
        "shop": "bicycle",
        "website": "http://www.ciclelandia.com.br/",
        "id": "way/207031004"
      },
      "geometry": {
        "type": "Polygon",
        "coordinates": [
          [
            [
              -51.1771174,
              -30.0624688
            ],
            [
              -51.1770937,
              -30.0626157
            ],
            [
              -51.1770505,
              -30.0626105
            ],
            [
              -51.1770741,
              -30.0624636
            ],
            [
              -51.1771174,
              -30.0624688
            ]
          ]
        ]
      }
    },
    {
      "type": "Feature",
      "id": "way/421393278",
      "properties": {
        "timestamp": "2017-03-12T15:06:41Z",
        "version": 3,
        "changeset": 46787012,
        "addr:housenumber": "40",
        "addr:postcode": "90610-240",
        "addr:street": "Rua General Paranhos",
        "building": "yes",
        "name": "Perna Bike",
        "phone": "+55 51 3333-2179",
        "service:bicycle:repair": "yes",
        "shop": "bicycle",
        "website": "http://www.pernabike.com.br/",
        "id": "way/421393278"
      },
      "geometry": {
        "type": "Polygon",
        "coordinates": [
          [
            [
              -51.1993137,
              -30.0434321
            ],
            [
              -51.199249,
              -30.0434442
            ],
            [
              -51.1992427,
              -30.0434188
            ],
            [
              -51.1992159,
              -30.0433111
            ],
            [
              -51.1992114,
              -30.0432932
            ],
            [
              -51.1992758,
              -30.0432817
            ],
            [
              -51.1993137,
              -30.0434321
            ]
          ]
        ]
      }
    },
    {
      "type": "Feature",
      "id": "way/424221367",
      "properties": {
        "timestamp": "2019-03-18T17:07:47Z",
        "version": 4,
        "changeset": 68265577,
        "addr:city": "Porto Alegre",
        "addr:housenumber": "157",
        "addr:street": "Rua Passo da Pátria",
        "addr:suburb": "Bela Vista",
        "building": "yes",
        "name": "BKVG Bike Village",
        "service:bicycle:repair": "yes",
        "service:bicycle:sales": "yes",
        "shop": "bicycle",
        "website": "https://bikevillage.com.br/",
        "id": "way/424221367"
      },
      "geometry": {
        "type": "Polygon",
        "coordinates": [
          [
            [
              -51.1940839,
              -30.0378227
            ],
            [
              -51.1940838,
              -30.0378172
            ],
            [
              -51.1941801,
              -30.0378159
            ],
            [
              -51.1941824,
              -30.0379405
            ],
            [
              -51.1940998,
              -30.0379416
            ],
            [
              -51.1940989,
              -30.0378963
            ],
            [
              -51.1940852,
              -30.0378965
            ],
            [
              -51.1940839,
              -30.0378227
            ]
          ]
        ]
      }
    },
    {
      "type": "Feature",
      "id": "way/424298873",
      "properties": {
        "timestamp": "2020-09-09T12:55:25Z",
        "version": 3,
        "changeset": 90647415,
        "addr:city": "Porto Alegre",
        "addr:housenumber": "669",
        "addr:postcode": "90460-200",
        "addr:street": "Avenida Ijuí",
        "building": "yes",
        "name": "Bike Village",
        "shop": "bicycle",
        "id": "way/424298873"
      },
      "geometry": {
        "type": "Polygon",
        "coordinates": [
          [
            [
              -51.1872104,
              -30.0378151
            ],
            [
              -51.1871412,
              -30.0377938
            ],
            [
              -51.1871494,
              -30.0377734
            ],
            [
              -51.1871597,
              -30.0377768
            ],
            [
              -51.1871753,
              -30.03774
            ],
            [
              -51.1873559,
              -30.037798
            ],
            [
              -51.1874781,
              -30.0378372
            ],
            [
              -51.1875121,
              -30.0378481
            ],
            [
              -51.1874898,
              -30.0379007
            ],
            [
              -51.1872104,
              -30.0378151
            ]
          ]
        ]
      }
    },
    {
      "type": "Feature",
      "id": "way/426050100",
      "properties": {
        "timestamp": "2017-09-23T17:21:47Z",
        "version": 2,
        "changeset": 52309615,
        "addr:housenumber": "2307",
        "addr:street": "Avenida Wenceslau Escobar",
        "building": "yes",
        "email": "dudubiketeam@hotmail.com",
        "name": "Dudu Bike",
        "opening_hours": "Mo-Fr 09:00-12:00,13:30-18:30; Sa 09:00-17:00",
        "phone": "+55 51 3269-2369",
        "service:bicycle:repair": "yes",
        "service:bicycle:retail": "yes",
        "service:bicycle:second_hand": "yes",
        "shop": "bicycle",
        "website": "http://www.dudubike.com.br/",
        "id": "way/426050100"
      },
      "geometry": {
        "type": "Polygon",
        "coordinates": [
          [
            [
              -51.2544029,
              -30.1088395
            ],
            [
              -51.2543979,
              -30.1087737
            ],
            [
              -51.2545402,
              -30.1087657
            ],
            [
              -51.2545452,
              -30.1088328
            ],
            [
              -51.2545019,
              -30.1088348
            ],
            [
              -51.2544029,
              -30.1088395
            ]
          ]
        ]
      }
    },
    {
      "type": "Feature",
      "id": "way/426652609",
      "properties": {
        "timestamp": "2023-11-04T04:42:03Z",
        "version": 4,
        "changeset": 143598656,
        "addr:housenumber": "461",
        "addr:postcode": "91110-010",
        "addr:street": "Rua Dona Alzira",
        "building": "retail",
        "email": "uniaodeciclistas@hotmail.com",
        "name": "União de Ciclistas",
        "opening_hours": "Mo-Fr 08:30-18:00; Sa 08:30-13:00",
        "phone": "+55 51 3340-0689",
        "service:bicycle:repair": "yes",
        "service:bicycle:retail": "yes",
        "shop": "bicycle",
        "start_date": "1971",
        "website": "https://uniaodeciclistas.com.br/",
        "id": "way/426652609"
      },
      "geometry": {
        "type": "Polygon",
        "coordinates": [
          [
            [
              -51.1378721,
              -30.005987
            ],
            [
              -51.1375496,
              -30.0060084
            ],
            [
              -51.1375,
              -30.0060117
            ],
            [
              -51.1374959,
              -30.0059644
            ],
            [
              -51.1376432,
              -30.0059547
            ],
            [
              -51.1376399,
              -30.0059142
            ],
            [
              -51.137865,
              -30.0059004
            ],
            [
              -51.1378721,
              -30.005987
            ]
          ]
        ]
      }
    },
    {
      "type": "Feature",
      "id": "way/427258859",
      "properties": {
        "timestamp": "2017-03-12T15:06:41Z",
        "version": 3,
        "changeset": 46787012,
        "addr:housenumber": "521",
        "addr:postcode": "91130-001",
        "addr:street": "Avenida Baltazar de Oliveira Garcia",
        "building": "yes",
        "email": "podiumbike521@gmail.com",
        "name": "Pódium Bike",
        "opening_hours": "Mo-Fr 09:00-19:00; Sa 09:00-16:00",
        "phone": "+55 51 3237-0006",
        "service:bicycle:repair": "yes",
        "service:bicycle:retail": "yes",
        "service:bicycle:second_hand": "yes",
        "shop": "bicycle",
        "id": "way/427258859"
      },
      "geometry": {
        "type": "Polygon",
        "coordinates": [
          [
            [
              -51.1393118,
              -30.0103773
            ],
            [
              -51.1392878,
              -30.0102716
            ],
            [
              -51.1393861,
              -30.0102471
            ],
            [
              -51.1394032,
              -30.0103146
            ],
            [
              -51.139393,
              -30.0103166
            ],
            [
              -51.1394287,
              -30.0104574
            ],
            [
              -51.1393836,
              -30.0104661
            ],
            [
              -51.1393944,
              -30.0105085
            ],
            [
              -51.1393463,
              -30.010522
            ],
            [
              -51.1393446,
              -30.0105223
            ],
            [
              -51.1393327,
              -30.0104696
            ],
            [
              -51.1393118,
              -30.0103773
            ]
          ]
        ]
      }
    },
    {
      "type": "Feature",
      "id": "way/474246893",
      "properties": {
        "timestamp": "2017-03-01T15:29:32Z",
        "version": 3,
        "changeset": 46497167,
        "addr:housenumber": "264",
        "addr:postcode": "90040-310",
        "addr:street": "Rua Santana",
        "building": "yes",
        "email": "loja@bikesul.com.br",
        "fax": "+55 51 3028-3420",
        "name": "Bike Sul Bicicletas",
        "opening_hours": "Mo-Fr 09:00-18:30; Sa 09:30-16:00",
        "phone": "+55 51 3286-4443",
        "service:bicycle:repair": "yes",
        "service:bicycle:retail": "yes",
        "shop": "bicycle",
        "website": "http://www.bikesul.com.br/",
        "id": "way/474246893"
      },
      "geometry": {
        "type": "Polygon",
        "coordinates": [
          [
            [
              -51.2124667,
              -30.0408163
            ],
            [
              -51.2124932,
              -30.0407799
            ],
            [
              -51.2124409,
              -30.0407514
            ],
            [
              -51.2124145,
              -30.0407877
            ],
            [
              -51.2123803,
              -30.0407691
            ],
            [
              -51.2124369,
              -30.0406914
            ],
            [
              -51.2125316,
              -30.0407431
            ],
            [
              -51.2126035,
              -30.0407823
            ],
            [
              -51.2128066,
              -30.0408932
            ],
            [
              -51.21275,
              -30.0409709
            ],
            [
              -51.2124667,
              -30.0408163
            ]
          ]
        ]
      }
    },
    {
      "type": "Feature",
      "id": "way/479879178",
      "properties": {
        "timestamp": "2017-03-12T15:06:41Z",
        "version": 2,
        "changeset": 46787012,
        "addr:housenumber": "1639",
        "addr:postcode": "91910-001",
        "addr:street": "Avenida Otto Niemeyer",
        "landuse": "retail",
        "name": "Oficina Zenger",
        "phone": "+55 51 3268-3947",
        "service:bicycle:repair": "yes",
        "shop": "bicycle",
        "id": "way/479879178"
      },
      "geometry": {
        "type": "Polygon",
        "coordinates": [
          [
            [
              -51.2427113,
              -30.10652
            ],
            [
              -51.2426195,
              -30.1064896
            ],
            [
              -51.2426019,
              -30.1064837
            ],
            [
              -51.2426199,
              -30.106443
            ],
            [
              -51.2426213,
              -30.1064397
            ],
            [
              -51.2426505,
              -30.1063738
            ],
            [
              -51.242699,
              -30.1062642
            ],
            [
              -51.2427348,
              -30.1061832
            ],
            [
              -51.2427511,
              -30.1061464
            ],
            [
              -51.2427592,
              -30.1061281
            ],
            [
              -51.2428686,
              -30.1061643
            ],
            [
              -51.2428233,
              -30.1062667
            ],
            [
              -51.2427836,
              -30.1063566
            ],
            [
              -51.2427362,
              -30.1064637
            ],
            [
              -51.2427294,
              -30.1064791
            ],
            [
              -51.2427254,
              -30.1064881
            ],
            [
              -51.2427113,
              -30.10652
            ]
          ]
        ]
      }
    },
    {
      "type": "Feature",
      "id": "node/2168287721",
      "properties": {
        "timestamp": "2022-08-22T19:00:09Z",
        "version": 10,
        "changeset": 125241034,
        "addr:housenumber": "1090",
        "addr:postcode": "90510-003",
        "addr:street": "Rua 24 de Outubro",
        "alt_name": "Bike Tech",
        "email": "biketech@biketech.rs",
        "name": "BikeTech",
        "opening_hours": "Mo-Fr 09:30-18:30; Sa 09:00-17:00",
        "phone": "+55 51 3346-7533",
        "service:bicycle:cleaning": "yes",
        "service:bicycle:repair": "yes",
        "service:bicycle:retail": "yes",
        "shop": "bicycle",
        "start_date": "1991",
        "website": "http://www.biketech.rs/",
        "id": "node/2168287721"
      },
      "geometry": {
        "type": "Point",
        "coordinates": [
          -51.1977209,
          -30.023312
        ]
      }
    },
    {
      "type": "Feature",
      "id": "node/2168287728",
      "properties": {
        "timestamp": "2019-10-31T15:02:37Z",
        "version": 8,
        "changeset": 76455857,
        "addr:housenumber": "390",
        "addr:postcode": "90550-140",
        "addr:street": "Rua Dom Pedro II",
        "addr:unit": "108",
        "alt_name": "Espaço do Ciclista Zona Norte",
        "email": "contato@espacodociclista.com.br",
        "name": "Espaço do Ciclista",
        "opening_hours": "Mo-Fr 09:00-18:30; Sa 09:00-16:00",
        "phone": "+55 51 3084-5545",
        "service:bicycle:cleaning": "yes",
        "service:bicycle:repair": "yes",
        "service:bicycle:retail": "yes",
        "shop": "bicycle",
        "start_date": "2010",
        "website": "http://www.espacodociclista.com.br/",
        "wheelchair": "yes",
        "id": "node/2168287728"
      },
      "geometry": {
        "type": "Point",
        "coordinates": [
          -51.188851,
          -30.0103291
        ]
      }
    },
    {
      "type": "Feature",
      "id": "node/2168882747",
      "properties": {
        "timestamp": "2017-03-12T14:27:38Z",
        "version": 10,
        "changeset": 46786175,
        "addr:housenumber": "2727",
        "addr:postcode": "90160-091",
        "addr:street": "Avenida Ipiranga",
        "addr:unit": "7",
        "name": "Adventure Bike Shop",
        "opening_hours": "Mo-Fr 09:00-12:00,13:30-18:30; Sa 09:00-18:00",
        "phone": "+55 51 3219-6245",
        "service:bicycle:repair": "yes",
        "service:bicycle:retail": "yes",
        "shop": "bicycle",
        "start_date": "2010",
        "website": "http://www.adventurebike.com.br/",
        "wheelchair": "yes",
        "id": "node/2168882747"
      },
      "geometry": {
        "type": "Point",
        "coordinates": [
          -51.205731,
          -30.043786
        ]
      }
    },
    {
      "type": "Feature",
      "id": "node/2168882748",
      "properties": {
        "timestamp": "2017-02-12T22:15:15Z",
        "version": 8,
        "changeset": 46031687,
        "addr:housenumber": "331",
        "addr:postcode": "91430-000",
        "addr:street": "Avenida Antônio de Carvalho",
        "name": "Adventure Bike Shop",
        "phone": "+55 51 3334-5593",
        "service:bicycle:repair": "yes",
        "shop": "bicycle",
        "website": "http://www.adventurebike.com.br/",
        "id": "node/2168882748"
      },
      "geometry": {
        "type": "Point",
        "coordinates": [
          -51.1496034,
          -30.0634826
        ]
      }
    },
    {
      "type": "Feature",
      "id": "node/2171611647",
      "properties": {
        "timestamp": "2017-03-12T15:06:42Z",
        "version": 8,
        "changeset": 46787012,
        "addr:housenumber": "990",
        "addr:postcode": "90880-410",
        "addr:street": "Avenida Doutor Carlos Barbosa",
        "name": "LB Bike",
        "opening_hours": "Mo-Fr 08:00-12:00,13:00-18:30; Sa 08:00-13:00",
        "phone": "+55 51 3219-7325",
        "service:bicycle:repair": "yes",
        "shop": "bicycle",
        "id": "node/2171611647"
      },
      "geometry": {
        "type": "Point",
        "coordinates": [
          -51.2120037,
          -30.0642035
        ]
      }
    },
    {
      "type": "Feature",
      "id": "node/2171611659",
      "properties": {
        "timestamp": "2023-11-06T15:58:21Z",
        "version": 10,
        "changeset": 143699852,
        "addr:city": "Porto Alegre",
        "addr:housenumber": "95",
        "addr:postcode": "90550-005",
        "addr:street": "Avenida Assis Brasil",
        "addr:unit": "3",
        "alt_name": "MBike Assis Brasil",
        "amenity": "bicycle_repair_station",
        "name": "M. Bike Assis Brasil",
        "opening_hours": "Mo-Fr 09:00-18:30; Sa 09:00-16:00",
        "phone": "+55 51 3342-2237",
        "service:bicycle:repair": "yes",
        "service:bicycle:retail": "yes",
        "shop": "bicycle",
        "website": "https://www.mbike.com.br/",
        "id": "node/2171611659"
      },
      "geometry": {
        "type": "Point",
        "coordinates": [
          -51.1848535,
          -30.008051
        ]
      }
    },
    {
      "type": "Feature",
      "id": "node/2171611673",
      "properties": {
        "timestamp": "2023-10-30T14:04:54Z",
        "version": 9,
        "changeset": 143368199,
        "addr:housenumber": "1645",
        "addr:postcode": "90550-002",
        "addr:street": "Avenida Benjamin Constant",
        "alt_name": "MBike Benjamin",
        "name": "M. Bike Benjamin",
        "opening_hours": "Mo-Fr 09:00-18:30; Sa 09:00-16:00",
        "phone": "+55 51 3325-6904",
        "service:bicycle:repair": "yes",
        "service:bicycle:retail": "yes",
        "shop": "bicycle",
        "website": "https://www.mbike.com.br/",
        "id": "node/2171611673"
      },
      "geometry": {
        "type": "Point",
        "coordinates": [
          -51.1964911,
          -30.0155519
        ]
      }
    },
    {
      "type": "Feature",
      "id": "node/2171611683",
      "properties": {
        "timestamp": "2023-10-30T13:57:58Z",
        "version": 11,
        "changeset": 143367788,
        "addr:housenumber": "1445",
        "addr:postcode": "90160-091",
        "addr:street": "Avenida Ipiranga",
        "addr:unit": "113",
        "alt_name": "MBike Ipiranga",
        "name": "M. Bike Ipiranga",
        "opening_hours": "Mo-Fr 09:00-18:30; Sa 09:00-16:00",
        "phone": "+55 51 3012-7211",
        "service:bicycle:repair": "yes",
        "service:bicycle:retail": "yes",
        "shop": "bicycle",
        "website": "https://www.mbike.com.br/",
        "id": "node/2171611683"
      },
      "geometry": {
        "type": "Point",
        "coordinates": [
          -51.2148261,
          -30.0480685
        ]
      }
    },
    {
      "type": "Feature",
      "id": "node/2171733305",
      "properties": {
        "timestamp": "2017-02-13T14:28:03Z",
        "version": 9,
        "changeset": 46049059,
        "addr:housenumber": "3000",
        "addr:postcode": "91740-000",
        "addr:street": "Avenida da Cavalhada",
        "alt_name": "Macedaria",
        "email": "macedobike@hotmail.com",
        "name": "Macedo Bike",
        "phone": "+55 51 3276-4775",
        "service:bicycle:repair": "yes",
        "service:bicycle:retail": "yes",
        "shop": "bicycle",
        "start_date": "1937",
        "website": "http://www.macedobike.blogspot.com.br/",
        "wheelchair": "limited",
        "id": "node/2171733305"
      },
      "geometry": {
        "type": "Point",
        "coordinates": [
          -51.2306684,
          -30.1025846
        ]
      }
    },
    {
      "type": "Feature",
      "id": "node/2171733311",
      "properties": {
        "timestamp": "2016-09-28T16:36:17Z",
        "version": 7,
        "changeset": 42499002,
        "addr:housenumber": "99",
        "addr:postcode": "90620-001",
        "addr:street": "Avenida Princesa Isabel",
        "name": "Paladini Bicicletas",
        "opening_hours": "Mo-Fr 09:00-18:30; Sa 09:00-17:00",
        "phone": "+55 51 3019-3773",
        "service:bicycle:repair": "yes",
        "service:bicycle:retail": "yes",
        "shop": "bicycle",
        "id": "node/2171733311"
      },
      "geometry": {
        "type": "Point",
        "coordinates": [
          -51.2117702,
          -30.0505892
        ]
      }
    },
    {
      "type": "Feature",
      "id": "node/2171733318",
      "properties": {
        "timestamp": "2017-03-01T15:29:22Z",
        "version": 8,
        "changeset": 46497167,
        "addr:housenumber": "26",
        "addr:postcode": "90050-210",
        "addr:street": "Travessa do Carmo",
        "email": "sunsetbikes@hotmail.com",
        "name": "Sunset Bikes",
        "opening_hours": "Mo-Fr 09:00-18:30; Sa 09:00-16:00",
        "phone": "+55 51 3372-1244",
        "service:bicycle:repair": "yes",
        "service:bicycle:retail": "yes",
        "shop": "bicycle",
        "website": "http://www.sunsetbikes.com.br/",
        "id": "node/2171733318"
      },
      "geometry": {
        "type": "Point",
        "coordinates": [
          -51.2256429,
          -30.0380121
        ]
      }
    },
    {
      "type": "Feature",
      "id": "node/2994579945",
      "properties": {
        "timestamp": "2017-03-12T14:27:38Z",
        "version": 3,
        "changeset": 46786175,
        "addr:housenumber": "449",
        "addr:postcode": "90040-000",
        "addr:street": "Avenida João Pessoa",
        "email": "fullbikes@hotmail.com",
        "name": "Full Bikes",
        "old_name": "Ciclelândia",
        "opening_hours": "Mo-Fr 09:00-18:30; Sa 09:00-17:00",
        "phone": "+55 51 3084-2849",
        "service:bicycle:repair": "yes",
        "service:bicycle:retail": "yes",
        "shop": "bicycle",
        "website": "http://www.fullbikes.com.br/",
        "id": "node/2994579945"
      },
      "geometry": {
        "type": "Point",
        "coordinates": [
          -51.220498,
          -30.0361627
        ]
      }
    },
    {
      "type": "Feature",
      "id": "node/4682476236",
      "properties": {
        "timestamp": "2017-03-01T15:29:23Z",
        "version": 2,
        "changeset": 46497167,
        "addr:housenumber": "4129",
        "addr:postcode": "90650-003",
        "addr:street": "Avenida Bento Gonçalves",
        "email": "filipeminuto@hotmail.com",
        "name": "Cycle Sport",
        "opening_hours": "Mo-Sa 08:00-18:30",
        "phone": "+55 51 3336-2909",
        "service:bicycle:retail": "yes",
        "shop": "bicycle",
        "start_date": "1976",
        "website": "http://www.cyclesport.com.br/",
        "id": "node/4682476236"
      },
      "geometry": {
        "type": "Point",
        "coordinates": [
          -51.1748753,
          -30.062312
        ]
      }
    },
    {
      "type": "Feature",
      "id": "node/4682476237",
      "properties": {
        "timestamp": "2019-11-05T14:39:01Z",
        "version": 3,
        "changeset": 76653564,
        "addr:housenumber": "371",
        "addr:street": "Avenida Protásio Alves",
        "email": "administrativo@gauchabike.com.br",
        "name": "Gaúcha Bike",
        "opening_hours": "Su-Fr 09:00-19:00;Sa 09:00-16:00",
        "phone": "+55 51 3557-4449",
        "service:bicycle:retail": "yes",
        "service:bicycle:second_hand": "yes",
        "shop": "bicycle",
        "start_date": "2013",
        "website": "http://www.gauchabike.com.br/",
        "id": "node/4682476237"
      },
      "geometry": {
        "type": "Point",
        "coordinates": [
          -51.2045615,
          -30.0377603
        ]
      }
    },
    {
      "type": "Feature",
      "id": "node/4682476238",
      "properties": {
        "timestamp": "2019-03-22T02:13:14Z",
        "version": 3,
        "changeset": 68394202,
        "addr:housenumber": "291",
        "addr:postcode": "95220-075",
        "addr:street": "Rua 7 de Abril",
        "email": "vilavelobicicletaria@gmail.com",
        "name": "Vila Velô",
        "opening_hours": "Mo-Fr 09:00-18:30; Sa 09:00-16:00",
        "phone": "+55 51 3092-0070",
        "service:bicycle:repair": "yes",
        "service:bicycle:retail": "yes",
        "shop": "bicycle",
        "start_date": "2016",
        "website": "https://www.vilavelo.com/",
        "id": "node/4682476238"
      },
      "geometry": {
        "type": "Point",
        "coordinates": [
          -51.2085045,
          -30.0189281
        ]
      }
    },
    {
      "type": "Feature",
      "id": "node/4685270592",
      "properties": {
        "timestamp": "2017-03-01T15:29:24Z",
        "version": 2,
        "changeset": 46497167,
        "addr:housenumber": "452",
        "addr:postcode": "90670-030",
        "addr:street": "Rua Itaboraí",
        "alt_name": "Studio Bike Roots",
        "email": "studiobikeroots@gmail.com",
        "name": "Bike Roots Bicicletas",
        "opening_hours": "Mo-Sa 09:00-12:00,13:30-18:30",
        "phone": "+55 51 3013-4286",
        "service:bicycle:repair": "yes",
        "service:bicycle:retail": "yes",
        "shop": "bicycle",
        "start_date": "2014",
        "website": "http://www.bikeroots.com.br/",
        "id": "node/4685270592"
      },
      "geometry": {
        "type": "Point",
        "coordinates": [
          -51.1889017,
          -30.0505304
        ]
      }
    },
    {
      "type": "Feature",
      "id": "node/4685270593",
      "properties": {
        "timestamp": "2019-03-19T05:10:06Z",
        "version": 4,
        "changeset": 68281107,
        "addr:city": "Porto Alegre",
        "addr:housenumber": "805",
        "addr:postcode": "91150-401",
        "addr:street": "Avenida Ecoville",
        "addr:suburb": "Sarandi",
        "amenity": "bicycle_repair_station",
        "email": "camerbikeshop@gmail.com",
        "name": "Camer Bike Shop",
        "opening_hours": "Mo-Fr 09:00-20:00",
        "phone": "+55 51 3391-5330",
        "service:bicycle:cleaning": "yes",
        "service:bicycle:repair": "yes",
        "service:bicycle:retail": "yes",
        "shop": "bicycle",
        "website": "https://www.camerbikeshop.com.br/",
        "id": "node/4685270593"
      },
      "geometry": {
        "type": "Point",
        "coordinates": [
          -51.1234625,
          -30.0019446
        ]
      }
    },
    {
      "type": "Feature",
      "id": "node/4685270594",
      "properties": {
        "timestamp": "2017-05-14T14:00:09Z",
        "version": 3,
        "changeset": 48674175,
        "entrance": "main",
        "id": "node/4685270594"
      },
      "geometry": {
        "type": "Point",
        "coordinates": [
          -51.1577114,
          -30.0408728
        ]
      }
    },
    {
      "type": "Feature",
      "id": "node/4695520531",
      "properties": {
        "timestamp": "2017-03-01T15:29:25Z",
        "version": 2,
        "changeset": 46497167,
        "addr:housenumber": "125",
        "addr:postcode": "91050-340",
        "addr:street": "Avenida Quito",
        "addr:unit": "3",
        "email": "bicicletaslindoia@gmail.com",
        "name": "Bicicletas Lindoia",
        "opening_hours": "Mo-Fr 09:00-19:00; Sa 09:00-18:00",
        "phone": "+55 51 3344-6546",
        "service:bicycle:repair": "yes",
        "shop": "bicycle",
        "wheelchair": "yes",
        "id": "node/4695520531"
      },
      "geometry": {
        "type": "Point",
        "coordinates": [
          -51.1519354,
          -30.0047402
        ]
      }
    },
    {
      "type": "Feature",
      "id": "node/4695520533",
      "properties": {
        "timestamp": "2017-03-01T15:29:25Z",
        "version": 2,
        "changeset": 46497167,
        "addr:housenumber": "2525",
        "addr:postcode": "91160-093",
        "addr:street": "Avenida Ipiranga",
        "name": "DiBike",
        "phone": "+55 51 3029-2524",
        "service:bicycle:repair": "yes",
        "service:bicycle:retail": "yes",
        "shop": "bicycle",
        "id": "node/4695520533"
      },
      "geometry": {
        "type": "Point",
        "coordinates": [
          -51.2074102,
          -30.0448094
        ]
      }
    },
    {
      "type": "Feature",
      "id": "node/4726060864",
      "properties": {
        "timestamp": "2024-05-30T01:13:09Z",
        "version": 4,
        "changeset": 152011601,
        "addr:housenumber": "224",
        "addr:postcode": "91320-000",
        "addr:street": "Avenida Saturnino de Brito",
        "amenity": "bicycle_repair_station",
        "name": "Bicicross",
        "opening_hours": "Mo-Fr 08:30-18:00; Sa 08:00-12:00",
        "phone": "+55 51 3338-4028",
        "service:bicycle:repair": "yes",
        "service:bicycle:retail": "yes",
        "shop": "bicycle",
        "id": "node/4726060864"
      },
      "geometry": {
        "type": "Point",
        "coordinates": [
          -51.1543192,
          -30.0392418
        ]
      }
    },
    {
      "type": "Feature",
      "id": "node/4726060865",
      "properties": {
        "timestamp": "2017-03-12T15:06:42Z",
        "version": 2,
        "changeset": 46787012,
        "addr:housenumber": "2248",
        "addr:postcode": "90410-000",
        "addr:street": "Avenida Protásio Alves",
        "email": "doctorbikefitness@gmail.com",
        "name": "Doctor Bike & Fitness",
        "old_name": "Armazém do Esporte",
        "phone": "+55 51 3094-3045",
        "service:bicycle:cleaning": "yes",
        "service:bicycle:repair": "yes",
        "service:bicycle:retail": "yes",
        "service:bicycle:second_hand": "yes",
        "shop": "bicycle",
        "website": "http://www.doctorbikefitness.com.br/",
        "id": "node/4726060865"
      },
      "geometry": {
        "type": "Point",
        "coordinates": [
          -51.1866851,
          -30.0434958
        ]
      }
    },
    {
      "type": "Feature",
      "id": "node/4726060870",
      "properties": {
        "timestamp": "2017-03-12T15:06:42Z",
        "version": 2,
        "changeset": 46787012,
        "addr:housenumber": "2558",
        "addr:postcode": "90460-000",
        "addr:street": "Avenida Coronel Lucas de Oliveira",
        "name": "Nativo Bike",
        "opening_hours": "Mo-Sa 09:00-18:30",
        "phone": "+55 51 3557-2821",
        "service:bicycle:retail": "yes",
        "shop": "bicycle",
        "start_date": "1995",
        "id": "node/4726060870"
      },
      "geometry": {
        "type": "Point",
        "coordinates": [
          -51.1954234,
          -30.0453463
        ]
      }
    },
    {
      "type": "Feature",
      "id": "node/4727625860",
      "properties": {
        "timestamp": "2017-03-12T15:06:42Z",
        "version": 2,
        "changeset": 46787012,
        "addr:housenumber": "429",
        "addr:postcode": "90050-191",
        "addr:street": "Avenida Aureliano de Figueiredo Pinto",
        "addr:unit": "1",
        "email": "bikeartpoa@hotmail.com",
        "name": "Bike Art",
        "opening_hours": "Mo-Fr 09:00-18:30; Sa 09:00-17:00; Su 09:00-13:00",
        "phone": "+55 51 3226-8296",
        "service:bicycle:repair": "yes",
        "service:bicycle:retail": "yes",
        "service:bicycle:second_hand": "yes",
        "shop": "bicycle",
        "id": "node/4727625860"
      },
      "geometry": {
        "type": "Point",
        "coordinates": [
          -51.2272332,
          -30.0433651
        ]
      }
    },
    {
      "type": "Feature",
      "id": "node/4727740598",
      "properties": {
        "timestamp": "2017-03-12T14:27:39Z",
        "version": 2,
        "changeset": 46786175,
        "addr:housenumber": "462",
        "addr:postcode": "90035-120",
        "addr:street": "Rua General João Telles",
        "email": "funbikebicicletas@yahoo.com.br",
        "name": "FunBike",
        "opening_hours": "Mo-Fr 09:00-12:00,14:00-18:00; Sa 09:30-13:00",
        "phone": "+55 51 3072-8635",
        "service:bicycle:repair": "yes",
        "shop": "bicycle",
        "website": "http://www.funbike-rs.com.br/",
        "id": "node/4727740598"
      },
      "geometry": {
        "type": "Point",
        "coordinates": [
          -51.2125868,
          -30.033609
        ]
      }
    },
    {
      "type": "Feature",
      "id": "node/4727794496",
      "properties": {
        "timestamp": "2017-04-30T00:38:51Z",
        "version": 5,
        "changeset": 48270296,
        "addr:housenumber": "1499",
        "addr:postcode": "91900-121",
        "addr:street": "Rua General Rondon",
        "name": "Kamikaze Bikes",
        "phone": "+55 51 99675-4790",
        "service:bicycle:repair": "yes",
        "shop": "bicycle",
        "website": "http://www.kamikazebikes.com.br/",
        "id": "node/4727794496"
      },
      "geometry": {
        "type": "Point",
        "coordinates": [
          -51.2449011,
          -30.1031429
        ]
      }
    },
    {
      "type": "Feature",
      "id": "node/4729159629",
      "properties": {
        "timestamp": "2017-04-08T18:08:38Z",
        "version": 3,
        "changeset": 47574888,
        "addr:housenumber": "835",
        "addr:postcode": "90150-051",
        "addr:street": "Rua Botafogo",
        "name": "Z Bikes",
        "opening_hours": "Mo-Fr 09:00-12:00,14:00-19:00; Sa 09:00-17:00",
        "phone": "+55 51 3508-2125",
        "shop": "bicycle",
        "id": "node/4729159629"
      },
      "geometry": {
        "type": "Point",
        "coordinates": [
          -51.2220771,
          -30.0545582
        ]
      }
    },
    {
      "type": "Feature",
      "id": "node/4730563774",
      "properties": {
        "timestamp": "2017-03-12T14:27:36Z",
        "version": 1,
        "changeset": 46786175,
        "addr:housenumber": "2275",
        "addr:postcode": "91790-520",
        "addr:street": "Rua Tenente Arizoly Fagundes",
        "addr:unit": "3",
        "name": "Bike Sete",
        "phone": "+55 51 3250-2076",
        "service:bicycle:retail": "yes",
        "shop": "bicycle",
        "id": "node/4730563774"
      },
      "geometry": {
        "type": "Point",
        "coordinates": [
          -51.14335,
          -30.1541583
        ]
      }
    },
    {
      "type": "Feature",
      "id": "node/4730563777",
      "properties": {
        "timestamp": "2017-03-12T14:27:36Z",
        "version": 1,
        "changeset": 46786175,
        "addr:housenumber": "1383",
        "addr:postcode": "90130-150",
        "addr:street": "Rua Visconde do Herval",
        "email": "casacatraca@yahoo.com.br",
        "name": "Casa Catraca",
        "phone": "+55 51 3217-0359",
        "service:bicycle:repair": "yes",
        "service:bicycle:retail": "yes",
        "shop": "bicycle",
        "start_date": "1939",
        "id": "node/4730563777"
      },
      "geometry": {
        "type": "Point",
        "coordinates": [
          -51.2146903,
          -30.0540904
        ]
      }
    },
    {
      "type": "Feature",
      "id": "node/4730563780",
      "properties": {
        "timestamp": "2017-03-12T14:27:36Z",
        "version": 1,
        "changeset": 46786175,
        "addr:housenumber": "309",
        "addr:postcode": "90220-004",
        "addr:street": "Avenida Farrapos",
        "name": "MotoBike",
        "phone": "+55 51 3061-6085",
        "service:bicycle:repair": "yes",
        "service:bicycle:retail": "yes",
        "shop": "bicycle",
        "id": "node/4730563780"
      },
      "geometry": {
        "type": "Point",
        "coordinates": [
          -51.2163415,
          -30.0261653
        ]
      }
    },
    {
      "type": "Feature",
      "id": "node/4730615206",
      "properties": {
        "timestamp": "2017-03-12T15:06:40Z",
        "version": 1,
        "changeset": 46787012,
        "addr:housenumber": "203",
        "addr:street": "Rua Professora Amy Herve Ramires",
        "name": "Rodociclo",
        "phone": "+55 51 3023-7750",
        "shop": "bicycle",
        "id": "node/4730615206"
      },
      "geometry": {
        "type": "Point",
        "coordinates": [
          -51.1074571,
          -30.0197214
        ]
      }
    },
    {
      "type": "Feature",
      "id": "node/4790254564",
      "properties": {
        "timestamp": "2017-04-12T16:25:53Z",
        "version": 1,
        "changeset": 47700261,
        "name": "Oficina de Bicicleta Só Bike",
        "phone": "+55 51 3023-8893",
        "service:bicycle:repair": "yes",
        "shop": "bicycle",
        "id": "node/4790254564"
      },
      "geometry": {
        "type": "Point",
        "coordinates": [
          -51.226344,
          -30.1579646
        ]
      }
    },
    {
      "type": "Feature",
      "id": "node/4805805191",
      "properties": {
        "timestamp": "2017-04-20T13:26:22Z",
        "version": 1,
        "changeset": 47971911,
        "addr:housenumber": "4629",
        "addr:street": "Avenida Ipiranga",
        "email": "adventureipiranga@gmail.com",
        "name": "Adventure Bike Shop",
        "opening_hours": "Mo-Fr 09:00-18:30; Sa 09:00-16:00",
        "service:bicycle:repair": "yes",
        "service:bicycle:retail": "yes",
        "shop": "bicycle",
        "id": "node/4805805191"
      },
      "geometry": {
        "type": "Point",
        "coordinates": [
          -51.1921916,
          -30.054321
        ]
      }
    },
    {
      "type": "Feature",
      "id": "node/4805805192",
      "properties": {
        "timestamp": "2017-04-20T13:26:22Z",
        "version": 1,
        "changeset": 47971911,
        "addr:housenumber": "870",
        "addr:street": "Avenida Wenceslau Escobar",
        "alt_name": "Cidus Bike",
        "email": "cidusbike@gmail.com",
        "name": "Cidu's Bike",
        "opening_hours": "Mo-Fr 09:00-18:30",
        "phone": "+55 51 3208-2687",
        "service:bicycle:retail": "yes",
        "shop": "bicycle",
        "id": "node/4805805192"
      },
      "geometry": {
        "type": "Point",
        "coordinates": [
          -51.2479035,
          -30.0978563
        ]
      }
    },
    {
      "type": "Feature",
      "id": "node/4805805193",
      "properties": {
        "timestamp": "2017-04-20T13:26:22Z",
        "version": 1,
        "changeset": 47971911,
        "addr:housenumber": "1798",
        "addr:street": "Avenida Wenceslau Escobar",
        "name": "Meotti Bike",
        "opening_hours": "Mo-Fr 08:00-12:00,13:30-18:30; Sa 08:00-12:00,13:00-17:30",
        "phone": "+55 51 3268-8458",
        "service:bicycle:repair": "yes",
        "service:bicycle:retail": "yes",
        "shop": "bicycle",
        "id": "node/4805805193"
      },
      "geometry": {
        "type": "Point",
        "coordinates": [
          -51.253097,
          -30.1044415
        ]
      }
    },
    {
      "type": "Feature",
      "id": "node/4805948805",
      "properties": {
        "timestamp": "2017-04-20T14:41:01Z",
        "version": 1,
        "changeset": 47974175,
        "addr:housenumber": "280",
        "addr:postcode": "90410-004",
        "addr:street": "Avenida Protásio Alves",
        "addr:unit": "104",
        "name": "Aguiar Cycles",
        "opening_hours": "Mo-Fr 09:00-12:00,13:00-18:30",
        "phone": "+55 51 3028-1531",
        "service:bicycle:repair": "yes",
        "service:bicycle:retail": "yes",
        "shop": "bicycle",
        "start_date": "1992",
        "website": "http://aguiarcycles.blogspot.com.br/",
        "id": "node/4805948805"
      },
      "geometry": {
        "type": "Point",
        "coordinates": [
          -51.2052188,
          -30.0372443
        ]
      }
    },
    {
      "type": "Feature",
      "id": "node/4805948822",
      "properties": {
        "timestamp": "2017-04-20T14:41:02Z",
        "version": 1,
        "changeset": 47974175,
        "addr:housenumber": "704",
        "addr:postcode": "90035-191",
        "addr:street": "Avenida Osvaldo Aranha",
        "email": "redencaobicicletas@gmail.com",
        "name": "Redenção Bicicletas",
        "opening_hours": "Mo-Fr 09:00-19:00; Sa 09:00-17:00",
        "phone": "+55 51 3346-2158",
        "service:bicycle:repair": "yes",
        "service:bicycle:retail": "yes",
        "shop": "bicycle",
        "id": "node/4805948822"
      },
      "geometry": {
        "type": "Point",
        "coordinates": [
          -51.2151224,
          -30.0333776
        ]
      }
    },
    {
      "type": "Feature",
      "id": "node/4808656673",
      "properties": {
        "timestamp": "2019-03-22T02:13:15Z",
        "version": 2,
        "changeset": 68394202,
        "addr:housenumber": "753",
        "addr:street": "Rua São Carlos",
        "email": "contato@solabici.com.br",
        "name": "Solabici",
        "opening_hours": "Mo-Fr 13:00-19:00; Sa 09:00-15:00",
        "service:bicycle:retail": "yes",
        "shop": "bicycle",
        "start_date": "2014",
        "website": "https://www.solabici.com.br/",
        "id": "node/4808656673"
      },
      "geometry": {
        "type": "Point",
        "coordinates": [
          -51.2095009,
          -30.0199837
        ]
      }
    },
    {
      "type": "Feature",
      "id": "node/5258732021",
      "properties": {
        "timestamp": "2017-12-02T01:48:36Z",
        "version": 1,
        "changeset": 54255574,
        "addr:city": "Porto Alegre",
        "addr:housenumber": "3415",
        "addr:street": "Avenida da Cavalhada",
        "addr:suburb": "Cavalhada",
        "name": "Smart Bike",
        "opening_hours": "Mo-Sa 08:00-18:30",
        "service:bicycle:Bicycle_Sales_and_Service": "yes",
        "service:bicycle:bike": "yes",
        "service:bicycle:cleaning": "yes",
        "service:bicycle:parts": "yes",
        "service:bicycle:repair": "yes",
        "shop": "bicycle",
        "website": "www.facebook.com/Smart-Bike-240229759435374/",
        "id": "node/5258732021"
      },
      "geometry": {
        "type": "Point",
        "coordinates": [
          -51.229387,
          -30.1062657
        ]
      }
    },
    {
      "type": "Feature",
      "id": "node/5636325892",
      "properties": {
        "timestamp": "2021-04-13T18:31:36Z",
        "version": 2,
        "changeset": 102883322,
        "addr:city": "Porto Alegre",
        "addr:housenumber": "1645",
        "addr:street": "Avenida Benjamin Constant",
        "name": "MBike",
        "service:bicycle:Bicycle_Sales_and_Service": "yes",
        "service:bicycle:parts": "yes",
        "service:bicycle:repair": "yes",
        "service:bicycle:sales": "yes",
        "service:bicycle:tools": "yes",
        "shop": "bicycle",
        "id": "node/5636325892"
      },
      "geometry": {
        "type": "Point",
        "coordinates": [
          -51.1964837,
          -30.0155403
        ]
      }
    },
    {
      "type": "Feature",
      "id": "node/6363098086",
      "properties": {
        "timestamp": "2019-03-26T18:03:06Z",
        "version": 1,
        "changeset": 68557417,
        "name": "M. Bike",
        "shop": "bicycle",
        "id": "node/6363098086"
      },
      "geometry": {
        "type": "Point",
        "coordinates": [
          -51.2131859,
          -30.0409024
        ]
      }
    },
    {
      "type": "Feature",
      "id": "node/6363157086",
      "properties": {
        "timestamp": "2019-03-26T18:03:15Z",
        "version": 1,
        "changeset": 68557417,
        "name": "Sunset Bikes",
        "shop": "bicycle",
        "id": "node/6363157086"
      },
      "geometry": {
        "type": "Point",
        "coordinates": [
          -51.2249697,
          -30.0383716
        ]
      }
    },
    {
      "type": "Feature",
      "id": "node/6394215987",
      "properties": {
        "timestamp": "2019-04-09T16:24:51Z",
        "version": 1,
        "changeset": 69052938,
        "addr:housenumber": "527",
        "addr:street": "Rua Mostardeiro",
        "name": "Bike Tech",
        "shop": "bicycle",
        "id": "node/6394215987"
      },
      "geometry": {
        "type": "Point",
        "coordinates": [
          -51.2017662,
          -30.0286631
        ]
      }
    },
    {
      "type": "Feature",
      "id": "node/6396971194",
      "properties": {
        "timestamp": "2019-07-15T20:09:24Z",
        "version": 2,
        "changeset": 72280156,
        "addr:housenumber": "1092",
        "addr:street": "Rua Mariante",
        "name": "Aguiarcycles",
        "phone": "+55 51 3028-1531",
        "shop": "bicycle",
        "id": "node/6396971194"
      },
      "geometry": {
        "type": "Point",
        "coordinates": [
          -51.2038432,
          -30.0375739
        ]
      }
    },
    {
      "type": "Feature",
      "id": "node/6424391491",
      "properties": {
        "timestamp": "2019-04-23T23:59:20Z",
        "version": 1,
        "changeset": 69507479,
        "addr:housenumber": "505",
        "addr:street": "Avenida Érico Veríssimo",
        "name": "Santa Bike",
        "shop": "bicycle",
        "id": "node/6424391491"
      },
      "geometry": {
        "type": "Point",
        "coordinates": [
          -51.2183978,
          -30.0497567
        ]
      }
    },
    {
      "type": "Feature",
      "id": "node/8960398176",
      "properties": {
        "timestamp": "2024-01-25T14:31:47Z",
        "version": 3,
        "changeset": 146676003,
        "addr:city": "Porto Alegre",
        "addr:housenumber": "78",
        "addr:street": "Praça Garibaldi",
        "addr:suburb": "Cidade Baixa",
        "name": "Ciclo Poa",
        "payment:cash": "yes",
        "payment:credit_cards": "yes",
        "payment:debit_cards": "yes",
        "shop": "bicycle",
        "id": "node/8960398176"
      },
      "geometry": {
        "type": "Point",
        "coordinates": [
          -51.2202162,
          -30.0432011
        ]
      }
    },
    {
      "type": "Feature",
      "id": "node/9768236088",
      "properties": {
        "timestamp": "2022-06-27T22:20:47Z",
        "version": 3,
        "changeset": 122930403,
        "addr:city": "Porto Alegre",
        "addr:housenumber": "75",
        "addr:postcode": "91350-270",
        "addr:street": "Rua Fernando Cortez",
        "addr:suburb": "Cristo Redentor",
        "name": "Ripe Bike Repair - Oficina de Bicicleta",
        "phone": "+5551981599996",
        "service:bicycle:repair": "yes",
        "shop": "bicycle",
        "website": "www.ripebikerepair.com",
        "id": "node/9768236088"
      },
      "geometry": {
        "type": "Point",
        "coordinates": [
          -51.1571418,
          -30.0112665
        ]
      }
    },
    {
      "type": "Feature",
      "id": "node/11550054883",
      "properties": {
        "timestamp": "2024-01-25T14:23:53Z",
        "version": 1,
        "changeset": 146675746,
        "addr:city": "Porto Alegre",
        "addr:housenumber": "427",
        "addr:street": "Rua Silva Só",
        "name": "Maiss Bike Store",
        "phone": "+55 51 33725240",
        "service:bicycle:repair": "yes",
        "service:bicycle:sales": "yes",
        "shop": "bicycle",
        "id": "node/11550054883"
      },
      "geometry": {
        "type": "Point",
        "coordinates": [
          -51.2042398,
          -30.0418045
        ]
      }
    },
    {
      "type": "Feature",
      "id": "node/12643545001",
      "properties": {
        "timestamp": "2025-03-07T15:23:08Z",
        "version": 1,
        "changeset": 163331676,
        "name": "Bike Store",
        "shop": "bicycle",
        "id": "node/12643545001"
      },
      "geometry": {
        "type": "Point",
        "coordinates": [
          -51.2474167,
          -30.0791632
        ]
      }
    }
  ]
}
