{
  "type": "FeatureCollection",
  "features": [
    {
      "type": "Feature",
      "id": "way/237693971",
      "properties": {
        "timestamp": "2022-04-05T14:39:25Z",
        "version": 6,
        "changeset": 119347617,
        "addr:city": "Porto Alegre/RS",
        "addr:housenumber": "475",
        "addr:postcode": "91340-020",
        "addr:street": "Rua Antônio Carlos Berta",
        "addr:suburb": "Jardim Európa",
        "amenity": "dentist",
        "building": "yes",
        "healthcare": "dentist",
        "healthcare:speciality": "ortodontist;dentistry;orthodontics",
        "name": "Faé Fontana - Odontologia de Precisão",
        "opening_hours": "08:00-18:00",
        "id": "way/237693971"
      },
      "geometry": {
        "type": "Polygon",
        "coordinates": [
          [
            [
              -51.1610222,
              -30.023355
            ],
            [
              -51.1607982,
              -30.0233529
            ],
            [
              -51.1608015,
              -30.0230841
            ],
            [
              -51.1610256,
              -30.0230862
            ],
            [
              -51.1610263,
              -30.0232422
            ],
            [
              -51.1610222,
              -30.023355
            ]
          ]
        ]
      }
    },
    {
      "type": "Feature",
      "id": "way/425232635",
      "properties": {
        "timestamp": "2023-07-18T21:40:40Z",
        "version": 4,
        "changeset": 138688986,
        "addr:city": "Porto Alegre",
        "addr:housenumber": "1245",
        "addr:postcode": "90680-001",
        "addr:street": "Rua Guilherme Alves",
        "addr:suburb": "Partenon",
        "amenity": "dentist",
        "building": "commercial",
        "check_date:currency:XBT": "2023-07-18",
        "contact:email": "santtosorriso@gmail.com",
        "contact:instagram": "https://www.instagram.com/santtosorriso/",
        "contact:phone": "+55 51 997926757",
        "contact:whatsapp": "+55 51 997926757",
        "currency:XBT": "yes",
        "description": "Clínica Odontológica\nhttps://santtosorriso.com.br/\nhttps://www.instagram.com/santtosorriso\n+55 51 997926757",
        "email": "santtosorriso@gmail.com",
        "healthcare": "dentist",
        "name": "Clínica Santto Sorriso Odontológica",
        "opening_hours": "Mo-Fr 09:00-18:00",
        "payment:cash": "yes",
        "payment:contactless": "yes",
        "payment:credit_cards": "yes",
        "payment:debit_cards": "yes",
        "payment:lightning": "yes",
        "payment:lightning_contactless": "yes",
        "payment:onchain": "yes",
        "survey:date": "2023-07-18",
        "website": "https://santtosorriso.com.br",
        "id": "way/425232635"
      },
      "geometry": {
        "type": "Polygon",
        "coordinates": [
          [
            [
              -51.1903166,
              -30.0585639
            ],
            [
              -51.1902714,
              -30.0584829
            ],
            [
              -51.190401,
              -30.0584281
            ],
            [
              -51.1904222,
              -30.0584659
            ],
            [
              -51.1904408,
              -30.0584581
            ],
            [
              -51.1904644,
              -30.0585003
            ],
            [
              -51.1903886,
              -30.058533
            ],
            [
              -51.1903863,
              -30.0585289
            ],
            [
              -51.1903558,
              -30.0585418
            ],
            [
              -51.1903582,
              -30.0585461
            ],
            [
              -51.1903166,
              -30.0585639
            ]
          ]
        ]
      }
    },
    {
      "type": "Feature",
      "id": "way/426124969",
      "properties": {
        "timestamp": "2022-12-20T21:15:35Z",
        "version": 3,
        "changeset": 130306386,
        "addr:housenumber": "2975",
        "addr:street": "Avenida da Cavalhada",
        "amenity": "dentist",
        "building": "hospital",
        "healthcare": "dentist",
        "name": "Biológika",
        "opening_hours": "Mo-Fr 08:00-12:00,13:30-19:00; Sa 08:00-12:00",
        "phone": "+55 51 3242-5561",
        "id": "way/426124969"
      },
      "geometry": {
        "type": "Polygon",
        "coordinates": [
          [
            [
              -51.231202,
              -30.1025396
            ],
            [
              -51.2312221,
              -30.1024967
            ],
            [
              -51.2312422,
              -30.1024538
            ],
            [
              -51.2315165,
              -30.1025492
            ],
            [
              -51.2314777,
              -30.1026331
            ],
            [
              -51.2313834,
              -30.1026012
            ],
            [
              -51.231202,
              -30.1025396
            ]
          ]
        ]
      }
    },
    {
      "type": "Feature",
      "id": "node/4334356894",
      "properties": {
        "timestamp": "2022-12-27T17:54:37Z",
        "version": 4,
        "changeset": 130567748,
        "addr:housenumber": "453",
        "addr:postcode": "90420-140",
        "addr:street": "Rua Francisco Ferrer",
        "amenity": "dentist",
        "email": "drlucianobuco@gmail.com",
        "healthcare": "dentist",
        "internet_access": "wlan",
        "name": "Luciano Buco",
        "opening_hours": "Mo-Fr 08:30-12:00, 14:00-18:30",
        "phone": "+55 51 3013-3334",
        "website": "http://lucianobuco.com",
        "id": "node/4334356894"
      },
      "geometry": {
        "type": "Point",
        "coordinates": [
          -51.207444,
          -30.0363152
        ]
      }
    },
    {
      "type": "Feature",
      "id": "node/4730563778",
      "properties": {
        "timestamp": "2017-03-12T14:27:36Z",
        "version": 1,
        "changeset": 46786175,
        "addr:housenumber": "2290",
        "addr:postcode": "91790-520",
        "addr:street": "Rua Tenente Arizoly Fagundes",
        "addr:unit": "4",
        "amenity": "dentist",
        "name": "Centro Odontológico Restinga Nova",
        "phone": "+55 51 3257-4399",
        "id": "node/4730563778"
      },
      "geometry": {
        "type": "Point",
        "coordinates": [
          -51.1434157,
          -30.1540535
        ]
      }
    },
    {
      "type": "Feature",
      "id": "node/4805805486",
      "properties": {
        "timestamp": "2017-04-20T13:26:25Z",
        "version": 1,
        "changeset": 47971911,
        "entrance": "main",
        "id": "node/4805805486"
      },
      "geometry": {
        "type": "Point",
        "coordinates": [
          -51.2312221,
          -30.1024967
        ]
      }
    },
    {
      "type": "Feature",
      "id": "node/5022996306",
      "properties": {
        "timestamp": "2019-10-11T14:23:19Z",
        "version": 2,
        "changeset": 75570063,
        "amenity": "dentist",
        "healthcare": "dentist",
        "name": "Odontologia Miyabi",
        "id": "node/5022996306"
      },
      "geometry": {
        "type": "Point",
        "coordinates": [
          -51.1854309,
          -30.0242548
        ]
      }
    },
    {
      "type": "Feature",
      "id": "node/5249754221",
      "properties": {
        "timestamp": "2021-10-05T04:58:59Z",
        "version": 4,
        "changeset": 112102582,
        "addr:postcode": "91350-200",
        "amenity": "dentist",
        "email": "fabiano@prosaudeodontologia.com.br",
        "healthcare": "dentist",
        "internet_access": "wlan",
        "name": "Pró Saúde Odontologia",
        "name:en": "Pro Health Dentistry",
        "opening_hours": "Mo-Fr 08:00-18:00",
        "phone": "+55 51 3757-5745",
        "website": "http://prosaudeodontologia.com.br",
        "id": "node/5249754221"
      },
      "geometry": {
        "type": "Point",
        "coordinates": [
          -51.1595639,
          -30.0126132
        ]
      }
    },
    {
      "type": "Feature",
      "id": "node/6238167352",
      "properties": {
        "timestamp": "2021-10-15T14:51:21Z",
        "version": 3,
        "changeset": 112546361,
        "amenity": "dentist",
        "healthcare": "dentist",
        "name": "HPS Dentário",
        "opening_hours": "Mo-Su 00:00-23:00",
        "phone": "+55 51 3332-9300",
        "id": "node/6238167352"
      },
      "geometry": {
        "type": "Point",
        "coordinates": [
          -51.2091827,
          -30.0371857
        ]
      }
    },
    {
      "type": "Feature",
      "id": "node/6239859093",
      "properties": {
        "timestamp": "2023-10-30T14:00:15Z",
        "version": 4,
        "changeset": 143367920,
        "addr:street": "Av. Venâncio Aires, 511 - Cidade Baixa, Porto Alegre - RS, 90040-190",
        "amenity": "dentist",
        "description": "Desde 1970 praticando odontologia com excelência, no coração da capital. Tecnologia aliada ao constante aprendizado. Sempre buscando mo",
        "healthcare": "dentist",
        "name": "WK Odontologia",
        "opening_hours": "Mo-Fr 09:00-20:00",
        "phone": "+55 51 3221-2668",
        "website": "https://wkodontologia.com.br/",
        "id": "node/6239859093"
      },
      "geometry": {
        "type": "Point",
        "coordinates": [
          -51.2151756,
          -30.0406475
        ]
      }
    },
    {
      "type": "Feature",
      "id": "node/6240735507",
      "properties": {
        "timestamp": "2023-08-11T11:40:01Z",
        "version": 4,
        "changeset": 139746903,
        "addr:housenumber": "809",
        "addr:street": "Rua General Lima e Silva",
        "addr:suburb": "Cidade Baixa",
        "amenity": "dentist",
        "email": "contato@oirs.com.br",
        "healthcare": "dentist",
        "mobile": "+55 51 99214-9690",
        "name": "Odontologia Integrada RS",
        "opening_hours": "Mo-Fr 08:00-18:00",
        "phone": "+55 51 3221-9565",
        "website": "https://www.oirs.com.br",
        "id": "node/6240735507"
      },
      "geometry": {
        "type": "Point",
        "coordinates": [
          -51.2197924,
          -30.0396942
        ]
      }
    },
    {
      "type": "Feature",
      "id": "node/6242683826",
      "properties": {
        "timestamp": "2021-09-30T12:50:42Z",
        "version": 3,
        "changeset": 111916423,
        "amenity": "dentist",
        "healthcare": "dentist",
        "name": "Dr Egidio Schneider",
        "phone": "+55 51 3228-4901",
        "id": "node/6242683826"
      },
      "geometry": {
        "type": "Point",
        "coordinates": [
          -51.2156559,
          -30.0409344
        ]
      }
    },
    {
      "type": "Feature",
      "id": "node/7223223670",
      "properties": {
        "timestamp": "2021-10-15T14:51:21Z",
        "version": 4,
        "changeset": 112546361,
        "addr:housenumber": "975",
        "addr:street": "Av. Venâncio Aires, 975 - Farroupilha, Porto Alegre - RS, 90040-191",
        "amenity": "dentist",
        "healthcare": "dentist",
        "name": "HPS Dentàrio - Unidade Clinica",
        "phone": "+55 51 3332-9300",
        "website": "https://www.hpsdentario.com.br/",
        "id": "node/7223223670"
      },
      "geometry": {
        "type": "Point",
        "coordinates": [
          -51.2110291,
          -30.038187
        ]
      }
    },
    {
      "type": "Feature",
      "id": "node/7229027677",
      "properties": {
        "timestamp": "2023-11-26T03:15:47Z",
        "version": 4,
        "changeset": 144459112,
        "addr:housenumber": "1111",
        "addr:street": "Av. Venâncio Aires, 1111 - Farroupilha, Porto Alegre - RS, 90040-193",
        "amenity": "dentist",
        "healthcare": "dentist",
        "name": "Pronto Socorro Dentário - Clínica Odontológica 24 Horas",
        "opening_hours": "Mo-Su 12:00-12:00",
        "phone": "+55 51 3225-6499",
        "website": "https://psdentario.com.br/",
        "id": "node/7229027677"
      },
      "geometry": {
        "type": "Point",
        "coordinates": [
          -51.2098465,
          -30.0375366
        ]
      }
    },
    {
      "type": "Feature",
      "id": "node/7231220641",
      "properties": {
        "timestamp": "2023-10-30T13:59:39Z",
        "version": 4,
        "changeset": 143367890,
        "addr:housenumber": "914",
        "addr:street": "Av. Independência, 914 - Independência, Porto Alegre - RS, 90035-072",
        "amenity": "dentist",
        "healthcare": "dentist",
        "name": "Uniodonto",
        "opening_hours": "Mo-Su 12:00-12:00",
        "phone": "+55 51 3302-4024",
        "website": "https://www.uniodontopoa.com.br/",
        "id": "node/7231220641"
      },
      "geometry": {
        "type": "Point",
        "coordinates": [
          -51.2114296,
          -30.0295277
        ]
      }
    },
    {
      "type": "Feature",
      "id": "node/7232583804",
      "properties": {
        "timestamp": "2021-10-15T14:51:21Z",
        "version": 3,
        "changeset": 112546361,
        "addr:housenumber": "535",
        "addr:street": "Av. Jerônimo de Ornelas",
        "amenity": "dentist",
        "healthcare": "dentist",
        "name": "Consultório Dentário Dr. Daniel Real",
        "opening_hours": "Mo-Fr 09:00-18:00; Sa 09:00-12:00",
        "phone": "+55 51 3391-9939",
        "id": "node/7232583804"
      },
      "geometry": {
        "type": "Point",
        "coordinates": [
          -51.2098198,
          -30.0407829
        ]
      }
    },
    {
      "type": "Feature",
      "id": "node/8858775057",
      "properties": {
        "timestamp": "2021-06-23T01:57:44Z",
        "version": 1,
        "changeset": 106804228,
        "amenity": "dentist",
        "healthcare": "dentist",
        "name": "CaeroClins",
        "id": "node/8858775057"
      },
      "geometry": {
        "type": "Point",
        "coordinates": [
          -51.1761731,
          -30.1550793
        ]
      }
    },
    {
      "type": "Feature",
      "id": "node/8861234502",
      "properties": {
        "timestamp": "2021-06-23T20:20:31Z",
        "version": 1,
        "changeset": 106859070,
        "amenity": "dentist",
        "healthcare": "dentist",
        "name": "Arnuti Odontologia",
        "id": "node/8861234502"
      },
      "geometry": {
        "type": "Point",
        "coordinates": [
          -51.172723,
          -30.1556515
        ]
      }
    },
    {
      "type": "Feature",
      "id": "node/8863559491",
      "properties": {
        "timestamp": "2021-06-24T16:04:57Z",
        "version": 1,
        "changeset": 106910845,
        "amenity": "dentist",
        "healthcare": "dentist",
        "name": "Consultório Odontológico",
        "id": "node/8863559491"
      },
      "geometry": {
        "type": "Point",
        "coordinates": [
          -51.1814736,
          -30.1557327
        ]
      }
    },
    {
      "type": "Feature",
      "id": "node/9603208973",
      "properties": {
        "timestamp": "2022-04-05T14:39:25Z",
        "version": 5,
        "changeset": 119347617,
        "addr:city": "Porto Alegre/RS",
        "addr:housenumber": "475",
        "addr:postcode": "91340-020",
        "addr:street": "Faé Fontana - Odontologia de Precisão | Rua Antônio Carlos Berta",
        "addr:suburb": "Jardim Európa",
        "amenity": "dentist",
        "contact:facebook": "https://www.facebook.com/faefontana",
        "contact:instagram": "faefontana",
        "healthcare": "dentist",
        "healthcare:speciality": "dentist;orthodontics;dental_oral_maxillo_facial_surgery;dentistry",
        "name": "Faé Fontana - Odontologia de Precisão",
        "opening_hours": "24/7",
        "operator": "Fabiane Faé",
        "room": "1510",
        "id": "node/9603208973"
      },
      "geometry": {
        "type": "Point",
        "coordinates": [
          -51.1610263,
          -30.0232422
        ]
      }
    },
    {
      "type": "Feature",
      "id": "node/10209749612",
      "properties": {
        "timestamp": "2022-11-22T13:33:42Z",
        "version": 1,
        "changeset": 129240215,
        "addr:city": "Porto Alegre",
        "addr:housenumber": "354",
        "addr:street": "Rua Eudoro Berlink",
        "addr:suburb": "Auxiliadora",
        "amenity": "dentist",
        "healthcare": "dentist",
        "healthcare:speciality": "odontopediatria;ortopedia_funcional_dos_maxilares",
        "name": "Dra. Camila Baldasso - Odontopediatra",
        "opening_hours": "Mo-Sa 08:00-18:00",
        "id": "node/10209749612"
      },
      "geometry": {
        "type": "Point",
        "coordinates": [
          -51.1943016,
          -30.0244305
        ]
      }
    },
    {
      "type": "Feature",
      "id": "node/10914791451",
      "properties": {
        "timestamp": "2023-05-20T21:32:32Z",
        "version": 1,
        "changeset": 136353804,
        "addr:housenumber": "163",
        "addr:postcode": "90550-110",
        "addr:street": "Avenida Augusto Meyer",
        "addr:suburb": "Auxiliadora",
        "alt_name": "Odontohospitalar Clinica e Cirurgia Odontológica",
        "amenity": "dentist",
        "healthcare": "dentist",
        "healthcare:speciality": "orthodontics",
        "name": "Odontohospitalar",
        "ref:CNES": "9616535",
        "ref:vatin": "BR30247400000167",
        "id": "node/10914791451"
      },
      "geometry": {
        "type": "Point",
        "coordinates": [
          -51.1854509,
          -30.0214974
        ]
      }
    },
    {
      "type": "Feature",
      "id": "node/11334846720",
      "properties": {
        "timestamp": "2024-09-21T06:37:01Z",
        "version": 3,
        "changeset": 156897314,
        "amenity": "dentist",
        "check_date": "2024-09-21",
        "currency:XBT": "yes",
        "healthcare": "dentist",
        "healthcare:speciality": "orthodontics",
        "name": "Viviane Costa Leite",
        "opening_hours": "Mo-Su 09:00-18:00",
        "operator": "Viviane costa leite",
        "payment:lightning": "yes",
        "payment:lightning_contactless": "yes",
        "payment:onchain": "yes",
        "id": "node/11334846720"
      },
      "geometry": {
        "type": "Point",
        "coordinates": [
          -51.2226584,
          -30.028012
        ]
      }
    }
  ]
}
