{
  "type": "FeatureCollection",
  "features": [
    {
      "type": "Feature",
      "id": "way/188942516",
      "properties": {
        "timestamp": "2022-12-20T21:15:35Z",
        "version": 11,
        "changeset": 130306386,
        "addr:housenumber": "2695",
        "addr:postcode": "91910-001",
        "addr:street": "Avenida Otto Niemeyer",
        "amenity": "doctors",
        "building": "commercial",
        "building:levels": "1",
        "healthcare": "doctor",
        "name": "Clínica Salute",
        "opening_hours": "Mo-Fr 08:00-20:00; Sa-Su 10:00-18:00",
        "roof:levels": "1",
        "roof:shape": "flat",
        "website": "https://www.clinicasalute.com.br/",
        "id": "way/188942516"
      },
      "geometry": {
        "type": "Polygon",
        "coordinates": [
          [
            [
              -51.2325455,
              -30.1027334
            ],
            [
              -51.2324839,
              -30.1028631
            ],
            [
              -51.2323757,
              -30.1028221
            ],
            [
              -51.2324423,
              -30.1026953
            ],
            [
              -51.2325455,
              -30.1027334
            ]
          ]
        ]
      }
    },
    {
      "type": "Feature",
      "id": "way/203181859",
      "properties": {
        "timestamp": "2024-04-16T22:48:23Z",
        "version": 7,
        "changeset": 150105122,
        "addr:housenumber": "687",
        "addr:postcode": "91910-001",
        "addr:street": "Avenida Otto Niemeyer",
        "amenity": "doctors",
        "building": "yes",
        "healthcare": "doctor",
        "name": "Laboratório Weinmann Zona Sul",
        "opening_hours": "Mo-Fr 07:00-19:00; Sa 07:00-13:15",
        "id": "way/203181859"
      },
      "geometry": {
        "type": "Polygon",
        "coordinates": [
          [
            [
              -51.2520525,
              -30.1094425
            ],
            [
              -51.2519854,
              -30.1095904
            ],
            [
              -51.2519058,
              -30.1095634
            ],
            [
              -51.251973,
              -30.1094154
            ],
            [
              -51.2520525,
              -30.1094425
            ]
          ]
        ]
      }
    },
    {
      "type": "Feature",
      "id": "way/233635166",
      "properties": {
        "timestamp": "2021-11-07T22:45:14Z",
        "version": 5,
        "changeset": 113498758,
        "addr:housenumber": "30",
        "addr:street": "Rua Costa",
        "amenity": "doctors",
        "emergency": "no",
        "healthcare": "doctor",
        "name": "Centro Clínico Mãe de Deus",
        "phone": "+55 51 3230-2600",
        "wheelchair": "yes",
        "id": "way/233635166"
      },
      "geometry": {
        "type": "Polygon",
        "coordinates": [
          [
            [
              -51.2288511,
              -30.0581904
            ],
            [
              -51.2296293,
              -30.0580819
            ],
            [
              -51.2296594,
              -30.058244
            ],
            [
              -51.2288812,
              -30.0583525
            ],
            [
              -51.2288511,
              -30.0581904
            ]
          ]
        ]
      }
    },
    {
      "type": "Feature",
      "id": "way/248405680",
      "properties": {
        "timestamp": "2022-03-27T21:36:22Z",
        "version": 3,
        "changeset": 118996974,
        "amenity": "doctors",
        "building": "yes",
        "healthcare": "doctor",
        "name": "Centro Clínico da PUCRS",
        "id": "way/248405680"
      },
      "geometry": {
        "type": "Polygon",
        "coordinates": [
          [
            [
              -51.174623,
              -30.0547776
            ],
            [
              -51.1742722,
              -30.0546408
            ],
            [
              -51.1741623,
              -30.054852
            ],
            [
              -51.1740113,
              -30.0547931
            ],
            [
              -51.1741118,
              -30.0546092
            ],
            [
              -51.1739175,
              -30.0546602
            ],
            [
              -51.1738674,
              -30.0545274
            ],
            [
              -51.1741839,
              -30.0544329
            ],
            [
              -51.1746938,
              -30.0546422
            ],
            [
              -51.1746869,
              -30.0546599
            ],
            [
              -51.1746545,
              -30.0547129
            ],
            [
              -51.174623,
              -30.0547776
            ]
          ]
        ]
      }
    },
    {
      "type": "Feature",
      "id": "way/288987796",
      "properties": {
        "timestamp": "2019-10-11T14:07:56Z",
        "version": 2,
        "changeset": 75569081,
        "amenity": "doctors",
        "building": "yes",
        "healthcare": "doctor",
        "id": "way/288987796"
      },
      "geometry": {
        "type": "Polygon",
        "coordinates": [
          [
            [
              -51.1935791,
              -29.9927597
            ],
            [
              -51.1935297,
              -29.9926216
            ],
            [
              -51.1937351,
              -29.9925666
            ],
            [
              -51.1937844,
              -29.9927046
            ],
            [
              -51.1935791,
              -29.9927597
            ]
          ]
        ]
      }
    },
    {
      "type": "Feature",
      "id": "way/288987797",
      "properties": {
        "timestamp": "2019-10-11T14:07:56Z",
        "version": 2,
        "changeset": 75569081,
        "amenity": "doctors",
        "building": "yes",
        "healthcare": "doctor",
        "name": "Unidade Básica de Saúde Diretor Pestana",
        "id": "way/288987797"
      },
      "geometry": {
        "type": "Polygon",
        "coordinates": [
          [
            [
              -51.1936323,
              -29.992817
            ],
            [
              -51.1937803,
              -29.9927353
            ],
            [
              -51.1938286,
              -29.9928008
            ],
            [
              -51.1937992,
              -29.9928292
            ],
            [
              -51.1938508,
              -29.9929018
            ],
            [
              -51.1939191,
              -29.9928654
            ],
            [
              -51.1939608,
              -29.992924
            ],
            [
              -51.1938665,
              -29.9929742
            ],
            [
              -51.1938752,
              -29.9930101
            ],
            [
              -51.1938036,
              -29.9930496
            ],
            [
              -51.1936323,
              -29.992817
            ]
          ]
        ]
      }
    },
    {
      "type": "Feature",
      "id": "way/293880027",
      "properties": {
        "timestamp": "2023-06-16T02:10:05Z",
        "version": 5,
        "changeset": 137394205,
        "addr:housenumber": "11",
        "addr:street": "Rua Antenor Lemos",
        "amenity": "doctors",
        "building": "yes",
        "healthcare": "doctor",
        "name": "Dermatologia Integrada",
        "phone": "+55 51 3377-3333",
        "ref:CNES": "7525931",
        "ref:vatin": "BR16422524000100",
        "website": "https://www.maededeus.com.br/",
        "id": "way/293880027"
      },
      "geometry": {
        "type": "Polygon",
        "coordinates": [
          [
            [
              -51.2292006,
              -30.0598653
            ],
            [
              -51.2291091,
              -30.0598999
            ],
            [
              -51.2290801,
              -30.0597536
            ],
            [
              -51.2291756,
              -30.0597394
            ],
            [
              -51.2292006,
              -30.0598653
            ]
          ]
        ]
      }
    },
    {
      "type": "Feature",
      "id": "way/293880029",
      "properties": {
        "timestamp": "2023-11-01T23:16:14Z",
        "version": 4,
        "changeset": 143501501,
        "addr:housenumber": "233",
        "addr:postcode": "90450-001",
        "addr:street": "Rua Anita Garibaldi",
        "alt_name": "Laboratório MD",
        "amenity": "doctors",
        "building": "yes",
        "healthcare": "doctor",
        "name": "Medicina Digital",
        "opening_hours": "Mo-Fr 08:00-19:00",
        "phone": "+55 51 3332-8880",
        "website": "https://www.medicina-digital.com/",
        "id": "way/293880029"
      },
      "geometry": {
        "type": "Polygon",
        "coordinates": [
          [
            [
              -51.1937022,
              -30.0273217
            ],
            [
              -51.1936928,
              -30.0273842
            ],
            [
              -51.1936617,
              -30.0273807
            ],
            [
              -51.1936525,
              -30.0274424
            ],
            [
              -51.1935201,
              -30.0274275
            ],
            [
              -51.1935387,
              -30.0273033
            ],
            [
              -51.1937022,
              -30.0273217
            ]
          ]
        ]
      }
    },
    {
      "type": "Feature",
      "id": "way/414429206",
      "properties": {
        "timestamp": "2022-12-19T15:06:00Z",
        "version": 7,
        "changeset": 130253264,
        "addr:city": "Porto Alegre",
        "addr:housenumber": "78",
        "addr:postcode": "90020-160",
        "addr:street": "Av. independencia",
        "addr:suburb": "Centro Histórico",
        "amenity": "doctors",
        "building": "commercial",
        "healthcare": "doctor",
        "healthcare:speciality": "physiatry",
        "layer": "1",
        "name": "Psicóloga Michele Silva Porto Alegre",
        "opening_hours": "Mo-Sa 08:00-20:00",
        "phone": "+55 51 99852-9087",
        "source": "CCPG/PMPA;local knowledge;streetlevel imagery",
        "website": "https://www.michelepsicologa.com/",
        "id": "way/414429206"
      },
      "geometry": {
        "type": "Polygon",
        "coordinates": [
          [
            [
              -51.2224169,
              -30.0295456
            ],
            [
              -51.2224447,
              -30.0291036
            ],
            [
              -51.222479,
              -30.0291052
            ],
            [
              -51.2225148,
              -30.0291069
            ],
            [
              -51.2225045,
              -30.0292721
            ],
            [
              -51.2225272,
              -30.0292812
            ],
            [
              -51.2225304,
              -30.02923
            ],
            [
              -51.2226092,
              -30.0292338
            ],
            [
              -51.2225973,
              -30.0294092
            ],
            [
              -51.2225144,
              -30.0294053
            ],
            [
              -51.2224944,
              -30.0294043
            ],
            [
              -51.2224851,
              -30.0295527
            ],
            [
              -51.2224167,
              -30.0295495
            ],
            [
              -51.2224169,
              -30.0295456
            ]
          ]
        ]
      }
    },
    {
      "type": "Feature",
      "id": "node/2399953310",
      "properties": {
        "timestamp": "2019-10-11T14:07:56Z",
        "version": 2,
        "changeset": 75569081,
        "amenity": "doctors",
        "healthcare": "doctor",
        "name": "Centro de Saúde Navegantes",
        "id": "node/2399953310"
      },
      "geometry": {
        "type": "Point",
        "coordinates": [
          -51.2000919,
          -30.0000024
        ]
      }
    },
    {
      "type": "Feature",
      "id": "node/2400021559",
      "properties": {
        "timestamp": "2021-10-15T14:51:21Z",
        "version": 2,
        "changeset": 112546361,
        "amenity": "doctors",
        "healthcare": "doctor",
        "name": "Serdil",
        "id": "node/2400021559"
      },
      "geometry": {
        "type": "Point",
        "coordinates": [
          -51.2065795,
          -30.0443033
        ]
      }
    },
    {
      "type": "Feature",
      "id": "node/2949644442",
      "properties": {
        "timestamp": "2023-11-01T23:16:24Z",
        "version": 4,
        "changeset": 143501507,
        "addr:door": "1203",
        "addr:housenumber": "163",
        "addr:postcode": "90550-110",
        "addr:street": "Avenida Augusto Meyer",
        "amenity": "doctors",
        "email": "clinica@goldman.com.br",
        "healthcare": "doctor",
        "name": "Clínica Goldman",
        "opening_hours": "Mo-Fr 08:00-19:00",
        "phone": "+55 51 3342-7722",
        "website": "https://www.goldman.com.br/",
        "wheelchair": "yes",
        "id": "node/2949644442"
      },
      "geometry": {
        "type": "Point",
        "coordinates": [
          -51.185369,
          -30.0214928
        ]
      }
    },
    {
      "type": "Feature",
      "id": "node/2974550853",
      "properties": {
        "timestamp": "2019-10-11T14:23:19Z",
        "version": 4,
        "changeset": 75570063,
        "addr:housename": "Sala 901",
        "addr:housenumber": "805",
        "addr:postcode": "90520-002",
        "addr:street": "Avenida Plínio Brasil Milano",
        "amenity": "doctors",
        "email": "lab@edelweiss.com.br",
        "healthcare": "doctor",
        "name": "Laboratório Edelweiss",
        "phone": "+55 51 3330-7030",
        "website": "https://www.edelweiss.com.br/",
        "id": "node/2974550853"
      },
      "geometry": {
        "type": "Point",
        "coordinates": [
          -51.1829778,
          -30.021732
        ]
      }
    },
    {
      "type": "Feature",
      "id": "node/4773383087",
      "properties": {
        "timestamp": "2024-04-12T15:44:37Z",
        "version": 3,
        "changeset": 149917315,
        "addr:housename": "Loja 2",
        "addr:housenumber": "2320",
        "addr:street": "Avenida Wenceslau Escobar",
        "amenity": "doctors",
        "healthcare": "doctor",
        "name": "Laboratório Unimed Zona Sul",
        "opening_hours": "Mo-Fr 07:00-19:00; Sa 07:00-12:00",
        "phone": "+55 51 2136-4100",
        "website": "https://www.unimedpoa.com.br/",
        "id": "node/4773383087"
      },
      "geometry": {
        "type": "Point",
        "coordinates": [
          -51.2536681,
          -30.108838
        ]
      }
    },
    {
      "type": "Feature",
      "id": "node/4783315436",
      "properties": {
        "timestamp": "2021-11-07T22:45:14Z",
        "version": 4,
        "changeset": 113498758,
        "addr:housenumber": "1040",
        "addr:street": "Avenida Getúlio Vargas",
        "amenity": "doctors",
        "email": "emagrecentro@emagrecentro.com.br",
        "healthcare": "doctor",
        "name": "Emagrecentro",
        "phone": "+55 51 3263-3837",
        "website": "https://emagrecentro.com.br/",
        "id": "node/4783315436"
      },
      "geometry": {
        "type": "Point",
        "coordinates": [
          -51.2221727,
          -30.0538536
        ]
      }
    },
    {
      "type": "Feature",
      "id": "node/4786546949",
      "properties": {
        "timestamp": "2021-05-14T10:13:15Z",
        "version": 3,
        "changeset": 104678589,
        "amenity": "doctors",
        "healthcare": "doctor",
        "healthcare:speciality": "paediatrics",
        "name": "Clínica de Atendimento Pediátrico",
        "phone": "+55 51 3331-1571",
        "source": "https://doctor.buscaly.com/br/perfil/clinica-de-atendimento-pediatrico-rua-santa-ceclia-rs-98121",
        "id": "node/4786546949"
      },
      "geometry": {
        "type": "Point",
        "coordinates": [
          -51.1982718,
          -30.0427978
        ]
      }
    },
    {
      "type": "Feature",
      "id": "node/5499000476",
      "properties": {
        "timestamp": "2024-07-09T17:06:42Z",
        "version": 12,
        "changeset": 153752908,
        "addr:city": "Porto Alegre",
        "addr:housenumber": "630 / 506",
        "addr:postcode": "90035-001",
        "addr:street": "Rua Ramiro Barcelos",
        "addr:suburb": "Moinhos de Vento",
        "amenity": "doctors",
        "check_date:currency:XBT": "2024-07-03",
        "currency:XBT": "yes",
        "description": "Clínica Ortopédica Ortopedista Especialista em Cirurgia do Pé e Tornozelo",
        "email": "clinicaecirurgiadope@gmail.com",
        "healthcare": "doctor",
        "healthcare:speciality": "orthopaedics",
        "level": "5º",
        "name": "Clínica e Cirurgia do Pé",
        "payment:cash": "yes",
        "payment:lightning": "yes",
        "payment:onchain": "yes",
        "phone": "+55 51 3737-2003",
        "website": "https://www.clinicaecirurgiadope.com.br/",
        "wheelchair": "yes",
        "id": "node/5499000476"
      },
      "geometry": {
        "type": "Point",
        "coordinates": [
          -51.2100677,
          -30.0242625
        ]
      }
    },
    {
      "type": "Feature",
      "id": "node/6241402065",
      "properties": {
        "timestamp": "2019-01-28T10:14:10Z",
        "version": 1,
        "changeset": 66700649,
        "addr:city": "Porto Alegre",
        "addr:housenumber": "705",
        "addr:postcode": "90040-193",
        "addr:street": "Avenida Venâncio Aires",
        "addr:suburb": "Santana",
        "amenity": "doctors",
        "description": "Serviço de saúde mental em Porto Alegre, Rio Grande do Su",
        "healthcare": "doctor",
        "healthcare:speciality": "psychiatry;physiotherapy",
        "name": "Clínica Pró-Ciências",
        "opening_hours": "Mo-Fr 08:00-17:00",
        "website": "https://pt-br.facebook.com/clinicaprociencias/",
        "id": "node/6241402065"
      },
      "geometry": {
        "type": "Point",
        "coordinates": [
          -51.2134188,
          -30.0396219
        ]
      }
    },
    {
      "type": "Feature",
      "id": "node/6241402067",
      "properties": {
        "timestamp": "2019-07-15T19:58:44Z",
        "version": 2,
        "changeset": 72279873,
        "addr:city": "Porto Alegre",
        "addr:housenumber": "215",
        "addr:postcode": "90040-320",
        "addr:street": "Rua Vieira de Castro",
        "addr:suburb": "Santana",
        "amenity": "doctors",
        "healthcare": "doctor",
        "name": "Clinica Médica",
        "phone": "+55 51 3333-2424",
        "id": "node/6241402067"
      },
      "geometry": {
        "type": "Point",
        "coordinates": [
          -51.2117236,
          -30.0396103
        ]
      }
    },
    {
      "type": "Feature",
      "id": "node/11089175599",
      "properties": {
        "timestamp": "2023-08-04T14:15:50Z",
        "version": 1,
        "changeset": 139444171,
        "addr:housenumber": "410",
        "addr:street": "Rua Pedro Ivo",
        "amenity": "doctors",
        "check_date": "2023-08-03",
        "check_date:currency:XBT": "2023-08-03",
        "contact:email": "patrickditzel@gmail.com",
        "currency:XBT": "yes",
        "healthcare": "doctor",
        "healthcare:speciality": "general",
        "name": "Consultório Dr. Patrick Ditzel",
        "operator": "Dr. Patrick Ditzel",
        "payment:lightning": "yes",
        "payment:lightning_contactless": "yes",
        "payment:onchain": "yes",
        "survey:date": "2023-08-03",
        "id": "node/11089175599"
      },
      "geometry": {
        "type": "Point",
        "coordinates": [
          -51.1904138,
          -30.029384
        ]
      }
    },
    {
      "type": "Feature",
      "id": "node/11817547220",
      "properties": {
        "timestamp": "2024-04-15T02:02:35Z",
        "version": 1,
        "changeset": 150015000,
        "addr:city": "Porto Alegre",
        "addr:housenumber": "6690",
        "addr:postcode": "90035-072",
        "addr:street": "Av. Ipiranga",
        "addr:suburb": "Jardim Botânico",
        "amenity": "doctors",
        "check_date": "2024-04-14",
        "currency:XBT": "yes",
        "healthcare": "doctor",
        "healthcare:speciality": "orthopaedics;trauma",
        "name": "Dr Luciano Urnauer - Cirurgia do Quadril",
        "opening_hours": "Mo-Fr 08:00-17:00",
        "payment:lightning": "yes",
        "payment:lightning_contactless": "yes",
        "payment:onchain": "yes",
        "phone": "+55 51 3320 5639",
        "website": "https://linktr.ee/lucianournauer?utm_source=linktree_profile_share&ltsid=bf1adec4-ca41-491d-ba85-036a73e84d9c",
        "id": "node/11817547220"
      },
      "geometry": {
        "type": "Point",
        "coordinates": [
          -51.1740211,
          -30.054554
        ]
      }
    }
  ]
}
