{
  "type": "FeatureCollection",
  "features": [
    {
      "type": "Feature",
      "id": "way/234505962",
      "properties": {
        "timestamp": "2018-01-22T17:17:10Z",
        "version": 4,
        "changeset": 55660973,
        "addr:housenumber": "230",
        "addr:postcode": "90020-000",
        "addr:street": "Rua dos Andradas",
        "building": "yes",
        "name": "Galeria de Arte do Museu do Trabalho",
        "tourism": "gallery",
        "id": "way/234505962"
      },
      "geometry": {
        "type": "Polygon",
        "coordinates": [
          [
            [
              -51.2394426,
              -30.0331551
            ],
            [
              -51.2392925,
              -30.0331066
            ],
            [
              -51.2393459,
              -30.0329806
            ],
            [
              -51.2393823,
              -30.0329921
            ],
            [
              -51.2394969,
              -30.0330288
            ],
            [
              -51.2394426,
              -30.0331551
            ]
          ]
        ]
      }
    },
    {
      "type": "Feature",
      "id": "node/4730563773",
      "properties": {
        "timestamp": "2017-03-12T14:27:35Z",
        "version": 1,
        "changeset": 46786175,
        "addr:housenumber": "2290",
        "addr:postcode": "91790-520",
        "addr:street": "Rua Tenente Arizoly Fagundes",
        "addr:unit": "1",
        "name": "Atelier de Costura Keli",
        "phone": "+55 51 3258-6646",
        "shop": "tailor",
        "tourism": "gallery",
        "id": "node/4730563773"
      },
      "geometry": {
        "type": "Point",
        "coordinates": [
          -51.1433565,
          -30.1540856
        ]
      }
    },
    {
      "type": "Feature",
      "id": "node/5349208131",
      "properties": {
        "timestamp": "2018-03-30T21:40:46Z",
        "version": 3,
        "changeset": 57674378,
        "addr:city": "Porto Alegre",
        "addr:street": "Rua Duque de Caxias",
        "addr:suburb": "Centro Histórico",
        "name": "Galeria de Arte Dimas",
        "phone": "+55 51 3225-7529",
        "tourism": "gallery",
        "id": "node/5349208131"
      },
      "geometry": {
        "type": "Point",
        "coordinates": [
          -51.2244783,
          -30.0322502
        ]
      }
    },
    {
      "type": "Feature",
      "id": "node/6237375123",
      "properties": {
        "timestamp": "2024-12-15T01:07:47Z",
        "version": 3,
        "changeset": 160296057,
        "addr:housenumber": "80",
        "addr:postcode": "90040-370",
        "addr:street": "Rua Vieira de Castro",
        "name": "Casa Musgo",
        "opening_hours": "Sa, Su 10:00-18:00; Tu-Fr 14:00-18:30",
        "phone": "+55 51 3279-4668",
        "tourism": "gallery",
        "id": "node/6237375123"
      },
      "geometry": {
        "type": "Point",
        "coordinates": [
          -51.2121533,
          -30.0385155
        ]
      }
    },
    {
      "type": "Feature",
      "id": "node/6237413395",
      "properties": {
        "timestamp": "2024-12-15T00:32:20Z",
        "version": 3,
        "changeset": 160295596,
        "addr:housenumber": "44",
        "addr:postcode": "90040-110",
        "addr:street": "Travessa da Paz",
        "description": "Moda, Arte e Gastronomia Lugar demais para curtir uma boa exposição, bons vinhos boas intervenções e pessoas interessante! Faixa de preço · $$",
        "name": "Via Trastevere",
        "opening_hours": "Sa 11:30-21:00; Tu-Fr 10:00-21:00; Su 09:00-21:00",
        "phone": "+55 51 99963-0807",
        "tourism": "gallery",
        "id": "node/6237413395"
      },
      "geometry": {
        "type": "Point",
        "coordinates": [
          -51.215352,
          -30.0398911
        ]
      }
    },
    {
      "type": "Feature",
      "id": "node/7230419858",
      "properties": {
        "timestamp": "2021-06-12T18:16:03Z",
        "version": 3,
        "changeset": 106262031,
        "addr:housenumber": "41",
        "addr:postcode": "90040-370",
        "addr:street": "Santana",
        "name": "Kersson Galeria e Atelier",
        "opening_hours": "Mo-Fr 09:15-18:30",
        "phone": "+55 51 3381-4954",
        "tourism": "gallery",
        "id": "node/7230419858"
      },
      "geometry": {
        "type": "Point",
        "coordinates": [
          -51.2143727,
          -30.0392828
        ]
      }
    },
    {
      "type": "Feature",
      "id": "node/11767578260",
      "properties": {
        "timestamp": "2024-03-28T00:01:29Z",
        "version": 1,
        "changeset": 149246791,
        "addr:city": "Porto Alegre",
        "addr:housenumber": "256",
        "addr:street": "Rua Comendador Azevedo",
        "addr:suburb": "Floresta",
        "name": "Museu de Arte Contemporânea do Rio Grande do Sul",
        "operator": "MAC-RS",
        "tourism": "gallery",
        "id": "node/11767578260"
      },
      "geometry": {
        "type": "Point",
        "coordinates": [
          -51.2113689,
          -30.0196804
        ]
      }
    }
  ]
}
