{
  "type": "FeatureCollection",
  "features": [
    {
      "type": "Feature",
      "id": "way/108660162",
      "properties": {
        "timestamp": "2021-03-10T10:56:25Z",
        "version": 12,
        "changeset": 100773077,
        "addr:housenumber": "1178",
        "addr:postcode": "90810-240",
        "addr:street": "Avenida Padre Cacique",
        "amenity": "nursing_home",
        "barrier": "fence",
        "email": "asilo@asilopadrecacique.com.br",
        "fence_type": "metal",
        "landuse": "recreation_ground",
        "name": "Asilo Padre Cacique",
        "old_name": "Asylo Padre Cacique",
        "opening_hours": "Mo-Fr 08:00-17:30",
        "operator": "Sociedade Humanitária Padre Cacique",
        "phone": "+55 51 3233-7571",
        "social_facility": "group_home",
        "social_facility:for": "senior",
        "start_date": "1881",
        "website": "http://www.asilopadrecacique.org.br",
        "id": "way/108660162"
      },
      "geometry": {
        "type": "Polygon",
        "coordinates": [
          [
            [
              -51.2365453,
              -30.0679843
            ],
            [
              -51.23712,
              -30.0685894
            ],
            [
              -51.2371785,
              -30.068651
            ],
            [
              -51.2371593,
              -30.0686933
            ],
            [
              -51.2366711,
              -30.0690239
            ],
            [
              -51.2363788,
              -30.0692289
            ],
            [
              -51.236069,
              -30.0689073
            ],
            [
              -51.2356481,
              -30.0684705
            ],
            [
              -51.2364357,
              -30.0679672
            ],
            [
              -51.2364632,
              -30.0679944
            ],
            [
              -51.2364896,
              -30.0680238
            ],
            [
              -51.2365453,
              -30.0679843
            ]
          ]
        ]
      }
    },
    {
      "type": "Feature",
      "id": "way/220006418",
      "properties": {
        "timestamp": "2023-10-27T23:17:43Z",
        "version": 8,
        "changeset": 143233604,
        "addr:housenumber": "600",
        "addr:postcode": "91720-000",
        "addr:street": "Avenida Nonoai",
        "amenity": "nursing_home",
        "capacity": "150",
        "email": "contato@spaan.org.br",
        "landuse": "recreation_ground",
        "name": "Spaan",
        "official_name": "Sociedade Porto-Alegrense de Auxílio aos Necessitados",
        "opening_hours": "Mo-Sa 14:00-17:00",
        "phone": "+55 51 3247-7400",
        "social_facility": "group_home",
        "social_facility:for": "senior",
        "start_date": "1931",
        "website": "https://spaan.org.br/",
        "id": "way/220006418"
      },
      "geometry": {
        "type": "Polygon",
        "coordinates": [
          [
            [
              -51.217533,
              -30.0888393
            ],
            [
              -51.2183865,
              -30.08973
            ],
            [
              -51.217767,
              -30.0904777
            ],
            [
              -51.2172654,
              -30.0899389
            ],
            [
              -51.2169421,
              -30.0895916
            ],
            [
              -51.217533,
              -30.0888393
            ]
          ]
        ]
      }
    },
    {
      "type": "Feature",
      "id": "way/229628454",
      "properties": {
        "timestamp": "2023-10-30T14:02:42Z",
        "version": 4,
        "changeset": 143368056,
        "addr:city": "Porto Alegre",
        "addr:housenumber": "286",
        "addr:street": "Avenida Bastian",
        "addr:suburb": "Menino Deus",
        "amenity": "nursing_home",
        "building": "yes",
        "email": "m.antonietta@terra.com.br",
        "name": "Maria Antonietta Residencial Geriátrico",
        "opening_hours": "24/7",
        "phone": "+55 51 3219-5664",
        "website": "https://www.mariaantonietta.com.br/",
        "wheelchair": "yes",
        "id": "way/229628454"
      },
      "geometry": {
        "type": "Polygon",
        "coordinates": [
          [
            [
              -51.2250956,
              -30.0504514
            ],
            [
              -51.2250237,
              -30.0504583
            ],
            [
              -51.2250052,
              -30.0503127
            ],
            [
              -51.2250771,
              -30.0503059
            ],
            [
              -51.2250956,
              -30.0504514
            ]
          ]
        ]
      }
    },
    {
      "type": "Feature",
      "id": "way/430081281",
      "properties": {
        "timestamp": "2016-07-09T18:35:02Z",
        "version": 1,
        "changeset": 40617187,
        "addr:housenumber": "1281",
        "addr:postcode": "91225-002",
        "addr:street": "Rua Tenente Ary Tarragô",
        "amenity": "nursing_home",
        "name": "Lar Dom Guanella",
        "id": "way/430081281"
      },
      "geometry": {
        "type": "Polygon",
        "coordinates": [
          [
            [
              -51.1331014,
              -30.0303606
            ],
            [
              -51.1329265,
              -30.0304915
            ],
            [
              -51.1328552,
              -30.0305233
            ],
            [
              -51.1327667,
              -30.0305513
            ],
            [
              -51.1317066,
              -30.0307139
            ],
            [
              -51.1314627,
              -30.0300036
            ],
            [
              -51.1325832,
              -30.0298242
            ],
            [
              -51.1327365,
              -30.029955
            ],
            [
              -51.1330431,
              -30.0302896
            ],
            [
              -51.1331014,
              -30.0303606
            ]
          ]
        ]
      }
    },
    {
      "type": "Feature",
      "id": "node/2275318226",
      "properties": {
        "timestamp": "2016-09-27T23:40:40Z",
        "version": 7,
        "changeset": 42482681,
        "addr:housenumber": "976",
        "addr:postcode": "91900-240",
        "addr:street": "Avenida Pereira Passos",
        "amenity": "nursing_home",
        "fixme": "Transformar em poligono.",
        "name": "Geriatria Santo Antônio",
        "phone": "+55 51 3268-6421",
        "id": "node/2275318226"
      },
      "geometry": {
        "type": "Point",
        "coordinates": [
          -51.2549007,
          -30.1028978
        ]
      }
    },
    {
      "type": "Feature",
      "id": "node/2291294609",
      "properties": {
        "timestamp": "2013-06-07T21:59:50Z",
        "version": 5,
        "changeset": 16462561,
        "entrance": "main",
        "id": "node/2291294609"
      },
      "geometry": {
        "type": "Point",
        "coordinates": [
          -51.2172654,
          -30.0899389
        ]
      }
    },
    {
      "type": "Feature",
      "id": "node/5244468121",
      "properties": {
        "timestamp": "2017-11-23T15:44:43Z",
        "version": 1,
        "changeset": 54029104,
        "amenity": "nursing_home",
        "id": "node/5244468121"
      },
      "geometry": {
        "type": "Point",
        "coordinates": [
          -51.1230718,
          -30.0012044
        ]
      }
    },
    {
      "type": "Feature",
      "id": "node/7077842085",
      "properties": {
        "timestamp": "2021-06-12T18:16:03Z",
        "version": 3,
        "changeset": 106262031,
        "addr:housenumber": "129",
        "addr:postcode": "90840-610",
        "addr:street": "Rua Caixa Econômica",
        "amenity": "nursing_home",
        "email": "jorgemoreira.hs@gmail.com",
        "name": "Jorge Moreira",
        "name:en": "Jorge Moreira cousurfing",
        "name:pt": "Jorge Moreira cousurfing",
        "phone": "+55 51 98117-9079",
        "id": "node/7077842085"
      },
      "geometry": {
        "type": "Point",
        "coordinates": [
          -51.2244489,
          -30.0707729
        ]
      }
    }
  ]
}
