{
  "type": "FeatureCollection",
  "features": [
    {
      "type": "Feature",
      "id": "way/188942519",
      "properties": {
        "timestamp": "2023-10-27T23:17:56Z",
        "version": 7,
        "changeset": 143233609,
        "addr:housenumber": "1140",
        "addr:postcode": "91910-001",
        "addr:street": "Avenida Otto Niemeyer",
        "amenity": "veterinary",
        "name": "Doutor de Bicho",
        "opening_hours": "24/7",
        "phone": "+55 51 3268-0128",
        "website": "https://www.doutordebicho.com.br/",
        "id": "way/188942519"
      },
      "geometry": {
        "type": "Polygon",
        "coordinates": [
          [
            [
              -51.2476527,
              -30.1075726
            ],
            [
              -51.2475789,
              -30.1075488
            ],
            [
              -51.2476503,
              -30.1073866
            ],
            [
              -51.2477228,
              -30.1074106
            ],
            [
              -51.2476527,
              -30.1075726
            ]
          ]
        ]
      }
    },
    {
      "type": "Feature",
      "id": "way/425030293",
      "properties": {
        "timestamp": "2024-06-24T21:49:46Z",
        "version": 2,
        "changeset": 153131626,
        "addr:housenumber": "354",
        "addr:street": "Rua Estácio de Sá",
        "amenity": "veterinary",
        "building": "house",
        "name": "Dolce Pet Care",
        "shop": "pet_grooming",
        "website": "https://dolcepetcare.com.br/",
        "id": "way/425030293"
      },
      "geometry": {
        "type": "Polygon",
        "coordinates": [
          [
            [
              -51.1615879,
              -30.0334199
            ],
            [
              -51.1615847,
              -30.0334309
            ],
            [
              -51.1616302,
              -30.03344
            ],
            [
              -51.1616286,
              -30.0334455
            ],
            [
              -51.1616779,
              -30.0334553
            ],
            [
              -51.1616645,
              -30.0335094
            ],
            [
              -51.1616461,
              -30.0335053
            ],
            [
              -51.1616383,
              -30.033533
            ],
            [
              -51.1615114,
              -30.0335069
            ],
            [
              -51.1614965,
              -30.0335038
            ],
            [
              -51.1615238,
              -30.033407
            ],
            [
              -51.1615879,
              -30.0334199
            ]
          ]
        ]
      }
    },
    {
      "type": "Feature",
      "id": "way/426031951",
      "properties": {
        "timestamp": "2023-10-27T23:17:06Z",
        "version": 4,
        "changeset": 143233590,
        "addr:housenumber": "10",
        "addr:street": "Rua Coronel Claudino",
        "amenity": "veterinary",
        "building": "yes",
        "email": "falecom@farmaciajockey.com.br",
        "name": "Farmácia Veterinária",
        "opening_hours": "Mo-Fr 08:00-19:00; Sa 08:00-17:30; Su 08:00-12:00",
        "phone": "+55 51 3249-8246",
        "website": "https://farmaciajockey.com.br/",
        "id": "way/426031951"
      },
      "geometry": {
        "type": "Polygon",
        "coordinates": [
          [
            [
              -51.2449447,
              -30.0935153
            ],
            [
              -51.2449048,
              -30.0935495
            ],
            [
              -51.2448511,
              -30.0935954
            ],
            [
              -51.2447017,
              -30.0934622
            ],
            [
              -51.2446928,
              -30.0934253
            ],
            [
              -51.2447787,
              -30.0933574
            ],
            [
              -51.2449447,
              -30.0935153
            ]
          ]
        ]
      }
    },
    {
      "type": "Feature",
      "id": "way/428300388",
      "properties": {
        "timestamp": "2018-07-09T17:18:55Z",
        "version": 2,
        "changeset": 60547472,
        "addr:city": "Porto Alegre",
        "addr:housenumber": "1480",
        "addr:street": "Avenida Manoel Elias",
        "addr:suburb": "Mario Quintana",
        "amenity": "veterinary",
        "building": "yes",
        "name": "Hospital Veterinário Uniritter",
        "id": "way/428300388"
      },
      "geometry": {
        "type": "Polygon",
        "coordinates": [
          [
            [
              -51.1198328,
              -30.0274136
            ],
            [
              -51.1198788,
              -30.0274144
            ],
            [
              -51.1200192,
              -30.0274169
            ],
            [
              -51.120013,
              -30.0276858
            ],
            [
              -51.1200127,
              -30.0276966
            ],
            [
              -51.1194316,
              -30.0276864
            ],
            [
              -51.119431,
              -30.0276863
            ],
            [
              -51.1194375,
              -30.0274067
            ],
            [
              -51.1195536,
              -30.0274087
            ],
            [
              -51.1198328,
              -30.0274136
            ]
          ]
        ]
      }
    },
    {
      "type": "Feature",
      "id": "node/1786938800",
      "properties": {
        "timestamp": "2013-06-07T20:18:31Z",
        "version": 5,
        "changeset": 16461839,
        "amenity": "veterinary",
        "id": "node/1786938800"
      },
      "geometry": {
        "type": "Point",
        "coordinates": [
          -51.1900117,
          -30.024916
        ]
      }
    },
    {
      "type": "Feature",
      "id": "node/1786938805",
      "properties": {
        "timestamp": "2013-06-07T20:18:31Z",
        "version": 5,
        "changeset": 16461839,
        "amenity": "veterinary",
        "id": "node/1786938805"
      },
      "geometry": {
        "type": "Point",
        "coordinates": [
          -51.190709,
          -30.0226889
        ]
      }
    },
    {
      "type": "Feature",
      "id": "node/2280097345",
      "properties": {
        "timestamp": "2016-09-27T23:40:48Z",
        "version": 6,
        "changeset": 42482681,
        "addr:housename": "Loja 5",
        "addr:housenumber": "1135",
        "addr:postcode": "91900-240",
        "addr:street": "Avenida Pereira Passos",
        "amenity": "veterinary",
        "name": "Vida Animal",
        "phone": "+55 51 3026-2415",
        "id": "node/2280097345"
      },
      "geometry": {
        "type": "Point",
        "coordinates": [
          -51.2533948,
          -30.1037131
        ]
      }
    },
    {
      "type": "Feature",
      "id": "node/2295199082",
      "properties": {
        "timestamp": "2019-03-22T02:06:44Z",
        "version": 8,
        "changeset": 68394115,
        "addr:housenumber": "1214",
        "addr:postcode": "90160-180",
        "addr:street": "Avenida Érico Veríssimo",
        "amenity": "veterinary",
        "name": "A Terra dos Bichos",
        "source": "Survey",
        "website": "https://www.aterradosbichos.com.br/",
        "id": "node/2295199082"
      },
      "geometry": {
        "type": "Point",
        "coordinates": [
          -51.2179925,
          -30.0559349
        ]
      }
    },
    {
      "type": "Feature",
      "id": "node/2400808479",
      "properties": {
        "timestamp": "2013-07-29T19:51:08Z",
        "version": 1,
        "changeset": 17143966,
        "amenity": "veterinary",
        "id": "node/2400808479"
      },
      "geometry": {
        "type": "Point",
        "coordinates": [
          -51.2151909,
          -30.1145635
        ]
      }
    },
    {
      "type": "Feature",
      "id": "node/3733833053",
      "properties": {
        "timestamp": "2017-02-20T13:45:53Z",
        "version": 5,
        "changeset": 46244512,
        "addr:housenumber": "7163",
        "addr:postcode": "91310-003",
        "addr:street": "Avenida Protásio Alves",
        "addr:suburb": "Protásio Alves",
        "amenity": "veterinary",
        "name": "Visual Pet Clínica",
        "wheelchair": "yes",
        "id": "node/3733833053"
      },
      "geometry": {
        "type": "Point",
        "coordinates": [
          -51.1416762,
          -30.0445132
        ]
      }
    },
    {
      "type": "Feature",
      "id": "node/4288369991",
      "properties": {
        "timestamp": "2016-10-05T13:33:17Z",
        "version": 3,
        "changeset": 42657804,
        "addr:housenumber": "335",
        "addr:street": "Avenida João XXIII",
        "amenity": "veterinary",
        "name": "Point Animal",
        "phone": "+55 51 3013-7944",
        "id": "node/4288369991"
      },
      "geometry": {
        "type": "Point",
        "coordinates": [
          -51.145183,
          -30.0072096
        ]
      }
    },
    {
      "type": "Feature",
      "id": "node/4288369992",
      "properties": {
        "timestamp": "2016-10-05T13:33:09Z",
        "version": 3,
        "changeset": 42657804,
        "addr:street": "Avenida João XXIII",
        "amenity": "veterinary",
        "name": "Centro Clínico Cirúrgico Veterinário",
        "opening_hours": "24/7",
        "phone": "+55 51 3348-3700",
        "id": "node/4288369992"
      },
      "geometry": {
        "type": "Point",
        "coordinates": [
          -51.1456968,
          -30.0072753
        ]
      }
    },
    {
      "type": "Feature",
      "id": "node/4431802053",
      "properties": {
        "timestamp": "2016-10-05T00:03:36Z",
        "version": 1,
        "changeset": 42645276,
        "amenity": "veterinary",
        "name": "Hospital de Clínicas Veterinária do Rio Grande do Sul",
        "id": "node/4431802053"
      },
      "geometry": {
        "type": "Point",
        "coordinates": [
          -51.1574607,
          -30.0417523
        ]
      }
    },
    {
      "type": "Feature",
      "id": "node/6238668255",
      "properties": {
        "timestamp": "2019-07-15T19:58:44Z",
        "version": 2,
        "changeset": 72279873,
        "addr:street": "Av. Venâncio Aires, 711 - Cidade Baixa, Porto Alegre - RS, 90040-193",
        "amenity": "veterinary",
        "name": "Mondo Pet",
        "opening_hours": "Mo-Sa 09:00-18:00",
        "phone": "+55 51 3276-7006",
        "id": "node/6238668255"
      },
      "geometry": {
        "type": "Point",
        "coordinates": [
          -51.213356,
          -30.0395584
        ]
      }
    },
    {
      "type": "Feature",
      "id": "node/6239419447",
      "properties": {
        "timestamp": "2019-07-15T19:58:44Z",
        "version": 2,
        "changeset": 72279873,
        "amenity": "veterinary",
        "name": "Vet Farma",
        "opening_hours": "Mo-Fr 09:00-19:30",
        "phone": "+55 51 3012-5690",
        "id": "node/6239419447"
      },
      "geometry": {
        "type": "Point",
        "coordinates": [
          -51.2128677,
          -30.0413342
        ]
      }
    },
    {
      "type": "Feature",
      "id": "node/6239438097",
      "properties": {
        "timestamp": "2019-07-15T19:58:44Z",
        "version": 2,
        "changeset": 72279873,
        "addr:street": "Rua Fernandes Vieira, 639 - Bom Fim, Porto Alegre - RS, 90035-091",
        "amenity": "veterinary",
        "name": "Águia Veterinária",
        "opening_hours": "Mo-Sa 08:00-21:00; Su 08:00-20:00",
        "phone": "+55 51 3311-4606",
        "id": "node/6239438097"
      },
      "geometry": {
        "type": "Point",
        "coordinates": [
          -51.2111206,
          -30.0352936
        ]
      }
    },
    {
      "type": "Feature",
      "id": "node/6567804385",
      "properties": {
        "timestamp": "2019-06-24T13:07:29Z",
        "version": 1,
        "changeset": 71560899,
        "amenity": "veterinary",
        "name": "Vet Tomoclinica",
        "id": "node/6567804385"
      },
      "geometry": {
        "type": "Point",
        "coordinates": [
          -51.2110525,
          -30.0799637
        ]
      }
    },
    {
      "type": "Feature",
      "id": "node/7230096282",
      "properties": {
        "timestamp": "2020-03-04T17:12:07Z",
        "version": 2,
        "changeset": 81785615,
        "addr:housenumber": "386",
        "addr:street": "R. Jacinto Gomes, 386 - Santana, Porto Alegre - RS, 90040-270",
        "amenity": "veterinary",
        "name": "Lullu Pet Shop",
        "opening_hours": "We-Fr 09:00-18:30; Sa 09:00-17:00; Mo 09:00-13:00",
        "phone": "+55 51 98514-5631",
        "id": "node/7230096282"
      },
      "geometry": {
        "type": "Point",
        "coordinates": [
          -51.2090263,
          -30.0409298
        ]
      }
    }
  ]
}
