{
  "type": "FeatureCollection",
  "features": [
    {
      "type": "Feature",
      "id": "way/1327243798",
      "properties": {
        "timestamp": "2024-10-22T13:40:14Z",
        "version": 1,
        "changeset": 158212479,
        "addr:city": "Itapebi",
        "addr:postcode": "45855-000",
        "addr:state": "Bahia",
        "addr:street": "Praça Dois de Julho",
        "addr:suburb": "Cidade Baixa de Itapebi",
        "amenity": "clinic",
        "building": "yes",
        "building:levels": "1",
        "healthcare": "clinic",
        "name": "Posto de Saúde Joathan Cardoso Ribeiro",
        "operator": "Município de Itapebi",
        "source": "microsoft/BuildingFootprints",
        "id": "way/1327243798"
      },
      "geometry": {
        "type": "Polygon",
        "coordinates": [
          [
            [
              -39.5247364,
              -15.9515457
            ],
            [
              -39.5245685,
              -15.9514865
            ],
            [
              -39.5246037,
              -15.9513944
            ],
            [
              -39.5247715,
              -15.9514535
            ],
            [
              -39.5247364,
              -15.9515457
            ]
          ]
        ]
      }
    },
    {
      "type": "Feature",
      "id": "node/12259354700",
      "properties": {
        "timestamp": "2024-10-19T12:48:48Z",
        "version": 2,
        "changeset": 158089294,
        "addr:city": "Itapebi",
        "addr:postcode": "45",
        "addr:street": "Rua Valfrides Santana Silva",
        "addr:suburb": "Centro",
        "amenity": "clinic",
        "healthcare": "clinic",
        "name": "Unidade Básica de Saúde Alípio Rodrigues Mota",
        "operator": "Município de Itapebi",
        "id": "node/12259354700"
      },
      "geometry": {
        "type": "Point",
        "coordinates": [
          -39.5352137,
          -15.970102
        ]
      }
    }
  ]
}
