{
  "type": "FeatureCollection",
  "features": [
    {
      "type": "Feature",
      "id": "way/1323823854",
      "properties": {
        "timestamp": "2024-10-14T10:28:41Z",
        "version": 1,
        "changeset": 157869844,
        "addr:city": "Itapebi",
        "addr:postcode": "45855-000",
        "addr:street": "Rua Sete de Setembro",
        "addr:suburb": "Centro",
        "amenity": "school",
        "name": "Escola Municipal Esmeraldo Costa Santos",
        "operator": "Município de Itapebi",
        "operator:type": "public",
        "id": "way/1323823854"
      },
      "geometry": {
        "type": "Polygon",
        "coordinates": [
          [
            [
              -39.8964327,
              -15.9084654
            ],
            [
              -39.8963887,
              -15.9087842
            ],
            [
              -39.8962235,
              -15.9087688
            ],
            [
              -39.8962042,
              -15.9089246
            ],
            [
              -39.8959027,
              -15.9089019
            ],
            [
              -39.8959746,
              -15.9085624
            ],
            [
              -39.8959027,
              -15.9085562
            ],
            [
              -39.8959274,
              -15.9084056
            ],
            [
              -39.8964327,
              -15.9084654
            ]
          ]
        ]
      }
    },
    {
      "type": "Feature",
      "id": "node/11257363602",
      "properties": {
        "timestamp": "2023-10-12T11:24:08Z",
        "version": 1,
        "changeset": 142474940,
        "addr:city": "Itapebi",
        "addr:postcode": "45855-000",
        "addr:street": "Rua do Colégio",
        "addr:suburb": "Ventania",
        "amenity": "school",
        "name": "Grupo Escolar Juarez Cardoso de Souza",
        "operator": "Município de Itapebi",
        "operator:type": "public",
        "id": "node/11257363602"
      },
      "geometry": {
        "type": "Point",
        "coordinates": [
          -39.559881,
          -15.9074958
        ]
      }
    },
    {
      "type": "Feature",
      "id": "node/11273354595",
      "properties": {
        "timestamp": "2023-10-18T23:57:20Z",
        "version": 1,
        "changeset": 142787399,
        "addr:city": "Itapebi",
        "addr:housenumber": "316",
        "addr:postcode": "45855-000",
        "addr:street": "Avenida Vicente Barreira",
        "addr:suburb": "Centro",
        "amenity": "school",
        "name": "Escola Municipal Doutor Antônio Carlos Magalhães",
        "operator": "Município de Itapebi",
        "operator:type": "public",
        "phone": "+55 73 3286 2121",
        "id": "node/11273354595"
      },
      "geometry": {
        "type": "Point",
        "coordinates": [
          -39.5312497,
          -15.9672625
        ]
      }
    },
    {
      "type": "Feature",
      "id": "node/11273354596",
      "properties": {
        "timestamp": "2023-10-18T23:57:20Z",
        "version": 1,
        "changeset": 142787399,
        "addr:city": "Itapebi",
        "addr:housenumber": "434",
        "addr:postcode": "45855-000",
        "addr:street": "Avenida Vicente Barreira",
        "addr:suburb": "Centro",
        "amenity": "school",
        "name": "Escola Estadual Clovia Adolpho Stolze",
        "operator": "Governo da Bahia",
        "operator:type": "public",
        "phone": "+55 73 3286 1880",
        "id": "node/11273354596"
      },
      "geometry": {
        "type": "Point",
        "coordinates": [
          -39.5319449,
          -15.9686005
        ]
      }
    },
    {
      "type": "Feature",
      "id": "node/11273354598",
      "properties": {
        "timestamp": "2023-10-18T23:57:20Z",
        "version": 1,
        "changeset": 142787399,
        "addr:city": "Itapebi",
        "addr:postcode": "45855-000",
        "addr:street": "Avenida Vicente Barreira",
        "addr:suburb": "Centro",
        "amenity": "school",
        "name": "Centro Educacional Professora Eloina Moraes Porto",
        "operator": "Município de Itapebi",
        "operator:type": "public",
        "id": "node/11273354598"
      },
      "geometry": {
        "type": "Point",
        "coordinates": [
          -39.5308846,
          -15.9665816
        ]
      }
    }
  ]
}
