{
  "type": "FeatureCollection",
  "features": [
    {
      "type": "Feature",
      "id": "way/544787087",
      "properties": {
        "timestamp": "2023-09-02T16:12:50Z",
        "version": 4,
        "changeset": 140726730,
        "addr:city": "Santa Rosa de Viterbo",
        "addr:housenumber": "195",
        "addr:postcode": "14270-000",
        "addr:street": "Rua Mario Carneiro da Cunha",
        "addr:suburb": "Jardim Gurilândia",
        "amenity": "clinic",
        "building": "yes",
        "healthcare": "clinic",
        "healthcare:speciality": "general;paediatrics;geriatrics",
        "name": "UBS do Povo de Santa Rosa de Viterbo",
        "opening_hours": "Mo-Fr 07:00-17:00",
        "operator": "Prefeitura Municipal de Santa Rosa de Viterbo",
        "operator:ref:vatin": "BR45368545000193",
        "operator:type": "public",
        "phone": "+55 16 3954-8890",
        "ref:CNES": "5192870",
        "id": "way/544787087"
      },
      "geometry": {
        "type": "Polygon",
        "coordinates": [
          [
            [
              -47.3622311,
              -21.4853122
            ],
            [
              -47.3620647,
              -21.4856104
            ],
            [
              -47.3618203,
              -21.4854983
            ],
            [
              -47.3618842,
              -21.4853896
            ],
            [
              -47.3619907,
              -21.4851875
            ],
            [
              -47.3622311,
              -21.4853122
            ]
          ]
        ]
      }
    },
    {
      "type": "Feature",
      "id": "way/545242497",
      "properties": {
        "timestamp": "2019-08-18T20:45:50Z",
        "version": 3,
        "changeset": 73473368,
        "addr:city": "Santa Rosa de Viterbo",
        "addr:housenumber": "492",
        "addr:postcode": "14270-000",
        "addr:street": "Rua Conselheiro Rodrigues Alves",
        "addr:suburb": "Centro",
        "amenity": "clinic",
        "building": "yes",
        "healthcare": "clinic",
        "healthcare:speciality": "general",
        "name": "Centro de Saúde Dr. Renato Palma Rocha",
        "operator": "Prefeitura de Santa Rosa de Viterbo",
        "operator:type": "public",
        "phone": "+55 16 3954-8795",
        "id": "way/545242497"
      },
      "geometry": {
        "type": "Polygon",
        "coordinates": [
          [
            [
              -47.3612087,
              -21.4760514
            ],
            [
              -47.3611317,
              -21.4762521
            ],
            [
              -47.360876,
              -21.4761747
            ],
            [
              -47.3609684,
              -21.4759682
            ],
            [
              -47.3610539,
              -21.4759978
            ],
            [
              -47.3612087,
              -21.4760514
            ]
          ]
        ]
      }
    },
    {
      "type": "Feature",
      "id": "way/545253759",
      "properties": {
        "timestamp": "2023-09-02T16:12:50Z",
        "version": 4,
        "changeset": 140726730,
        "addr:city": "Santa Rosa de Viterbo",
        "addr:housenumber": "405",
        "addr:postcode": "14270-000",
        "addr:street": "Avenida Professor José Dilermando Ribeiro",
        "addr:suburb": "Luiz Gonzaga",
        "amenity": "clinic",
        "building": "yes",
        "emergency": "no",
        "healthcare": "clinic",
        "healthcare:speciality": "general",
        "name": "Ambulatório Municipal Paulo Ricci (Cohab)",
        "operator": "Prefeitura Municipal de Santa Rosa de Viterbo",
        "operator:ref:vatin": "BR45368545000193",
        "operator:type": "public",
        "phone": "+55 16 3954-8870",
        "ref:CNES": "2746247",
        "id": "way/545253759"
      },
      "geometry": {
        "type": "Polygon",
        "coordinates": [
          [
            [
              -47.3715524,
              -21.4756404
            ],
            [
              -47.3714216,
              -21.47561
            ],
            [
              -47.3714917,
              -21.4753927
            ],
            [
              -47.3714143,
              -21.4753722
            ],
            [
              -47.371445,
              -21.4752754
            ],
            [
              -47.3715757,
              -21.4753101
            ],
            [
              -47.371557,
              -21.475384
            ],
            [
              -47.3716084,
              -21.4754014
            ],
            [
              -47.3715524,
              -21.4756404
            ]
          ]
        ]
      }
    },
    {
      "type": "Feature",
      "id": "way/707513585",
      "properties": {
        "timestamp": "2023-09-02T16:12:50Z",
        "version": 3,
        "changeset": 140726730,
        "addr:city": "Santa Rosa de Viterbo",
        "addr:housenumber": "6",
        "addr:postcode": "14270-000",
        "addr:street": "Rua Manoel Caetano Silva",
        "addr:suburb": "Conjunto Habitacional Liliana Urtiaga Andreazza",
        "amenity": "clinic",
        "building": "yes",
        "emergency": "no",
        "healthcare": "clinic",
        "healthcare:speciality": "general",
        "name": "Ambulatório Municipal Paschoal Cagliari",
        "operator:ref:vatin": "BR45368545000193",
        "phone": "+55 16 3954-8860",
        "ref:CNES": "2746239",
        "id": "way/707513585"
      },
      "geometry": {
        "type": "Polygon",
        "coordinates": [
          [
            [
              -47.3867851,
              -21.4949615
            ],
            [
              -47.3865283,
              -21.49527
            ],
            [
              -47.386319,
              -21.4951089
            ],
            [
              -47.3865731,
              -21.49481
            ],
            [
              -47.3867851,
              -21.4949615
            ]
          ]
        ]
      }
    },
    {
      "type": "Feature",
      "id": "way/715172257",
      "properties": {
        "timestamp": "2019-08-18T20:45:50Z",
        "version": 1,
        "changeset": 73473368,
        "addr:city": "Santa Rosa de Viterbo",
        "addr:housenumber": "582",
        "addr:postcode": "14270-000",
        "addr:street": "Rua Doutor Henrique Dumont",
        "addr:suburb": "Centro",
        "amenity": "clinic",
        "building": "yes",
        "healthcare": "clinic",
        "name": "Unidade De Pronto Atendimento Dr Francisco Garcia Duarte",
        "operator": "Prefeitura de Santa rosa de Viterbo",
        "operator:type": "public",
        "phone": "+55 16 3954-1448",
        "id": "way/715172257"
      },
      "geometry": {
        "type": "Polygon",
        "coordinates": [
          [
            [
              -47.3643112,
              -21.4754228
            ],
            [
              -47.3643536,
              -21.4755381
            ],
            [
              -47.3641738,
              -21.4756113
            ],
            [
              -47.3641183,
              -21.4754772
            ],
            [
              -47.3643112,
              -21.4754228
            ]
          ]
        ]
      }
    }
  ]
}
