{
  "type": "FeatureCollection",
  "features": [
    {
      "type": "Feature",
      "id": "way/544674304",
      "properties": {
        "timestamp": "2019-07-29T02:33:35Z",
        "version": 5,
        "changeset": 72750973,
        "addr:city": "Santa Rosa de Viterbo",
        "addr:housenumber": "365",
        "addr:postcode": "14270000",
        "addr:street": "Rua Albina Pedreschi",
        "addr:suburb": "Luiz Gonzaga",
        "amenity": "college",
        "internet_access": "wired",
        "name": "ETEC de Santa Rosa de Viterbo",
        "operator": "Centro Paula Souza",
        "operator:type": "public",
        "phone": "+55 16 3954-4116",
        "website": "https://etecsantarosa.websiteseguro.com",
        "id": "way/544674304"
      },
      "geometry": {
        "type": "Polygon",
        "coordinates": [
          [
            [
              -47.3696477,
              -21.4782801
            ],
            [
              -47.3695402,
              -21.4786801
            ],
            [
              -47.3694768,
              -21.4787178
            ],
            [
              -47.3685306,
              -21.4784867
            ],
            [
              -47.3684883,
              -21.4784014
            ],
            [
              -47.3686639,
              -21.4777236
            ],
            [
              -47.3686803,
              -21.4776603
            ],
            [
              -47.3689623,
              -21.4777324
            ],
            [
              -47.3688883,
              -21.4780964
            ],
            [
              -47.3696477,
              -21.4782801
            ]
          ]
        ]
      }
    }
  ]
}
