{
  "type": "FeatureCollection",
  "features": [
    {
      "type": "Feature",
      "id": "way/544678197",
      "properties": {
        "timestamp": "2020-03-15T07:49:48Z",
        "version": 4,
        "changeset": 82210250,
        "addr:city": "Santa Rosa de Viterbo",
        "addr:housenumber": "168",
        "addr:postcode": "14270-000",
        "addr:street": "Rua Agostinho Tavares Pereira",
        "addr:suburb": "Conjunto Habitacional Liliana Urtiaga Andreazza",
        "amenity": "community_centre",
        "building": "yes",
        "description": "Projeto Recriança",
        "name": "CMEC João Cândido Dos Reis",
        "operator": "Prefeitura Municipal de Santa Rosa de Viverbo",
        "phone": "+55 16 3954-2756",
        "website": "http://www.santarosa.sp.gov.br/novosite/centro-comunitario-joao-candido-dos-reis",
        "id": "way/544678197"
      },
      "geometry": {
        "type": "Polygon",
        "coordinates": [
          [
            [
              -47.3836072,
              -21.4933732
            ],
            [
              -47.3834138,
              -21.4935924
            ],
            [
              -47.3828829,
              -21.4931867
            ],
            [
              -47.3830727,
              -21.4929545
            ],
            [
              -47.3836072,
              -21.4933732
            ]
          ]
        ]
      }
    },
    {
      "type": "Feature",
      "id": "way/548562641",
      "properties": {
        "timestamp": "2017-12-22T14:45:03Z",
        "version": 2,
        "changeset": 54842972,
        "addr:city": "Santa Rosa de Viterbo",
        "addr:postcode": "14270-000",
        "addr:suburb": "Nhumirim",
        "amenity": "community_centre",
        "building": "yes",
        "name": "Associação Amigos do Bairro de Nhumirim",
        "id": "way/548562641"
      },
      "geometry": {
        "type": "Polygon",
        "coordinates": [
          [
            [
              -47.3673715,
              -21.5255379
            ],
            [
              -47.3673969,
              -21.5256486
            ],
            [
              -47.3672668,
              -21.5256911
            ],
            [
              -47.3672242,
              -21.525589
            ],
            [
              -47.3672851,
              -21.525572
            ],
            [
              -47.3672801,
              -21.5255427
            ],
            [
              -47.3673512,
              -21.5255256
            ],
            [
              -47.3673715,
              -21.5255379
            ]
          ]
        ]
      }
    },
    {
      "type": "Feature",
      "id": "way/713743899",
      "properties": {
        "timestamp": "2019-08-14T17:52:42Z",
        "version": 1,
        "changeset": 73359876,
        "addr:housenumber": "68",
        "addr:street": "Rua Alagoas",
        "amenity": "community_centre",
        "building": "yes",
        "name": "APAE (Associação de Pais e Amigos dos Excepcionais)",
        "phone": "+55 16 3954-3070",
        "website": "http://www.apaesantarosadeviterbo.org.br",
        "id": "way/713743899"
      },
      "geometry": {
        "type": "Polygon",
        "coordinates": [
          [
            [
              -47.3660304,
              -21.4869725
            ],
            [
              -47.3657971,
              -21.4867004
            ],
            [
              -47.3659661,
              -21.4865632
            ],
            [
              -47.3661994,
              -21.4868527
            ],
            [
              -47.3660304,
              -21.4869725
            ]
          ]
        ]
      }
    },
    {
      "type": "Feature",
      "id": "way/713811553",
      "properties": {
        "timestamp": "2019-08-14T23:10:33Z",
        "version": 1,
        "changeset": 73367094,
        "addr:city": "Santa Rosa de Viterbo",
        "addr:housenumber": "3",
        "addr:postcode": "14270000",
        "addr:street": "Rua João Pereira",
        "addr:suburb": "Jardim Boa Vista",
        "amenity": "community_centre",
        "building": "yes",
        "name": "AIDESA (Associação de Integração dos Deficientes de Santa Rosa de  Viterbo)",
        "phone": "+55 16 3954-2016",
        "website": "https://www.facebook.com/people/Aidesa-Santa-Rosa-de-Viterbo/100008359450107",
        "id": "way/713811553"
      },
      "geometry": {
        "type": "Polygon",
        "coordinates": [
          [
            [
              -47.3703721,
              -21.482062
            ],
            [
              -47.3704636,
              -21.4821661
            ],
            [
              -47.3701505,
              -21.4824063
            ],
            [
              -47.370055,
              -21.4823004
            ],
            [
              -47.3703721,
              -21.482062
            ]
          ]
        ]
      }
    },
    {
      "type": "Feature",
      "id": "way/713811554",
      "properties": {
        "timestamp": "2019-08-14T23:10:33Z",
        "version": 1,
        "changeset": 73367094,
        "addr:city": "Santa Rosa de Viterbo",
        "addr:housenumber": "332",
        "addr:postcode": "14270-000",
        "addr:street": "Rua Goiás",
        "addr:suburb": "Jardim Gurilândia",
        "amenity": "community_centre",
        "building": "yes",
        "name": "ACI (Associação Comercial e Industrial) e SPC (Serviço de Proteção ao Crédito)",
        "phone": "+55 163954-5203 3954-2260",
        "website": "https://www.acisantarosa.com.br",
        "id": "way/713811554"
      },
      "geometry": {
        "type": "Polygon",
        "coordinates": [
          [
            [
              -47.3624389,
              -21.4846283
            ],
            [
              -47.3625167,
              -21.4847172
            ],
            [
              -47.3624548,
              -21.4847699
            ],
            [
              -47.3623752,
              -21.4846761
            ],
            [
              -47.3624389,
              -21.4846283
            ]
          ]
        ]
      }
    }
  ]
}
