{
  "type": "FeatureCollection",
  "features": [
    {
      "type": "Feature",
      "id": "way/544798385",
      "properties": {
        "timestamp": "2020-03-24T00:17:13Z",
        "version": 6,
        "changeset": 82544228,
        "addr:city": "Santa Rosa de Viterbo",
        "addr:housenumber": "100",
        "addr:postcode": "14270-000",
        "addr:street": "Avenida S찾o Paulo",
        "addr:suburb": "Vila Barros",
        "building": "yes",
        "building:levels": "1",
        "government": "administrative",
        "name": "Detran Santa Rosa de Viterbo",
        "office": "government",
        "website": "https://www.saopaulo.sp.gov.br/spnoticias/santa-rosa-de-viterbo-ganha-unidade-do-detran-sp-em-novo-padrao/",
        "id": "way/544798385"
      },
      "geometry": {
        "type": "Polygon",
        "coordinates": [
          [
            [
              -47.3571218,
              -21.4830073
            ],
            [
              -47.3570544,
              -21.4831493
            ],
            [
              -47.3568486,
              -21.4830651
            ],
            [
              -47.3569266,
              -21.4829248
            ],
            [
              -47.3571218,
              -21.4830073
            ]
          ]
        ]
      }
    },
    {
      "type": "Feature",
      "id": "way/715172248",
      "properties": {
        "timestamp": "2019-08-18T20:45:50Z",
        "version": 1,
        "changeset": 73473368,
        "addr:city": "Santa Rosa de Viterbo",
        "addr:housenumber": "151",
        "addr:postcode": "14270-000",
        "addr:street": "Rua Professor Solano Ferreira",
        "addr:suburb": "Centro",
        "building": "yes",
        "government": "register_office",
        "name": "Oficial de Registro Civil das Pessoas Naturais de Interdicoes",
        "office": "government",
        "phone": "+55 16 3954-3801",
        "id": "way/715172248"
      },
      "geometry": {
        "type": "Polygon",
        "coordinates": [
          [
            [
              -47.363406,
              -21.4803034
            ],
            [
              -47.3634414,
              -21.480417
            ],
            [
              -47.36321,
              -21.4803697
            ],
            [
              -47.3632403,
              -21.480266
            ],
            [
              -47.363406,
              -21.4803034
            ]
          ]
        ]
      }
    },
    {
      "type": "Feature",
      "id": "way/715172249",
      "properties": {
        "timestamp": "2019-08-18T20:45:50Z",
        "version": 1,
        "changeset": 73473368,
        "addr:city": "Santa Rosa de Viterbo",
        "addr:housenumber": "96",
        "addr:postcode": "14270-000",
        "addr:street": "Rua Professor Solano Ferreira",
        "addr:suburb": "Centro",
        "building": "yes",
        "government": "register_office",
        "name": "Cart처rio de Registro de Im처veis",
        "office": "government",
        "phone": "+55 16 3954-1888",
        "id": "way/715172249"
      },
      "geometry": {
        "type": "Polygon",
        "coordinates": [
          [
            [
              -47.3635823,
              -21.4797649
            ],
            [
              -47.363598,
              -21.4798168
            ],
            [
              -47.3634065,
              -21.4798689
            ],
            [
              -47.3633849,
              -21.4798088
            ],
            [
              -47.3635823,
              -21.4797649
            ]
          ]
        ]
      }
    },
    {
      "type": "Feature",
      "id": "way/715172254",
      "properties": {
        "timestamp": "2019-08-18T20:45:50Z",
        "version": 1,
        "changeset": 73473368,
        "addr:city": "Santa Rosa de Viterbo",
        "addr:housenumber": "1",
        "addr:postcode": "14270-000",
        "addr:street": "Avenida Presidente Vargas",
        "addr:suburb": "Jardim Boa Vista",
        "building": "yes",
        "government": "administrative",
        "name": "Casa da Agricultura e Abastecimento",
        "office": "government",
        "operator": "Secretaria de Agricultura e Abastecimento do Estado de S찾o Paulo",
        "phone": "+55 16 3954-1698",
        "id": "way/715172254"
      },
      "geometry": {
        "type": "Polygon",
        "coordinates": [
          [
            [
              -47.3625928,
              -21.4823092
            ],
            [
              -47.3627516,
              -21.4824874
            ],
            [
              -47.362511,
              -21.4826655
            ],
            [
              -47.3623499,
              -21.4824787
            ],
            [
              -47.3625928,
              -21.4823092
            ]
          ]
        ]
      }
    }
  ]
}
