{
  "type": "FeatureCollection",
  "features": [
    {
      "type": "Feature",
      "id": "way/544789143",
      "properties": {
        "timestamp": "2019-08-18T20:45:50Z",
        "version": 2,
        "changeset": 73473368,
        "addr:city": "Santa Rosa de Viterbo",
        "addr:housenumber": "320",
        "addr:postcode": "14270-000",
        "addr:street": "Rua 9 de Julho",
        "addr:suburb": "Centro",
        "amenity": "library",
        "building": "yes",
        "name": "Biblioteca Municipal Professora Lic√≠nia  Nogueira Magalhaes",
        "operator": "Prefeitura Municipal de Santa Rosa de Viterbo",
        "operator:type": "public",
        "phone": "+55 16 3954 3404",
        "id": "way/544789143"
      },
      "geometry": {
        "type": "Polygon",
        "coordinates": [
          [
            [
              -47.363671,
              -21.475962
            ],
            [
              -47.3635638,
              -21.4761193
            ],
            [
              -47.3634001,
              -21.4760344
            ],
            [
              -47.3635772,
              -21.4758697
            ],
            [
              -47.363671,
              -21.475962
            ]
          ]
        ]
      }
    },
    {
      "type": "Feature",
      "id": "way/548562385",
      "properties": {
        "timestamp": "2017-12-22T14:43:22Z",
        "version": 1,
        "changeset": 54842938,
        "addr:city": "Santa Rosa de Viterbo",
        "addr:postcode": "14270-000",
        "addr:suburb": "Nhumirim",
        "amenity": "library",
        "building": "yes",
        "internet_access": "no",
        "name": "Bibliote Helene El Debs",
        "id": "way/548562385"
      },
      "geometry": {
        "type": "Polygon",
        "coordinates": [
          [
            [
              -47.3672801,
              -21.5255427
            ],
            [
              -47.3672851,
              -21.525572
            ],
            [
              -47.3672242,
              -21.525589
            ],
            [
              -47.367212,
              -21.525555
            ],
            [
              -47.3672801,
              -21.5255427
            ]
          ]
        ]
      }
    }
  ]
}
