{
  "type": "FeatureCollection",
  "features": [
    {
      "type": "Feature",
      "id": "way/681532590",
      "properties": {
        "timestamp": "2019-08-15T01:42:48Z",
        "version": 2,
        "changeset": 73368562,
        "addr:city": "Santa Rosa de Viterbo",
        "addr:housenumber": "244",
        "addr:postcode": "14270-000",
        "addr:street": "Rua 9 de Julho",
        "addr:suburb": "Centro",
        "amenity": "pharmacy",
        "building": "yes",
        "dispensing": "yes",
        "drive_through": "yes",
        "healthcare": "pharmacy",
        "name": "Farmácia do Zizico",
        "operator": "Rede Farma Gente",
        "phone": "+55 16 3954-1230",
        "website": "https://www.facebook.com/FARMAISIZIZICOEZEMARIO",
        "id": "way/681532590"
      },
      "geometry": {
        "type": "Polygon",
        "coordinates": [
          [
            [
              -47.3631618,
              -21.4756239
            ],
            [
              -47.362974,
              -21.4758136
            ],
            [
              -47.3628426,
              -21.4757437
            ],
            [
              -47.3628399,
              -21.4757038
            ],
            [
              -47.3630599,
              -21.4755241
            ],
            [
              -47.3631296,
              -21.475559
            ],
            [
              -47.3631752,
              -21.4756015
            ],
            [
              -47.3631618,
              -21.4756239
            ]
          ]
        ]
      }
    },
    {
      "type": "Feature",
      "id": "way/707513586",
      "properties": {
        "timestamp": "2019-07-26T01:57:30Z",
        "version": 1,
        "changeset": 72666764,
        "addr:city": "Santa Rosa de Viterbo",
        "addr:housenumber": "210",
        "addr:postcode": "14.270-000",
        "addr:street": "Rua Sebastião de Campos",
        "addr:suburb": "Conjunto Habitacional Liliana Urtiaga Andreazza",
        "amenity": "pharmacy",
        "building": "yes",
        "dispensing": "yes",
        "drive_through": "yes",
        "healthcare": "pharmacy",
        "name": "Drogagil",
        "phone": "+55 16 3954-5002",
        "id": "way/707513586"
      },
      "geometry": {
        "type": "Polygon",
        "coordinates": [
          [
            [
              -47.3863085,
              -21.494933
            ],
            [
              -47.386224,
              -21.4950279
            ],
            [
              -47.3860711,
              -21.494923
            ],
            [
              -47.386153,
              -21.4948345
            ],
            [
              -47.3863085,
              -21.494933
            ]
          ]
        ]
      }
    },
    {
      "type": "Feature",
      "id": "way/707513592",
      "properties": {
        "timestamp": "2019-08-19T21:54:06Z",
        "version": 3,
        "changeset": 73516081,
        "addr:city": "Santa Rosa de Viterbo",
        "addr:housenumber": "177",
        "addr:postcode": "14.270-000",
        "addr:street": "Rua José Gentil",
        "addr:suburb": "Conjunto Habitacional Liliana Urtiaga Andreazza",
        "amenity": "pharmacy",
        "building": "yes",
        "dispensing": "yes",
        "drive_through": "yes",
        "healthcare": "pharmacy",
        "name": "Drogaria Nosso Teto",
        "phone": "+55 16 3954-2003",
        "website": "https://www.facebook.com/FARMAISIZIZICOEZEMARIO",
        "id": "way/707513592"
      },
      "geometry": {
        "type": "Polygon",
        "coordinates": [
          [
            [
              -47.3871402,
              -21.4959496
            ],
            [
              -47.3870538,
              -21.4960452
            ],
            [
              -47.3869464,
              -21.4959692
            ],
            [
              -47.3870164,
              -21.4958931
            ],
            [
              -47.3870444,
              -21.4958736
            ],
            [
              -47.3870701,
              -21.4958866
            ],
            [
              -47.3871402,
              -21.4959496
            ]
          ]
        ]
      }
    },
    {
      "type": "Feature",
      "id": "way/710575822",
      "properties": {
        "timestamp": "2022-05-23T17:40:12Z",
        "version": 3,
        "changeset": 121382498,
        "addr:city": "Santa Rosa de Viterbo",
        "addr:housenumber": "1010",
        "addr:postcode": "14270-000",
        "addr:street": "Avenida Presidente Vargas",
        "addr:suburb": "Jardim Gurilândia",
        "amenity": "pharmacy",
        "building": "yes",
        "dispensing": "yes",
        "healthcare": "pharmacy",
        "name": "Multidrogas",
        "operator": "Rede Multidrogas",
        "phone": "+55 16 3954-4000",
        "website": "https://redemultidrogas.com.br/",
        "id": "way/710575822"
      },
      "geometry": {
        "type": "Polygon",
        "coordinates": [
          [
            [
              -47.3688745,
              -21.4889168
            ],
            [
              -47.3689423,
              -21.4890052
            ],
            [
              -47.3688057,
              -21.4891063
            ],
            [
              -47.3687444,
              -21.4890152
            ],
            [
              -47.3688745,
              -21.4889168
            ]
          ]
        ]
      }
    },
    {
      "type": "Feature",
      "id": "way/710575826",
      "properties": {
        "timestamp": "2019-08-14T17:52:42Z",
        "version": 2,
        "changeset": 73359876,
        "addr:city": "Santa Rosa de Viterbo",
        "addr:housenumber": "518",
        "addr:postcode": "14270-000",
        "addr:street": "Avenida Presidente Vargas",
        "addr:suburb": "Jardim Boa Vista",
        "amenity": "pharmacy",
        "building": "yes",
        "dispensing": "yes",
        "drive_through": "yes",
        "healthcare": "pharmacy",
        "name": "Farmais",
        "phone": "+55 16 3954-2001, 3954-2002, 3954-2004",
        "website": "https://www.facebook.com/FARMAISIZIZICOEZEMARIO",
        "id": "way/710575826"
      },
      "geometry": {
        "type": "Polygon",
        "coordinates": [
          [
            [
              -47.3661173,
              -21.4856882
            ],
            [
              -47.3662098,
              -21.4857928
            ],
            [
              -47.3660219,
              -21.4859435
            ],
            [
              -47.3659286,
              -21.4858375
            ],
            [
              -47.3661173,
              -21.4856882
            ]
          ]
        ]
      }
    },
    {
      "type": "Feature",
      "id": "way/713832899",
      "properties": {
        "timestamp": "2019-08-15T01:42:48Z",
        "version": 1,
        "changeset": 73368562,
        "addr:city": "Santa Rosa de Viterbo",
        "addr:housenumber": "554",
        "addr:postcode": "14270-000",
        "addr:street": "Avenida Rio Branco",
        "addr:suburb": "Centro",
        "amenity": "pharmacy",
        "building": "yes",
        "dispensing": "yes",
        "healthcare": "pharmacy",
        "name": "Medicinallis Farmacia De Manipulacao E Homeopatia",
        "phone": "+55 16 3954-7141, 3954-7141, 99609-4028",
        "website": "https://www.facebook.com/pages/Medicinallis/217744458420489",
        "id": "way/713832899"
      },
      "geometry": {
        "type": "Polygon",
        "coordinates": [
          [
            [
              -47.3609406,
              -21.4821956
            ],
            [
              -47.360971,
              -21.4821065
            ],
            [
              -47.3611438,
              -21.482163
            ],
            [
              -47.3611134,
              -21.4822477
            ],
            [
              -47.3609406,
              -21.4821956
            ]
          ]
        ]
      }
    },
    {
      "type": "Feature",
      "id": "way/713832900",
      "properties": {
        "timestamp": "2019-08-15T01:42:48Z",
        "version": 1,
        "changeset": 73368562,
        "addr:city": "Santa Rosa de Viterbo",
        "addr:housenumber": "586",
        "addr:postcode": "14270-000",
        "addr:street": "Avenida Professor José Dilermando Ribeiro",
        "addr:suburb": "Conjunto Habitacional Delduque Ribeiro Garcia",
        "amenity": "pharmacy",
        "building": "yes",
        "dispensing": "yes",
        "healthcare": "pharmacy",
        "name": "Farmácia da Cohab",
        "operator": "Rede Farma Gente",
        "phone": "+55 16 3954-7220",
        "website": "https://www.facebook.com/FARMAISIZIZICOEZEMARIO",
        "id": "way/713832900"
      },
      "geometry": {
        "type": "Polygon",
        "coordinates": [
          [
            [
              -47.3717021,
              -21.4772221
            ],
            [
              -47.3716596,
              -21.477367
            ],
            [
              -47.3715747,
              -21.4773308
            ],
            [
              -47.3715995,
              -21.4771925
            ],
            [
              -47.3717021,
              -21.4772221
            ]
          ]
        ]
      }
    },
    {
      "type": "Feature",
      "id": "way/715202910",
      "properties": {
        "timestamp": "2019-08-19T02:53:32Z",
        "version": 1,
        "changeset": 73477402,
        "addr:city": "Santa Rosa de Viterbo",
        "addr:housenumber": "186",
        "addr:postcode": "14270-000",
        "addr:street": "Rua Doutor Mario Carneiro da Cunha",
        "addr:suburb": "Jardim Gurilândia",
        "amenity": "pharmacy",
        "building": "yes",
        "dispensing": "yes",
        "healthcare": "pharmacy",
        "name": "Farmácia Vera Cruz",
        "operator": "Rede Drogaria Total",
        "phone": "+55 16 3954-2030",
        "website": "https://www.drogariatotal.com.br/redetotal2014/index.php",
        "id": "way/715202910"
      },
      "geometry": {
        "type": "Polygon",
        "coordinates": [
          [
            [
              -47.362054,
              -21.4849821
            ],
            [
              -47.3621345,
              -21.485032
            ],
            [
              -47.3620889,
              -21.4851044
            ],
            [
              -47.3619843,
              -21.485042
            ],
            [
              -47.362054,
              -21.4849821
            ]
          ]
        ]
      }
    },
    {
      "type": "Feature",
      "id": "way/715202927",
      "properties": {
        "timestamp": "2023-07-30T13:45:19Z",
        "version": 2,
        "changeset": 139210523,
        "addr:city": "Santa Rosa de Viterbo",
        "addr:housenumber": "274",
        "addr:postcode": "14270-000",
        "addr:street": "Avenida Presidente Vargas",
        "addr:suburb": "Jardim Boa Vista",
        "amenity": "pharmacy",
        "building": "yes",
        "dispensing": "yes",
        "drive_through": "no",
        "healthcare": "pharmacy",
        "name": "Drogal",
        "opening_hours": "Mo-Sa 07:00-22:00; Su 10:00-18:00; PH off",
        "operator": "Rede Drogal",
        "phone": "+55 16 3954 6959",
        "website": "https://www.drogal.com.br",
        "id": "way/715202927"
      },
      "geometry": {
        "type": "Polygon",
        "coordinates": [
          [
            [
              -47.3646081,
              -21.4839566
            ],
            [
              -47.3646781,
              -21.4840479
            ],
            [
              -47.3645147,
              -21.4841652
            ],
            [
              -47.3644306,
              -21.4840696
            ],
            [
              -47.3646081,
              -21.4839566
            ]
          ]
        ]
      }
    }
  ]
}
