{
  "type": "FeatureCollection",
  "features": [
    {
      "type": "Feature",
      "id": "way/544414630",
      "properties": {
        "timestamp": "2019-08-15T18:22:08Z",
        "version": 2,
        "changeset": 73388164,
        "addr:city": "Santa Rosa de Viterbo",
        "addr:housenumber": "250",
        "addr:postcode": "14270000",
        "addr:street": "Rua Sete de Setembro",
        "addr:suburb": "Centro",
        "amenity": "school",
        "name": "Escola Estadual Conde Francisco Matarazzo",
        "operator": "Secrataria deEducação do Estado de São Paulo",
        "operator:type": "public",
        "phone": "+55 16 3954-1503",
        "website": "https://www.facebook.com/EeCondeFranciscoMatarazzo/",
        "id": "way/544414630"
      },
      "geometry": {
        "type": "Polygon",
        "coordinates": [
          [
            [
              -47.3623121,
              -21.4798112
            ],
            [
              -47.3628807,
              -21.4799585
            ],
            [
              -47.3627842,
              -21.4803029
            ],
            [
              -47.3631946,
              -21.4804227
            ],
            [
              -47.363039,
              -21.4810392
            ],
            [
              -47.3624355,
              -21.4808171
            ],
            [
              -47.3624221,
              -21.4807072
            ],
            [
              -47.3620546,
              -21.4806299
            ],
            [
              -47.3623121,
              -21.4798112
            ]
          ]
        ]
      }
    },
    {
      "type": "Feature",
      "id": "way/544414632",
      "properties": {
        "timestamp": "2017-12-03T22:10:26Z",
        "version": 1,
        "changeset": 54311305,
        "addr:city": "Santa Rosa de Viterbo",
        "addr:housenumber": "135",
        "addr:postcode": "14270000",
        "addr:street": "Avenida Rio Branco",
        "addr:suburb": "Centro",
        "amenity": "school",
        "name": "Escola Estadual Teófilo Siqueira",
        "id": "way/544414632"
      },
      "geometry": {
        "type": "Polygon",
        "coordinates": [
          [
            [
              -47.3619581,
              -21.4781314
            ],
            [
              -47.3618481,
              -21.4785682
            ],
            [
              -47.361207,
              -21.4783885
            ],
            [
              -47.3613975,
              -21.4779667
            ],
            [
              -47.3619581,
              -21.4781314
            ]
          ]
        ]
      }
    },
    {
      "type": "Feature",
      "id": "way/544675248",
      "properties": {
        "timestamp": "2020-11-27T14:01:15Z",
        "version": 3,
        "changeset": 94900329,
        "addr:city": "Santa Rosa de Viterbo",
        "addr:housenumber": "39",
        "addr:postcode": "14270000",
        "addr:street": "Rua Efren Testa",
        "addr:suburb": "Cohab 1",
        "amenity": "school",
        "name": "E.M.E.F. Prof. Maurílio de Oliveira",
        "operator": "Prefeitura Municial de Santa Rosa de Viterbo",
        "operator:type": "public",
        "phone": "+55 16 3954-2977",
        "id": "way/544675248"
      },
      "geometry": {
        "type": "Polygon",
        "coordinates": [
          [
            [
              -47.3725199,
              -21.4828692
            ],
            [
              -47.3723493,
              -21.4831038
            ],
            [
              -47.3718954,
              -21.48353
            ],
            [
              -47.3713996,
              -21.4829945
            ],
            [
              -47.3717026,
              -21.4827581
            ],
            [
              -47.3717301,
              -21.4825531
            ],
            [
              -47.3725199,
              -21.4828692
            ]
          ]
        ]
      }
    },
    {
      "type": "Feature",
      "id": "way/544675422",
      "properties": {
        "timestamp": "2019-07-30T02:42:50Z",
        "version": 2,
        "changeset": 72791928,
        "addr:city": "Santa Rosa de Viterbo",
        "addr:housenumber": "50",
        "addr:postcode": "14270000",
        "addr:street": "Rua João Nava",
        "addr:suburb": "Cohab 3",
        "amenity": "school",
        "name": "E.M.E.F. Professora Lourdes Pereira Massaro",
        "operator": "Prefeitura Municipal de Snata Rosa de Viterbo",
        "operator:type": "public",
        "phone": "+55 16 3954-8875",
        "id": "way/544675422"
      },
      "geometry": {
        "type": "Polygon",
        "coordinates": [
          [
            [
              -47.3698314,
              -21.4703579
            ],
            [
              -47.3694274,
              -21.4699762
            ],
            [
              -47.369184,
              -21.4693481
            ],
            [
              -47.3702982,
              -21.4698864
            ],
            [
              -47.3698314,
              -21.4703579
            ]
          ]
        ]
      }
    },
    {
      "type": "Feature",
      "id": "way/544676842",
      "properties": {
        "timestamp": "2023-07-30T13:45:19Z",
        "version": 3,
        "changeset": 139210523,
        "addr:city": "Santa Rosa de Viterbo",
        "addr:housenumber": "301",
        "addr:postcode": "14270-000",
        "addr:street": "Avenida Presidente Vargas",
        "addr:suburb": "Jardim Boa Vista",
        "amenity": "school",
        "name": "E.E. Vergínio Melloni",
        "operator": "Secretaria da Educação do Estado de São Paulo",
        "operator:type": "government",
        "phone": "+55 16 3954 1402",
        "religion": "none",
        "id": "way/544676842"
      },
      "geometry": {
        "type": "Polygon",
        "coordinates": [
          [
            [
              -47.3647401,
              -21.4847778
            ],
            [
              -47.3641424,
              -21.4852476
            ],
            [
              -47.3636395,
              -21.4846744
            ],
            [
              -47.3642595,
              -21.4842141
            ],
            [
              -47.3647401,
              -21.4847778
            ]
          ]
        ]
      }
    },
    {
      "type": "Feature",
      "id": "way/544677245",
      "properties": {
        "timestamp": "2017-12-05T02:46:41Z",
        "version": 1,
        "changeset": 54351563,
        "amenity": "school",
        "name": "Escolinha de Nhumirim",
        "id": "way/544677245"
      },
      "geometry": {
        "type": "Polygon",
        "coordinates": [
          [
            [
              -47.3643892,
              -21.5263887
            ],
            [
              -47.364677,
              -21.5270891
            ],
            [
              -47.3641995,
              -21.5273596
            ],
            [
              -47.3635812,
              -21.5266079
            ],
            [
              -47.3643892,
              -21.5263887
            ]
          ]
        ]
      }
    },
    {
      "type": "Feature",
      "id": "way/544678226",
      "properties": {
        "timestamp": "2019-08-18T20:45:50Z",
        "version": 4,
        "changeset": 73473368,
        "addr:city": "Santa Rosa de Viterbo",
        "addr:housenumber": "1",
        "addr:postcode": "14270-000",
        "addr:street": "Praça José Garcia de Abreu",
        "addr:suburb": "Conjunto Habitacional Liliana Urtiaga Andreazza",
        "amenity": "school",
        "name": "E. E. Salustiano Lemos",
        "operator": "Secretaria de Eduação do Estado de São Paulo",
        "operator:type": "public",
        "phone": "+55 16 3954-2560",
        "id": "way/544678226"
      },
      "geometry": {
        "type": "Polygon",
        "coordinates": [
          [
            [
              -47.3842796,
              -21.4926306
            ],
            [
              -47.3837979,
              -21.4931998
            ],
            [
              -47.3829681,
              -21.4925684
            ],
            [
              -47.3834533,
              -21.4920155
            ],
            [
              -47.3842796,
              -21.4926306
            ]
          ]
        ]
      }
    },
    {
      "type": "Feature",
      "id": "way/544678275",
      "properties": {
        "timestamp": "2019-08-18T20:45:50Z",
        "version": 3,
        "changeset": 73473368,
        "addr:city": "Santa Rosa de Viterbo",
        "addr:housenumber": "1301",
        "addr:postcode": "14270-000",
        "addr:street": "Rua Ângelo Sordi",
        "addr:suburb": "Conjunto Habitacional Liliana Urtiaga Andreazza",
        "amenity": "school",
        "name": "EMEF Professora Wolmar Ribeiro Balbao",
        "operator": "Prefeitura Municipal de Santa Rosa de Viterbo",
        "operator:type": "public",
        "phone": "+55 16 3954-7040",
        "id": "way/544678275"
      },
      "geometry": {
        "type": "Polygon",
        "coordinates": [
          [
            [
              -47.3833728,
              -21.4920082
            ],
            [
              -47.3829052,
              -21.4925382
            ],
            [
              -47.3822758,
              -21.4920736
            ],
            [
              -47.3833728,
              -21.4920082
            ]
          ]
        ]
      }
    },
    {
      "type": "Feature",
      "id": "way/544678289",
      "properties": {
        "timestamp": "2019-07-29T00:02:57Z",
        "version": 3,
        "changeset": 72749372,
        "addr:city": "Santa Rosa de Viterbo",
        "addr:housenumber": "89",
        "addr:postcode": "14.270-000",
        "addr:street": "Rua Guido Tártaro",
        "addr:suburb": "Jardim do Sol",
        "amenity": "school",
        "name": "E.M.E.F. ”Profº.José Roberto Costa Bruno”",
        "operator": "Prefeitura Municipal de Santa Rosa de Viterbo",
        "operator:type": "public",
        "phone": "+55 16 3954-8873",
        "id": "way/544678289"
      },
      "geometry": {
        "type": "Polygon",
        "coordinates": [
          [
            [
              -47.3654743,
              -21.4911142
            ],
            [
              -47.364732,
              -21.4911185
            ],
            [
              -47.3641428,
              -21.4907867
            ],
            [
              -47.3644657,
              -21.4903438
            ],
            [
              -47.3650213,
              -21.4907354
            ],
            [
              -47.3654804,
              -21.4910729
            ],
            [
              -47.3654743,
              -21.4911142
            ]
          ]
        ]
      }
    },
    {
      "type": "Feature",
      "id": "way/546841243",
      "properties": {
        "timestamp": "2019-08-15T01:42:48Z",
        "version": 2,
        "changeset": 73368562,
        "addr:city": "Santa Rosa de Viterbo",
        "addr:housenumber": "251",
        "addr:postcode": "14270-000",
        "addr:street": "Avenida São Paulo",
        "addr:suburb": "Vila Barros",
        "amenity": "school",
        "name": "Liceu Tales de Mileto",
        "operator": "Colégio Objetivo",
        "operator:type": "private",
        "phone": "+55 16 3954-5705",
        "website": "https://www.facebook.com/Objetivosrv/",
        "id": "way/546841243"
      },
      "geometry": {
        "type": "Polygon",
        "coordinates": [
          [
            [
              -47.3583755,
              -21.4839448
            ],
            [
              -47.3582924,
              -21.4840846
            ],
            [
              -47.3580617,
              -21.4839972
            ],
            [
              -47.3581582,
              -21.4838425
            ],
            [
              -47.3583755,
              -21.4839448
            ]
          ]
        ]
      }
    },
    {
      "type": "Feature",
      "id": "way/713832895",
      "properties": {
        "timestamp": "2019-08-15T01:42:48Z",
        "version": 1,
        "changeset": 73368562,
        "addr:city": "Santa Rosa de Viterbo",
        "addr:housenumber": "287",
        "addr:postcode": "14270-000",
        "addr:street": "Rua Santa Catarina",
        "addr:suburb": "Jardim Boa Vista",
        "amenity": "school",
        "name": "COC Milênio",
        "operator": "COC",
        "operator:type": "private",
        "phone": "+55 16 3954.2524, 3954.2383",
        "website": "https://www.cocsantarosa.com.br",
        "id": "way/713832895"
      },
      "geometry": {
        "type": "Polygon",
        "coordinates": [
          [
            [
              -47.3671326,
              -21.4852017
            ],
            [
              -47.3672842,
              -21.4853564
            ],
            [
              -47.3670844,
              -21.4855137
            ],
            [
              -47.3669462,
              -21.4853365
            ],
            [
              -47.3671326,
              -21.4852017
            ]
          ]
        ]
      }
    },
    {
      "type": "Feature",
      "id": "node/5314275822",
      "properties": {
        "timestamp": "2018-01-01T03:34:41Z",
        "version": 1,
        "changeset": 55069058,
        "addr:housenumber": "729",
        "addr:postcode": "14270000",
        "addr:street": "Avenida São Paulo",
        "amenity": "school",
        "name": "Faculdade Anhanguera",
        "name:en": "Português",
        "opening_hours": "Mo-Su 08:00-19:00",
        "phone": "1639542511",
        "id": "node/5314275822"
      },
      "geometry": {
        "type": "Point",
        "coordinates": [
          -47.362179,
          -21.4858337
        ]
      }
    }
  ]
}
