{
  "type": "FeatureCollection",
  "features": [
    {
      "type": "Feature",
      "id": "way/628489834",
      "properties": {
        "timestamp": "2024-03-07T12:18:17Z",
        "version": 2,
        "changeset": 148338874,
        "addr:city": "Coari",
        "addr:postcode": "69460-000",
        "addr:suburb": "Centro",
        "amenity": "clinic",
        "building": "yes",
        "healthcare": "clinic",
        "name": "Policlínica Municipal de Coari",
        "opening_hours": "08:00-18:00",
        "id": "way/628489834"
      },
      "geometry": {
        "type": "Polygon",
        "coordinates": [
          [
            [
              -63.1424384,
              -4.0855765
            ],
            [
              -63.1425848,
              -4.0854002
            ],
            [
              -63.1427098,
              -4.0855035
            ],
            [
              -63.1425635,
              -4.0856798
            ],
            [
              -63.1424384,
              -4.0855765
            ]
          ]
        ]
      }
    },
    {
      "type": "Feature",
      "id": "way/1256383833",
      "properties": {
        "timestamp": "2024-03-12T12:38:04Z",
        "version": 2,
        "changeset": 148548187,
        "addr:city": "Coari",
        "addr:postcode": "69460-000",
        "addr:street": "Cauá",
        "addr:suburb": "Itamarati",
        "amenity": "clinic",
        "building": "yes",
        "healthcare": "clinic",
        "name": "Unidade Básica de Saúde - Itamarati",
        "id": "way/1256383833"
      },
      "geometry": {
        "type": "Polygon",
        "coordinates": [
          [
            [
              -63.1395006,
              -4.0946305
            ],
            [
              -63.1395789,
              -4.0946925
            ],
            [
              -63.1394756,
              -4.0948223
            ],
            [
              -63.1393974,
              -4.0947603
            ],
            [
              -63.1395006,
              -4.0946305
            ]
          ]
        ]
      }
    },
    {
      "type": "Feature",
      "id": "way/1258616276",
      "properties": {
        "timestamp": "2024-03-07T11:55:08Z",
        "version": 1,
        "changeset": 148337728,
        "addr:city": "Coari",
        "addr:postcode": "69460-000",
        "addr:street": "Rua Dois de Dezembro",
        "addr:suburb": "Tauá-Mirim",
        "amenity": "clinic",
        "building": "yes",
        "healthcare": "clinic",
        "name": "Unidade Básica de Saúde - Tauá-mirim",
        "wheelchair": "yes",
        "id": "way/1258616276"
      },
      "geometry": {
        "type": "Polygon",
        "coordinates": [
          [
            [
              -63.1452464,
              -4.0856893
            ],
            [
              -63.1453704,
              -4.0858189
            ],
            [
              -63.1452978,
              -4.085888
            ],
            [
              -63.1451738,
              -4.0857584
            ],
            [
              -63.1452464,
              -4.0856893
            ]
          ]
        ]
      }
    },
    {
      "type": "Feature",
      "id": "way/1258768818",
      "properties": {
        "timestamp": "2024-03-07T18:45:16Z",
        "version": 1,
        "changeset": 148355705,
        "addr:city": "Coari",
        "addr:postcode": "69460-000",
        "addr:street": "Rua Vieira Martins",
        "addr:suburb": "Chagas Aguiar",
        "amenity": "clinic",
        "building": "yes",
        "healthcare": "clinic",
        "name": "Unidade Básica de Saúde - Chagas Aguiar",
        "id": "way/1258768818"
      },
      "geometry": {
        "type": "Polygon",
        "coordinates": [
          [
            [
              -63.1366736,
              -4.0876304
            ],
            [
              -63.1366557,
              -4.087804
            ],
            [
              -63.1365578,
              -4.087794
            ],
            [
              -63.1365757,
              -4.0876204
            ],
            [
              -63.1366736,
              -4.0876304
            ]
          ]
        ]
      }
    }
  ]
}
