{
  "type": "FeatureCollection",
  "features": [
    {
      "type": "Feature",
      "id": "way/1258628369",
      "properties": {
        "timestamp": "2024-03-07T12:18:17Z",
        "version": 1,
        "changeset": 148338874,
        "addr:city": "Coari",
        "addr:postcode": "69460-000",
        "addr:street": "Rua Raimundo Mota",
        "addr:suburb": "Centro",
        "building": "yes",
        "building:levels": "1",
        "name": "Detran",
        "office": "government",
        "id": "way/1258628369"
      },
      "geometry": {
        "type": "Polygon",
        "coordinates": [
          [
            [
              -63.1425891,
              -4.0849608
            ],
            [
              -63.1426829,
              -4.0850403
            ],
            [
              -63.14263,
              -4.0851024
            ],
            [
              -63.1425362,
              -4.0850228
            ],
            [
              -63.1425891,
              -4.0849608
            ]
          ]
        ]
      }
    },
    {
      "type": "Feature",
      "id": "way/1258628370",
      "properties": {
        "timestamp": "2024-03-07T12:18:17Z",
        "version": 1,
        "changeset": 148338874,
        "addr:city": "Coari",
        "addr:postcode": "69460-000",
        "addr:street": "Rua Raimundo Mota",
        "addr:suburb": "Centro",
        "building": "yes",
        "name": "Secretaria de Estado da Fazenda",
        "office": "government",
        "id": "way/1258628370"
      },
      "geometry": {
        "type": "Polygon",
        "coordinates": [
          [
            [
              -63.1426058,
              -4.0851214
            ],
            [
              -63.1425427,
              -4.0851942
            ],
            [
              -63.1424535,
              -4.0851174
            ],
            [
              -63.142492,
              -4.0850729
            ],
            [
              -63.1425189,
              -4.0850961
            ],
            [
              -63.1425435,
              -4.0850677
            ],
            [
              -63.1426058,
              -4.0851214
            ]
          ]
        ]
      }
    },
    {
      "type": "Feature",
      "id": "node/3052175569",
      "properties": {
        "timestamp": "2021-09-15T13:44:41Z",
        "version": 2,
        "changeset": 111246219,
        "addr:city": "Coari",
        "addr:postcode": "69460-000",
        "addr:street": "Ceará",
        "addr:suburb": "Urucu",
        "name": "Departamento de Trânsito de Coari - DETRAC",
        "office": "government",
        "id": "node/3052175569"
      },
      "geometry": {
        "type": "Point",
        "coordinates": [
          -63.1487565,
          -4.0940568
        ]
      }
    },
    {
      "type": "Feature",
      "id": "node/3052330394",
      "properties": {
        "timestamp": "2022-10-21T21:26:18Z",
        "version": 2,
        "changeset": 127903293,
        "addr:city": "Coari",
        "addr:postcode": "69460-000",
        "addr:street": "Do Aeroporto",
        "name": "SEBRAE",
        "office": "government",
        "id": "node/3052330394"
      },
      "geometry": {
        "type": "Point",
        "coordinates": [
          -63.1507346,
          -4.0916954
        ]
      }
    }
  ]
}
