{
  "type": "FeatureCollection",
  "features": [
    {
      "type": "Feature",
      "id": "node/3051955247",
      "properties": {
        "timestamp": "2022-10-21T21:35:49Z",
        "version": 2,
        "changeset": 127903518,
        "addr:city": "Coari",
        "addr:postcode": "69460-000",
        "addr:street": "Estrada do Contorno",
        "name": "Hotel Tesouro Perdido",
        "tourism": "hotel",
        "id": "node/3051955247"
      },
      "geometry": {
        "type": "Point",
        "coordinates": [
          -63.1395785,
          -4.0917924
        ]
      }
    },
    {
      "type": "Feature",
      "id": "node/3051989594",
      "properties": {
        "timestamp": "2021-11-23T01:15:31Z",
        "version": 2,
        "changeset": 114119459,
        "addr:city": "Coari",
        "addr:postcode": "69460-000",
        "addr:street": "Rua Quinze de Novembro",
        "name": "Hotel Saúde",
        "operator": "Fábio",
        "tourism": "hotel",
        "id": "node/3051989594"
      },
      "geometry": {
        "type": "Point",
        "coordinates": [
          -63.1416675,
          -4.0842353
        ]
      }
    },
    {
      "type": "Feature",
      "id": "node/3051991289",
      "properties": {
        "timestamp": "2021-11-23T01:15:31Z",
        "version": 5,
        "changeset": 114119459,
        "addr:city": "Coari",
        "addr:housenumber": "225 A",
        "addr:postcode": "69460-000",
        "addr:street": "Rua Quinze de Novembro",
        "addr:suburb": "Centro",
        "name": "Hotel Alex Flat",
        "phone": "+55 97 3561 3434",
        "tourism": "hotel",
        "id": "node/3051991289"
      },
      "geometry": {
        "type": "Point",
        "coordinates": [
          -63.1418726,
          -4.0840009
        ]
      }
    },
    {
      "type": "Feature",
      "id": "node/3052012125",
      "properties": {
        "timestamp": "2015-04-02T00:38:51Z",
        "version": 2,
        "changeset": 29918291,
        "addr:city": "Coari",
        "addr:postcode": "69460-000",
        "addr:street": "Raimundo Mota",
        "tourism": "hotel",
        "id": "node/3052012125"
      },
      "geometry": {
        "type": "Point",
        "coordinates": [
          -63.1411202,
          -4.0841392
        ]
      }
    },
    {
      "type": "Feature",
      "id": "node/3052027348",
      "properties": {
        "timestamp": "2021-11-23T01:15:31Z",
        "version": 3,
        "changeset": 114119459,
        "addr:city": "Coari",
        "addr:housenumber": "72",
        "addr:postcode": "69460-000",
        "addr:street": "Rua Getúlio Vargas",
        "addr:suburb": "Centro",
        "name": "Hotel Urucu Plaza",
        "tourism": "hotel",
        "id": "node/3052027348"
      },
      "geometry": {
        "type": "Point",
        "coordinates": [
          -63.1422865,
          -4.0828227
        ]
      }
    },
    {
      "type": "Feature",
      "id": "node/3052035051",
      "properties": {
        "timestamp": "2021-11-23T01:15:31Z",
        "version": 5,
        "changeset": 114119459,
        "addr:city": "Coari",
        "addr:housenumber": "113",
        "addr:postcode": "69460-000",
        "addr:street": "Rua Cinco de Setembro",
        "addr:suburb": "Centro",
        "name": "Hotel LH Centro",
        "phone": "+55 97 3561 2138",
        "tourism": "hotel",
        "id": "node/3052035051"
      },
      "geometry": {
        "type": "Point",
        "coordinates": [
          -63.1433156,
          -4.0845882
        ]
      }
    },
    {
      "type": "Feature",
      "id": "node/3052109151",
      "properties": {
        "timestamp": "2021-11-23T01:15:31Z",
        "version": 5,
        "changeset": 114119459,
        "addr:city": "Coari",
        "addr:housenumber": "640",
        "addr:postcode": "69460-000",
        "addr:street": "Rua Dois de Dezembro",
        "addr:suburb": "Centro",
        "name": "Hotel Maria Dantas",
        "phone": "+55 97 3561 4027",
        "tourism": "hotel",
        "id": "node/3052109151"
      },
      "geometry": {
        "type": "Point",
        "coordinates": [
          -63.1439075,
          -4.0844337
        ]
      }
    },
    {
      "type": "Feature",
      "id": "node/3052642984",
      "properties": {
        "timestamp": "2021-11-23T01:15:31Z",
        "version": 3,
        "changeset": 114119459,
        "addr:city": "Coari",
        "addr:postcode": "69460-000",
        "addr:street": "Rua Francisco Rocha de Carvalho",
        "addr:suburb": "Tauá-mirim",
        "tourism": "hotel",
        "id": "node/3052642984"
      },
      "geometry": {
        "type": "Point",
        "coordinates": [
          -63.144625,
          -4.0880019
        ]
      }
    },
    {
      "type": "Feature",
      "id": "node/3283756466",
      "properties": {
        "timestamp": "2022-10-21T21:35:34Z",
        "version": 4,
        "changeset": 127903507,
        "addr:city": "Coari",
        "addr:postcode": "69460-000",
        "addr:street": "Rua Genival Guerra",
        "addr:suburb": "Duque de Caxias",
        "tourism": "hotel",
        "id": "node/3283756466"
      },
      "geometry": {
        "type": "Point",
        "coordinates": [
          -63.1395464,
          -4.0915384
        ]
      }
    },
    {
      "type": "Feature",
      "id": "node/3283788106",
      "properties": {
        "timestamp": "2022-10-21T21:32:45Z",
        "version": 4,
        "changeset": 127903449,
        "addr:city": "Coari",
        "addr:postcode": "69460-000",
        "addr:street": "Rua Dois de Dezembro",
        "addr:suburb": "Centro",
        "tourism": "hotel",
        "id": "node/3283788106"
      },
      "geometry": {
        "type": "Point",
        "coordinates": [
          -63.1432262,
          -4.0840783
        ]
      }
    },
    {
      "type": "Feature",
      "id": "node/4786628697",
      "properties": {
        "timestamp": "2017-04-10T16:45:32Z",
        "version": 1,
        "changeset": 47630179,
        "addr:city": "Coari",
        "addr:street": "Campo Petrolífero de Urucú",
        "name": "Hotel Vitória Régia",
        "tourism": "hotel",
        "id": "node/4786628697"
      },
      "geometry": {
        "type": "Point",
        "coordinates": [
          -65.3220939,
          -4.8783179
        ]
      }
    }
  ]
}
