{
  "type": "FeatureCollection",
  "features": [
    {
      "type": "Feature",
      "id": "node/3052008554",
      "properties": {
        "timestamp": "2023-12-03T11:57:49Z",
        "version": 3,
        "changeset": 144718796,
        "addr:city": "Coari",
        "addr:postcode": "69460-000",
        "addr:street": "Rua Independência",
        "amenity": "pharmacy",
        "healthcare": "pharmacy",
        "name": "Drogaria Drogalar",
        "id": "node/3052008554"
      },
      "geometry": {
        "type": "Point",
        "coordinates": [
          -63.1407219,
          -4.0842372
        ]
      }
    },
    {
      "type": "Feature",
      "id": "node/3052016710",
      "properties": {
        "timestamp": "2023-12-03T11:57:49Z",
        "version": 2,
        "changeset": 144718796,
        "addr:city": "Coari",
        "addr:postcode": "69460-000",
        "addr:street": "Independência",
        "amenity": "pharmacy",
        "healthcare": "pharmacy",
        "name": "Drogaria São Francisco",
        "id": "node/3052016710"
      },
      "geometry": {
        "type": "Point",
        "coordinates": [
          -63.1412202,
          -4.0839932
        ]
      }
    },
    {
      "type": "Feature",
      "id": "node/3052184856",
      "properties": {
        "timestamp": "2023-12-03T11:57:49Z",
        "version": 3,
        "changeset": 144718796,
        "addr:city": "Coari",
        "addr:postcode": "69460-000",
        "addr:street": "Gonçalves Ledo",
        "addr:suburb": "Espírito santo",
        "amenity": "pharmacy",
        "healthcare": "pharmacy",
        "id": "node/3052184856"
      },
      "geometry": {
        "type": "Point",
        "coordinates": [
          -63.1481343,
          -4.0913041
        ]
      }
    },
    {
      "type": "Feature",
      "id": "node/3052226876",
      "properties": {
        "timestamp": "2022-04-04T20:11:01Z",
        "version": 5,
        "changeset": 119316657,
        "addr:city": "Coari",
        "addr:postcode": "69460-000",
        "addr:street": "Rua Vieira Martins",
        "addr:suburb": "Itamarati",
        "amenity": "pharmacy",
        "healthcare": "pharmacy",
        "id": "node/3052226876"
      },
      "geometry": {
        "type": "Point",
        "coordinates": [
          -63.1369458,
          -4.0907176
        ]
      }
    },
    {
      "type": "Feature",
      "id": "node/3052684813",
      "properties": {
        "timestamp": "2023-12-03T11:57:49Z",
        "version": 4,
        "changeset": 144718796,
        "addr:city": "Coari",
        "addr:postcode": "69460-000",
        "addr:street": "Rua Vieira Martins",
        "addr:suburb": "Chagas Aguiar",
        "amenity": "pharmacy",
        "healthcare": "pharmacy",
        "id": "node/3052684813"
      },
      "geometry": {
        "type": "Point",
        "coordinates": [
          -63.136521,
          -4.0881807
        ]
      }
    },
    {
      "type": "Feature",
      "id": "node/3052709033",
      "properties": {
        "timestamp": "2023-12-03T11:57:49Z",
        "version": 3,
        "changeset": 144718796,
        "addr:city": "Coari",
        "addr:postcode": "69460-000",
        "addr:street": "Gonçalves Ledo",
        "addr:suburb": "Centro",
        "amenity": "pharmacy",
        "healthcare": "pharmacy",
        "id": "node/3052709033"
      },
      "geometry": {
        "type": "Point",
        "coordinates": [
          -63.1416801,
          -4.0873974
        ]
      }
    },
    {
      "type": "Feature",
      "id": "node/3283784637",
      "properties": {
        "timestamp": "2023-12-03T11:57:49Z",
        "version": 4,
        "changeset": 144718796,
        "addr:city": "Coari",
        "addr:postcode": "69460-000",
        "addr:street": "Rua Dois de Dezembro",
        "addr:suburb": "Centro",
        "amenity": "pharmacy",
        "healthcare": "pharmacy",
        "id": "node/3283784637"
      },
      "geometry": {
        "type": "Point",
        "coordinates": [
          -63.143745,
          -4.0842933
        ]
      }
    },
    {
      "type": "Feature",
      "id": "node/3283809616",
      "properties": {
        "timestamp": "2023-12-03T11:57:49Z",
        "version": 3,
        "changeset": 144718796,
        "addr:city": "Coari",
        "addr:postcode": "69460-000",
        "addr:street": "Dois de Dezembro",
        "addr:suburb": "Tauá-mirin",
        "amenity": "pharmacy",
        "healthcare": "pharmacy",
        "id": "node/3283809616"
      },
      "geometry": {
        "type": "Point",
        "coordinates": [
          -63.1463771,
          -4.0873877
        ]
      }
    }
  ]
}
