{
  "type": "FeatureCollection",
  "features": [
    {
      "type": "Feature",
      "id": "way/1305264190",
      "properties": {
        "timestamp": "2024-08-02T14:36:53Z",
        "version": 1,
        "changeset": 154739602,
        "addr:city": "Jucuruçu",
        "addr:housenumber": "122",
        "addr:postcode": "45834-000",
        "addr:street": "Praça da Matriz",
        "addr:suburb": "Coqueiro",
        "amenity": "clinic",
        "building": "yes",
        "building:levels": "1",
        "healthcare": "clinic",
        "healthcare:speciality": "general",
        "name": "Estratégia de Saúde da Família Coqueiro Dois",
        "operator": "Município de Jucuruçu",
        "operator:type": "public",
        "source": "microsoft/BuildingFootprints",
        "id": "way/1305264190"
      },
      "geometry": {
        "type": "Polygon",
        "coordinates": [
          [
            [
              -40.0515375,
              -16.827019
            ],
            [
              -40.0514863,
              -16.8269307
            ],
            [
              -40.0515388,
              -16.8269028
            ],
            [
              -40.05159,
              -16.8269911
            ],
            [
              -40.0515375,
              -16.827019
            ]
          ]
        ]
      }
    }
  ]
}
