{
  "type": "FeatureCollection",
  "features": [
    {
      "type": "Feature",
      "id": "node/2271104680",
      "properties": {
        "timestamp": "2013-04-17T20:47:45Z",
        "version": 1,
        "changeset": 15767109,
        "addr:housenumber": "Km 72.5",
        "addr:postcode": "13.308-911",
        "addr:street": "Rodovia Presidente Castelo Branco",
        "email": "atendimento@tucumanhotel.com.br",
        "name": "Hotel Tucuman",
        "phone": "+55-11-4026-5081",
        "tourism": "hotel",
        "website": "http://www.tucumanhotel.com.br/",
        "id": "node/2271104680"
      },
      "geometry": {
        "type": "Point",
        "coordinates": [
          -47.2808505,
          -23.4031844
        ]
      }
    },
    {
      "type": "Feature",
      "id": "node/9161692740",
      "properties": {
        "timestamp": "2023-04-16T01:59:52Z",
        "version": 3,
        "changeset": 134959767,
        "addr:city": "Itu",
        "addr:housenumber": "35",
        "addr:postcode": "13300-035",
        "addr:street": "Rua Doutor José de Paula Leite de Barros",
        "internet_access": "yes",
        "internet_access:fee": "customers",
        "name": "Hotel Santa Rita",
        "phone": "+55 11 4022 1972",
        "reservation": "yes",
        "tourism": "hotel",
        "id": "node/9161692740"
      },
      "geometry": {
        "type": "Point",
        "coordinates": [
          -47.2968188,
          -23.2668279
        ]
      }
    },
    {
      "type": "Feature",
      "id": "node/9176165211",
      "properties": {
        "timestamp": "2021-10-16T09:59:25Z",
        "version": 1,
        "changeset": 112572101,
        "addr:city": "Itu",
        "addr:housenumber": "93",
        "addr:street": "Rua Barão do Itaim",
        "name": "Hotel Internacional",
        "tourism": "hotel",
        "id": "node/9176165211"
      },
      "geometry": {
        "type": "Point",
        "coordinates": [
          -47.2988952,
          -23.2644104
        ]
      }
    },
    {
      "type": "Feature",
      "id": "node/9179231569",
      "properties": {
        "timestamp": "2021-10-18T04:15:18Z",
        "version": 1,
        "changeset": 112633367,
        "addr:city": "Itu",
        "addr:housenumber": "90",
        "addr:street": "Praça Padre Miguel",
        "name": "Hotel Sabará",
        "tourism": "hotel",
        "id": "node/9179231569"
      },
      "geometry": {
        "type": "Point",
        "coordinates": [
          -47.300191,
          -23.2637596
        ]
      }
    },
    {
      "type": "Feature",
      "id": "node/11817853501",
      "properties": {
        "timestamp": "2024-04-15T05:59:19Z",
        "version": 1,
        "changeset": 150018841,
        "name": "San Raphael Country Hotel Itu",
        "stars": "5",
        "tourism": "hotel",
        "id": "node/11817853501"
      },
      "geometry": {
        "type": "Point",
        "coordinates": [
          -47.2998955,
          -23.2940464
        ]
      }
    }
  ]
}
