{
  "type": "FeatureCollection",
  "features": [
    {
      "type": "Feature",
      "id": "way/712351986",
      "properties": {
        "timestamp": "2019-08-09T18:36:28Z",
        "version": 1,
        "changeset": 73204350,
        "amenity": "school",
        "id": "way/712351986"
      },
      "geometry": {
        "type": "Polygon",
        "coordinates": [
          [
            [
              -40.5915234,
              -20.2111161
            ],
            [
              -40.5916308,
              -20.2114711
            ],
            [
              -40.5916406,
              -20.2115717
            ],
            [
              -40.5915607,
              -20.2116179
            ],
            [
              -40.5914136,
              -20.2114009
            ],
            [
              -40.5913553,
              -20.2111489
            ],
            [
              -40.5915234,
              -20.2111161
            ]
          ]
        ]
      }
    },
    {
      "type": "Feature",
      "id": "node/3892681567",
      "properties": {
        "timestamp": "2016-03-09T19:13:25Z",
        "version": 2,
        "changeset": 37716865,
        "IJSN:administra": "Municipal",
        "addr:city": "Santa Maria de Jetibá",
        "addr:country": "BR",
        "addr:postcode": "29645-000",
        "addr:state": "ES",
        "addr:suburb": "Comunidade Alto Caramuru",
        "alt_name": "Escola Municipal Unidocente de Ensino Fundamental",
        "amenity": "school",
        "name": "EMUEF Fazenda Schultz",
        "source": "IJSN",
        "id": "node/3892681567"
      },
      "geometry": {
        "type": "Point",
        "coordinates": [
          -40.733605,
          -20.1704318
        ]
      }
    },
    {
      "type": "Feature",
      "id": "node/4024904474",
      "properties": {
        "timestamp": "2022-07-02T04:50:51Z",
        "version": 2,
        "changeset": 123106626,
        "IJSN:administra": "Estadual",
        "IJSN:classeCnae": "Fundamental e Médio",
        "addr:city": "Santa Leopoldina",
        "addr:housenumber": "40",
        "addr:postcode": "29640-000",
        "addr:street": "Rua Diretor Rudio",
        "addr:suburb": "Centro",
        "alt_name": "Escola Estadual de Ensino Fundamental e Médio",
        "amenity": "school",
        "contact:phone": "(27) 3266-1145 / 3266-1196",
        "name": "EEEFM Alice Holzmeister",
        "source": "IJSN",
        "id": "node/4024904474"
      },
      "geometry": {
        "type": "Point",
        "coordinates": [
          -40.5286325,
          -20.1015166
        ]
      }
    },
    {
      "type": "Feature",
      "id": "node/4024904866",
      "properties": {
        "timestamp": "2016-02-25T01:59:44Z",
        "version": 1,
        "changeset": 37426154,
        "IJSN:administra": "Estadual",
        "IJSN:classeCnae": "Médio",
        "addr:city": "Santa Leopoldina",
        "addr:postcode": "29640-000",
        "addr:street": "Rua Projetada",
        "addr:suburb": "Holanda",
        "alt_name": "Escola Estadual de Ensino Médio",
        "amenity": "school",
        "contact:phone": "(27) 9919-3725",
        "name": "EEEM Guilhermina Hulda Kruger Reinholz",
        "source": "IJSN",
        "id": "node/4024904866"
      },
      "geometry": {
        "type": "Point",
        "coordinates": [
          -40.5431053,
          -20.1999236
        ]
      }
    },
    {
      "type": "Feature",
      "id": "node/4024905251",
      "properties": {
        "timestamp": "2016-02-25T02:00:13Z",
        "version": 1,
        "changeset": 37426154,
        "IJSN:administra": "Municipal",
        "IJSN:classeCnae": "Infantil e Fundamental",
        "addr:city": "Santa Leopoldina",
        "addr:postcode": "29640-000",
        "addr:suburb": "Comunidade Holanda",
        "alt_name": "Escola Municipal de Ensino Fundamental",
        "amenity": "school",
        "contact:phone": "(27) 3266-1269",
        "name": "EMEF Alfredo Leppaus",
        "source": "IJSN",
        "id": "node/4024905251"
      },
      "geometry": {
        "type": "Point",
        "coordinates": [
          -40.5428373,
          -20.1998114
        ]
      }
    },
    {
      "type": "Feature",
      "id": "node/4024905616",
      "properties": {
        "timestamp": "2018-12-28T13:02:07Z",
        "version": 2,
        "changeset": 65841113,
        "IJSN:administra": "Municipal",
        "IJSN:classeCnae": "Fundamental",
        "addr:postcode": "29640-000",
        "addr:suburb": "Comunidade Barra do Mangaraí",
        "alt_name": "Escola Municipal de Ensino Fundamental",
        "amenity": "school",
        "contact:phone": "(27) 3366-1269 / 3330-1009",
        "name": "EMEF Milton Corteletti",
        "source": "IJSN",
        "id": "node/4024905616"
      },
      "geometry": {
        "type": "Point",
        "coordinates": [
          -40.4392076,
          -20.1347365
        ]
      }
    },
    {
      "type": "Feature",
      "id": "node/4024906103",
      "properties": {
        "timestamp": "2016-02-25T02:01:28Z",
        "version": 1,
        "changeset": 37426154,
        "IJSN:administra": "Municipal",
        "IJSN:classeCnae": "Fundamental",
        "addr:city": "Santa Leopoldina",
        "addr:postcode": "29640-000",
        "addr:suburb": "Comunidade de Ribeirão Limpo",
        "alt_name": "Escola Municipal Pluridocente de Ensino Fundamental",
        "amenity": "school",
        "contact:phone": "(27) 3266-1269 / 3266-1125",
        "name": "EMPEF Caioaba",
        "source": "IJSN",
        "id": "node/4024906103"
      },
      "geometry": {
        "type": "Point",
        "coordinates": [
          -40.499701,
          -20.0783137
        ]
      }
    },
    {
      "type": "Feature",
      "id": "node/4024906104",
      "properties": {
        "timestamp": "2016-02-25T02:01:28Z",
        "version": 1,
        "changeset": 37426154,
        "IJSN:administra": "Municipal",
        "IJSN:classeCnae": "Fundamental",
        "addr:city": "Santa Leopoldina",
        "addr:postcode": "29640-000",
        "addr:suburb": "Comunidade de Tirol",
        "alt_name": "Escola Municipal Pluridocente de Ensino Fundamental",
        "amenity": "school",
        "contact:phone": "(27) 3266-1269",
        "name": "EMPEF California",
        "source": "IJSN",
        "id": "node/4024906104"
      },
      "geometry": {
        "type": "Point",
        "coordinates": [
          -40.5804135,
          -20.1982474
        ]
      }
    },
    {
      "type": "Feature",
      "id": "node/4024906105",
      "properties": {
        "timestamp": "2016-02-25T02:01:28Z",
        "version": 1,
        "changeset": 37426154,
        "IJSN:administra": "Municipal",
        "IJSN:classeCnae": "Fundamental",
        "addr:city": "Santa Leopoldina",
        "addr:postcode": "29640-000",
        "addr:suburb": "Comunidade de Santa Lúcia",
        "alt_name": "Escola Municipal Pluridocente de Ensino Fundamental",
        "amenity": "school",
        "contact:phone": "(27) 3266-1269",
        "name": "EMPEF Carneiros",
        "source": "IJSN",
        "id": "node/4024906105"
      },
      "geometry": {
        "type": "Point",
        "coordinates": [
          -40.4592341,
          -19.9469374
        ]
      }
    },
    {
      "type": "Feature",
      "id": "node/4024906117",
      "properties": {
        "timestamp": "2016-02-25T02:01:30Z",
        "version": 1,
        "changeset": 37426154,
        "IJSN:administra": "Municipal",
        "IJSN:classeCnae": "Fundamental",
        "addr:city": "Santa Leopoldina",
        "addr:postcode": "29640-000",
        "addr:street": "Ponte do Balanço",
        "addr:suburb": "Comunidade Chaves",
        "alt_name": "Escola Municipal Pluridocente de Ensino Fundamental",
        "amenity": "school",
        "contact:phone": "(27) 3266-1269",
        "name": "EMPEF Fazenda Angelo Pitol",
        "source": "IJSN",
        "id": "node/4024906117"
      },
      "geometry": {
        "type": "Point",
        "coordinates": [
          -40.5319375,
          -20.0365696
        ]
      }
    },
    {
      "type": "Feature",
      "id": "node/4024906119",
      "properties": {
        "timestamp": "2016-02-25T02:01:30Z",
        "version": 1,
        "changeset": 37426154,
        "IJSN:administra": "Municipal",
        "IJSN:classeCnae": "Fundamental",
        "addr:city": "Santa Leopoldina",
        "addr:postcode": "29640-000",
        "addr:suburb": "Comunidade de Caramurú",
        "alt_name": "Escola Municipal Pluridocente de Ensino Fundamental",
        "amenity": "school",
        "contact:phone": "(27) 3266-1269",
        "name": "EMPEF Fazenda Djalma Gaede",
        "source": "IJSN",
        "id": "node/4024906119"
      },
      "geometry": {
        "type": "Point",
        "coordinates": [
          -40.6500865,
          -20.0905762
        ]
      }
    },
    {
      "type": "Feature",
      "id": "node/4024906121",
      "properties": {
        "timestamp": "2016-02-25T02:01:31Z",
        "version": 1,
        "changeset": 37426154,
        "IJSN:administra": "Municipal",
        "IJSN:classeCnae": "Infantil e Fundamental",
        "addr:city": "Santa Leopoldina",
        "addr:postcode": "29640-000",
        "addr:suburb": "Comunidade de Caramurú",
        "alt_name": "Escola Municipal Pluridocente de Ensino Fundamental",
        "amenity": "school",
        "contact:phone": "(27) 3266-1269",
        "name": "EMPEF Fazenda Paulo Jacob",
        "source": "IJSN",
        "id": "node/4024906121"
      },
      "geometry": {
        "type": "Point",
        "coordinates": [
          -40.6792927,
          -20.1277952
        ]
      }
    },
    {
      "type": "Feature",
      "id": "node/4024906134",
      "properties": {
        "timestamp": "2016-02-25T02:01:33Z",
        "version": 1,
        "changeset": 37426154,
        "IJSN:administra": "Municipal",
        "IJSN:classeCnae": "Fundamental",
        "addr:city": "Santa Leopoldina",
        "addr:postcode": "29640-000",
        "addr:suburb": "Comunidade de Rio Bonito",
        "alt_name": "Escola Municipal Pluridocente de Ensino Fundamental",
        "amenity": "school",
        "contact:phone": "(27) 3266-1269",
        "name": "EMPEF Jacob Schaeffer",
        "source": "IJSN",
        "id": "node/4024906134"
      },
      "geometry": {
        "type": "Point",
        "coordinates": [
          -40.618607,
          -20.0398412
        ]
      }
    },
    {
      "type": "Feature",
      "id": "node/4024906137",
      "properties": {
        "timestamp": "2016-02-25T02:01:34Z",
        "version": 1,
        "changeset": 37426154,
        "IJSN:administra": "Municipal",
        "IJSN:classeCnae": "Fundamental",
        "addr:city": "Santa Leopoldina",
        "addr:postcode": "29640-000",
        "addr:suburb": "Comunidade de Luxemburgo",
        "alt_name": "Escola Municipal Pluridocente de Ensino Fundamental",
        "amenity": "school",
        "contact:phone": "(27) 3266-1269",
        "name": "EMPEF Luxemburgo",
        "source": "IJSN",
        "id": "node/4024906137"
      },
      "geometry": {
        "type": "Point",
        "coordinates": [
          -40.5820863,
          -20.1170758
        ]
      }
    },
    {
      "type": "Feature",
      "id": "node/4024906155",
      "properties": {
        "timestamp": "2016-02-25T02:01:36Z",
        "version": 1,
        "changeset": 37426154,
        "IJSN:administra": "Municipal",
        "IJSN:classeCnae": "Infantil e Fundamental",
        "addr:city": "Santa Leopoldina",
        "addr:postcode": "29640-000",
        "addr:suburb": "Comunidade de Regência",
        "alt_name": "Escola Municipal Pluridocente de Ensino Fundamental",
        "amenity": "school",
        "contact:phone": "(27) 3266-1269",
        "name": "EMPEF Regência",
        "source": "IJSN",
        "id": "node/4024906155"
      },
      "geometry": {
        "type": "Point",
        "coordinates": [
          -40.4766273,
          -20.2012105
        ]
      }
    },
    {
      "type": "Feature",
      "id": "node/4024906158",
      "properties": {
        "timestamp": "2021-10-27T17:07:37Z",
        "version": 2,
        "changeset": 113047791,
        "IJSN:administra": "Municipal",
        "IJSN:classeCnae": "Fundamental",
        "addr:city": "Santa Leopoldina",
        "addr:postcode": "29640-000",
        "addr:suburb": "Comunidade Santo Antônio",
        "alt_name": "Escola Municipal Pluridocente de Ensino Fundamental",
        "amenity": "school",
        "contact:phone": "(27) 3266-1269",
        "name": "EMPEF Rio da Prata",
        "source": "IJSN",
        "id": "node/4024906158"
      },
      "geometry": {
        "type": "Point",
        "coordinates": [
          -40.5385109,
          -20.0672125
        ]
      }
    },
    {
      "type": "Feature",
      "id": "node/4024906159",
      "properties": {
        "timestamp": "2016-02-25T02:01:37Z",
        "version": 1,
        "changeset": 37426154,
        "IJSN:administra": "Municipal",
        "IJSN:classeCnae": "Fundamental",
        "addr:city": "Santa Leopoldina",
        "addr:postcode": "29640-000",
        "addr:suburb": "Comunidade Rio das Farinhas",
        "alt_name": "Escola Municipal Pluridocente de Ensino Fundamental",
        "amenity": "school",
        "contact:phone": "(27) 3266-1269",
        "name": "EMPEF Rios das Farinhas",
        "source": "IJSN",
        "id": "node/4024906159"
      },
      "geometry": {
        "type": "Point",
        "coordinates": [
          -40.6272286,
          -20.1502761
        ]
      }
    },
    {
      "type": "Feature",
      "id": "node/4024906172",
      "properties": {
        "timestamp": "2016-02-25T02:01:39Z",
        "version": 1,
        "changeset": 37426154,
        "IJSN:administra": "Municipal",
        "IJSN:classeCnae": "Infantil e Fundamental",
        "addr:city": "Santa Leopoldina",
        "addr:postcode": "29640-000",
        "addr:suburb": "Comunidade de Tirol",
        "alt_name": "Escola Municipal Pluridocente de Ensino Fundamental",
        "amenity": "school",
        "contact:phone": "(27) 3266-1269",
        "name": "EMPEF Tirol",
        "source": "IJSN",
        "id": "node/4024906172"
      },
      "geometry": {
        "type": "Point",
        "coordinates": [
          -40.5628855,
          -20.164021
        ]
      }
    },
    {
      "type": "Feature",
      "id": "node/4024906173",
      "properties": {
        "timestamp": "2016-02-25T02:01:39Z",
        "version": 1,
        "changeset": 37426154,
        "IJSN:administra": "Municipal",
        "IJSN:classeCnae": "Infantil e Fundamental",
        "addr:city": "Santa Leopoldina",
        "addr:postcode": "29640-000",
        "addr:suburb": "Comunidade de Regência",
        "alt_name": "Escola Municipal Pluridocente de Ensino Fundamental",
        "amenity": "school",
        "contact:phone": "(27) 3266-1269",
        "name": "EMPEF Três Pontes",
        "source": "IJSN",
        "id": "node/4024906173"
      },
      "geometry": {
        "type": "Point",
        "coordinates": [
          -40.4210919,
          -20.2039703
        ]
      }
    },
    {
      "type": "Feature",
      "id": "node/4024906212",
      "properties": {
        "timestamp": "2016-02-25T02:01:45Z",
        "version": 1,
        "changeset": 37426154,
        "IJSN:administra": "Municipal",
        "IJSN:classeCnae": "Fundamental",
        "addr:city": "Santa Leopoldina",
        "addr:postcode": "29640-000",
        "addr:suburb": "Comunidade de Luxemburgo de Cima",
        "alt_name": "Escola Municipal Unidocente de Ensino Fundamental",
        "amenity": "school",
        "contact:phone": "(27) 3266-1269",
        "name": "EMUEF Alto Califórnia",
        "source": "IJSN",
        "id": "node/4024906212"
      },
      "geometry": {
        "type": "Point",
        "coordinates": [
          -40.5923144,
          -20.1530145
        ]
      }
    },
    {
      "type": "Feature",
      "id": "node/4024906233",
      "properties": {
        "timestamp": "2016-02-25T02:01:48Z",
        "version": 1,
        "changeset": 37426154,
        "IJSN:administra": "Municipal",
        "IJSN:classeCnae": "Fundamental",
        "addr:city": "Santa Leopoldina",
        "addr:postcode": "29640-000",
        "addr:suburb": "Comunidade de Califórnia",
        "alt_name": "Escola Municipal Unidocente de Ensino Fundamental",
        "amenity": "school",
        "contact:phone": "(27) 3266-1269",
        "name": "EMUEF Boqueirão do Thomas",
        "source": "IJSN",
        "id": "node/4024906233"
      },
      "geometry": {
        "type": "Point",
        "coordinates": [
          -40.6117222,
          -20.2123873
        ]
      }
    },
    {
      "type": "Feature",
      "id": "node/4024906234",
      "properties": {
        "timestamp": "2016-02-25T02:01:49Z",
        "version": 1,
        "changeset": 37426154,
        "IJSN:administra": "Municipal",
        "IJSN:classeCnae": "Fundamental",
        "addr:city": "Santa Leopoldina",
        "addr:postcode": "29640-000",
        "addr:suburb": "Comunidade de Cachoeirinha",
        "alt_name": "Escola Municipal Unidocente de Ensino Fundamental",
        "amenity": "school",
        "contact:phone": "(27) 3266-1269",
        "name": "EMUEF Boqueirão",
        "source": "IJSN",
        "id": "node/4024906234"
      },
      "geometry": {
        "type": "Point",
        "coordinates": [
          -40.5036011,
          -20.2298402
        ]
      }
    },
    {
      "type": "Feature",
      "id": "node/4024906235",
      "properties": {
        "timestamp": "2016-02-25T02:01:49Z",
        "version": 1,
        "changeset": 37426154,
        "IJSN:administra": "Municipal",
        "IJSN:classeCnae": "Fundamental",
        "addr:city": "Santa Leopoldina",
        "addr:postcode": "29640-000",
        "addr:suburb": "Comunidade de Bragança",
        "alt_name": "Escola Municipal Unidocente de Ensino Fundamental",
        "amenity": "school",
        "contact:phone": "(27) 3266-1269",
        "name": "EMUEF Bragança",
        "source": "IJSN",
        "id": "node/4024906235"
      },
      "geometry": {
        "type": "Point",
        "coordinates": [
          -40.5661953,
          -20.1429671
        ]
      }
    },
    {
      "type": "Feature",
      "id": "node/4024906238",
      "properties": {
        "timestamp": "2016-02-25T02:01:49Z",
        "version": 1,
        "changeset": 37426154,
        "IJSN:administra": "Municipal",
        "IJSN:classeCnae": "Infantil e Fundamental",
        "addr:city": "Santa Leopoldina",
        "addr:postcode": "29640-000",
        "addr:suburb": "Cabeceira do Rio Bonito",
        "alt_name": "Escola Municipal Unidocente de Ensino Fundamental",
        "amenity": "school",
        "contact:phone": "(27) 3266-1269",
        "name": "EMUEF Cabeceira do Rio Bonito",
        "source": "IJSN",
        "id": "node/4024906238"
      },
      "geometry": {
        "type": "Point",
        "coordinates": [
          -40.602107,
          -19.9988927
        ]
      }
    },
    {
      "type": "Feature",
      "id": "node/4024906239",
      "properties": {
        "timestamp": "2016-02-25T02:01:49Z",
        "version": 1,
        "changeset": 37426154,
        "IJSN:administra": "Municipal",
        "IJSN:classeCnae": "Fundamental",
        "addr:city": "Santa Leopoldina",
        "addr:postcode": "29640-000",
        "addr:suburb": "Cabeceira do Rio das Farinhas",
        "alt_name": "Escola Municipal Unidocente de Ensino Fundamental",
        "amenity": "school",
        "contact:phone": "(27) 3266-1269",
        "name": "EMUEF Cabeceira do Rio das Farinhas",
        "source": "IJSN",
        "id": "node/4024906239"
      },
      "geometry": {
        "type": "Point",
        "coordinates": [
          -40.6620288,
          -20.2144581
        ]
      }
    },
    {
      "type": "Feature",
      "id": "node/4024906250",
      "properties": {
        "timestamp": "2016-02-25T02:01:51Z",
        "version": 1,
        "changeset": 37426154,
        "IJSN:administra": "Municipal",
        "IJSN:classeCnae": "Fundamental",
        "addr:city": "Santa Leopoldina",
        "addr:postcode": "29640-000",
        "addr:suburb": "Comunidade Chaves",
        "alt_name": "Escola Municipal Unidocente de Ensino Fundamental",
        "amenity": "school",
        "name": "EMUEF Chaves",
        "source": "IJSN",
        "id": "node/4024906250"
      },
      "geometry": {
        "type": "Point",
        "coordinates": [
          -40.538094,
          -20.0235187
        ]
      }
    },
    {
      "type": "Feature",
      "id": "node/4024906253",
      "properties": {
        "timestamp": "2016-02-25T02:01:51Z",
        "version": 1,
        "changeset": 37426154,
        "IJSN:administra": "Municipal",
        "IJSN:classeCnae": "Fundamental",
        "addr:city": "Santa Leopoldina",
        "addr:postcode": "29640-000",
        "addr:suburb": "Comunidade Santa Leopoldina",
        "alt_name": "Escola Municipal Unidocente de Ensino Fundamental",
        "amenity": "school",
        "name": "EMUEF Crubixá-Açú",
        "source": "IJSN",
        "id": "node/4024906253"
      },
      "geometry": {
        "type": "Point",
        "coordinates": [
          -40.5381998,
          -20.1449078
        ]
      }
    },
    {
      "type": "Feature",
      "id": "node/4024906285",
      "properties": {
        "timestamp": "2016-02-25T02:01:56Z",
        "version": 1,
        "changeset": 37426154,
        "IJSN:administra": "Municipal",
        "IJSN:classeCnae": "Fundamental",
        "addr:city": "Santa Leopoldina",
        "addr:postcode": "29640-000",
        "addr:suburb": "Comunidade Rio das Pedras",
        "alt_name": "Escola Municipal Unidocente de Ensino Fundamental",
        "amenity": "school",
        "contact:phone": "(27) 3266-1269",
        "name": "EMUEF Córrego das Pedras",
        "source": "IJSN",
        "id": "node/4024906285"
      },
      "geometry": {
        "type": "Point",
        "coordinates": [
          -40.6736303,
          -20.1738559
        ]
      }
    },
    {
      "type": "Feature",
      "id": "node/4024906295",
      "properties": {
        "timestamp": "2016-02-25T02:01:57Z",
        "version": 1,
        "changeset": 37426154,
        "IJSN:administra": "Municipal",
        "IJSN:classeCnae": "Fundamental",
        "addr:city": "Santa Leopoldina",
        "addr:postcode": "29640-000",
        "addr:suburb": "Comunidade de Santa Lúcia",
        "alt_name": "Escola Municipal Unidocente de Ensino Fundamental",
        "amenity": "school",
        "contact:phone": "(27) 3266-1269",
        "name": "EMUEF Encantado",
        "source": "IJSN",
        "id": "node/4024906295"
      },
      "geometry": {
        "type": "Point",
        "coordinates": [
          -40.513308,
          -19.9821508
        ]
      }
    },
    {
      "type": "Feature",
      "id": "node/4024906353",
      "properties": {
        "timestamp": "2016-02-25T02:02:06Z",
        "version": 1,
        "changeset": 37426154,
        "IJSN:administra": "Municipal",
        "IJSN:classeCnae": "Fundamental",
        "addr:city": "Santa Leopoldina",
        "addr:postcode": "29640-000",
        "addr:suburb": "Comunidade de Pedra Branca",
        "alt_name": "Escola Municipal Unidocente de Ensino Fundamental",
        "amenity": "school",
        "contact:phone": "(27) 3266-1269",
        "name": "EMUEF Pedra Branca",
        "source": "IJSN",
        "id": "node/4024906353"
      },
      "geometry": {
        "type": "Point",
        "coordinates": [
          -40.5006801,
          -20.0528376
        ]
      }
    },
    {
      "type": "Feature",
      "id": "node/4024906375",
      "properties": {
        "timestamp": "2016-02-25T02:02:09Z",
        "version": 1,
        "changeset": 37426154,
        "IJSN:administra": "Municipal",
        "IJSN:classeCnae": "Fundamental",
        "addr:city": "Santa Leopoldina",
        "addr:postcode": "29640-000",
        "addr:suburb": "Comunidade Rio das Pedras",
        "alt_name": "Escola Municipal Unidocente de Ensino Fundamental",
        "amenity": "school",
        "contact:phone": "(27) 3266-1269",
        "name": "EMUEF Rio das Pedras",
        "source": "IJSN",
        "id": "node/4024906375"
      },
      "geometry": {
        "type": "Point",
        "coordinates": [
          -40.6524068,
          -20.1459898
        ]
      }
    },
    {
      "type": "Feature",
      "id": "node/4024906376",
      "properties": {
        "timestamp": "2016-02-25T02:02:10Z",
        "version": 1,
        "changeset": 37426154,
        "IJSN:administra": "Municipal",
        "IJSN:classeCnae": "Fundamental",
        "addr:city": "Santa Leopoldina",
        "addr:postcode": "29640-000",
        "addr:suburb": "Comunidade Ribeirão Timbuí",
        "alt_name": "Escola Municipal Unidocente de Ensino Fundamental",
        "amenity": "school",
        "contact:phone": "(27) 3266-1269",
        "name": "EMUEF Rio do Norte",
        "source": "IJSN",
        "id": "node/4024906376"
      },
      "geometry": {
        "type": "Point",
        "coordinates": [
          -40.5872749,
          -20.0231999
        ]
      }
    },
    {
      "type": "Feature",
      "id": "node/4024906382",
      "properties": {
        "timestamp": "2016-02-25T02:02:10Z",
        "version": 1,
        "changeset": 37426154,
        "IJSN:administra": "Municipal",
        "IJSN:classeCnae": "Fundamental",
        "addr:city": "Santa Leopoldina",
        "addr:postcode": "29640-000",
        "addr:suburb": "Comunidade de Santa Lúcia",
        "alt_name": "Escola Municipal Unidocente de Ensino Fundamental",
        "amenity": "school",
        "contact:phone": "(27) 3266-1269",
        "name": "EMUEF Santa Lúcia",
        "source": "IJSN",
        "id": "node/4024906382"
      },
      "geometry": {
        "type": "Point",
        "coordinates": [
          -40.5089235,
          -19.9880392
        ]
      }
    }
  ]
}
