{
  "type": "FeatureCollection",
  "features": [
    {
      "type": "Feature",
      "id": "way/605924136",
      "properties": {
        "timestamp": "2022-11-15T20:30:21Z",
        "version": 2,
        "changeset": 128958407,
        "addr:city": "Itainópolis",
        "addr:housenumber": "119",
        "addr:postcode": "64.565-000",
        "addr:street": "Praça José Rodrigues de Araújo",
        "addr:suburb": "Centro",
        "amenity": "hospital",
        "healthcare": "hospital",
        "name": "Unidade Mista de Saúde de Itainópolis",
        "id": "way/605924136"
      },
      "geometry": {
        "type": "Polygon",
        "coordinates": [
          [
            [
              -41.4803418,
              -7.4473335
            ],
            [
              -41.4801859,
              -7.4472058
            ],
            [
              -41.4802934,
              -7.4470768
            ],
            [
              -41.4804493,
              -7.4472044
            ],
            [
              -41.4803418,
              -7.4473335
            ]
          ]
        ]
      }
    }
  ]
}
