{
  "type": "FeatureCollection",
  "features": [
    {
      "type": "Feature",
      "id": "way/407073357",
      "properties": {
        "timestamp": "2024-11-21T06:12:43Z",
        "version": 8,
        "changeset": 159394890,
        "addr:city": "Taboão da Serra",
        "addr:housenumber": "153",
        "addr:postcode": "06755-390",
        "addr:street": "Rua Maria Mari",
        "addr:suburb": "Jardim Monte Alegre",
        "amenity": "kindergarten",
        "email": "emi_narizinho@yahoo.com.br",
        "name": "Escola Municipal Infantil Narizinho",
        "operator": "Secretaria Municipal de Educação",
        "operator:type": "government",
        "phone": "+55 11 4701 4572",
        "ref": "35078232",
        "short_name": "EMI Narizinho",
        "id": "way/407073357"
      },
      "geometry": {
        "type": "Polygon",
        "coordinates": [
          [
            [
              -46.7676307,
              -23.6048617
            ],
            [
              -46.7677272,
              -23.6051493
            ],
            [
              -46.767687,
              -23.605228
            ],
            [
              -46.7677058,
              -23.6052476
            ],
            [
              -46.767518,
              -23.605577
            ],
            [
              -46.767231,
              -23.6055278
            ],
            [
              -46.7672525,
              -23.6051419
            ],
            [
              -46.767121,
              -23.6051401
            ],
            [
              -46.7671117,
              -23.605031
            ],
            [
              -46.7670325,
              -23.6048925
            ],
            [
              -46.7673598,
              -23.6049404
            ],
            [
              -46.7676307,
              -23.6048617
            ]
          ]
        ]
      }
    },
    {
      "type": "Feature",
      "id": "way/409117075",
      "properties": {
        "timestamp": "2024-11-21T06:47:30Z",
        "version": 3,
        "changeset": 159395623,
        "addr:city": "Taboão da Serra",
        "addr:housenumber": "546",
        "addr:postcode": "06767-220",
        "addr:street": "Rua Helena M. Oliveira",
        "addr:suburb": "Parque Pinheiros",
        "amenity": "kindergarten",
        "name": "EMI Pelezinho",
        "operator": "Secretaria Municipal de Educação",
        "operator:type": "government",
        "phone": "+55 11 4786 2092",
        "id": "way/409117075"
      },
      "geometry": {
        "type": "Polygon",
        "coordinates": [
          [
            [
              -46.7824686,
              -23.6159945
            ],
            [
              -46.7821119,
              -23.6159822
            ],
            [
              -46.7821441,
              -23.6156209
            ],
            [
              -46.7826215,
              -23.615643
            ],
            [
              -46.7824686,
              -23.6159945
            ]
          ]
        ]
      }
    },
    {
      "type": "Feature",
      "id": "way/413193578",
      "properties": {
        "timestamp": "2023-05-23T16:54:53Z",
        "version": 5,
        "changeset": 136465524,
        "addr:city": "Taboão da Serra",
        "addr:housenumber": "338",
        "addr:postcode": "06764-390",
        "addr:street": "Rua José Copazi",
        "addr:suburb": "Parque Albina",
        "amenity": "kindergarten",
        "barrier": "wall",
        "email": "emianjinho@yahoo.com.br",
        "name": "EMEI Anjinho",
        "operator": "Secretaria Municipal de Educação",
        "operator:type": "government",
        "phone": "+55 11 4786 2085",
        "short_name": "Escola Municipal de Educação Infantil Anjinho",
        "id": "way/413193578"
      },
      "geometry": {
        "type": "Polygon",
        "coordinates": [
          [
            [
              -46.7672418,
              -23.6174415
            ],
            [
              -46.7669252,
              -23.6174466
            ],
            [
              -46.7668802,
              -23.6174478
            ],
            [
              -46.7665311,
              -23.6174532
            ],
            [
              -46.7665285,
              -23.6172428
            ],
            [
              -46.7667174,
              -23.6171561
            ],
            [
              -46.7669538,
              -23.6170892
            ],
            [
              -46.7670326,
              -23.6171143
            ],
            [
              -46.7670756,
              -23.6173001
            ],
            [
              -46.7672418,
              -23.6174415
            ]
          ]
        ]
      }
    },
    {
      "type": "Feature",
      "id": "way/413193934",
      "properties": {
        "timestamp": "2019-03-28T13:24:32Z",
        "version": 2,
        "changeset": 68625698,
        "addr:city": "Taboão da Serra",
        "addr:housenumber": "226",
        "addr:postcode": "06775-040",
        "addr:street": "Rua Manoel Antônio Ferreira",
        "addr:suburb": "Jardim Roberto",
        "amenity": "kindergarten",
        "email": "emidonabenta@yahoo.com.br",
        "name": "Escola Municipal Infantil  Dona Benta",
        "phone": "+55 11 4138 4593",
        "ref": "35078876",
        "id": "way/413193934"
      },
      "geometry": {
        "type": "Polygon",
        "coordinates": [
          [
            [
              -46.79429,
              -23.6379911
            ],
            [
              -46.7938715,
              -23.6381533
            ],
            [
              -46.7932439,
              -23.6376225
            ],
            [
              -46.7940968,
              -23.6373227
            ],
            [
              -46.7943704,
              -23.6373424
            ],
            [
              -46.7941746,
              -23.6376373
            ],
            [
              -46.79429,
              -23.6379911
            ]
          ]
        ]
      }
    },
    {
      "type": "Feature",
      "id": "way/413196249",
      "properties": {
        "timestamp": "2016-04-24T23:33:13Z",
        "version": 1,
        "changeset": 38843970,
        "addr:city": "Taboão da Serra",
        "addr:housenumber": "438",
        "addr:street": "Rua Flávio Dohoczki",
        "addr:suburb": "Jardim Leme",
        "amenity": "kindergarten",
        "name": "EMI Dorinha",
        "phone": "+55 11 4139 9067",
        "id": "way/413196249"
      },
      "geometry": {
        "type": "Polygon",
        "coordinates": [
          [
            [
              -46.7893206,
              -23.638665
            ],
            [
              -46.7892347,
              -23.6388173
            ],
            [
              -46.7890604,
              -23.6386502
            ],
            [
              -46.7890792,
              -23.6385765
            ],
            [
              -46.7893206,
              -23.638665
            ]
          ]
        ]
      }
    },
    {
      "type": "Feature",
      "id": "way/413200847",
      "properties": {
        "timestamp": "2019-03-28T13:02:04Z",
        "version": 4,
        "changeset": 68624881,
        "addr:city": "Taboão da Serra",
        "addr:country": "BR",
        "addr:housenumber": "305",
        "addr:postcode": "06750-300",
        "addr:street": "Rua Teófilo Ottoni",
        "addr:suburb": "Parque Marabá",
        "amenity": "kindergarten",
        "email": "dirleygonzaga@yahoo.com.br",
        "name": "Escola Municipal Infantil Emília",
        "phone": "+55 11 4786 1042",
        "ref": "35078220",
        "id": "way/413200847"
      },
      "geometry": {
        "type": "Polygon",
        "coordinates": [
          [
            [
              -46.7730593,
              -23.6261177
            ],
            [
              -46.7729976,
              -23.6260368
            ],
            [
              -46.7736386,
              -23.6255501
            ],
            [
              -46.7739216,
              -23.625329
            ],
            [
              -46.7741509,
              -23.6251127
            ],
            [
              -46.7743762,
              -23.625469
            ],
            [
              -46.7730593,
              -23.6261177
            ]
          ]
        ]
      }
    },
    {
      "type": "Feature",
      "id": "way/413202567",
      "properties": {
        "timestamp": "2016-06-07T20:54:38Z",
        "version": 2,
        "changeset": 39871458,
        "addr:city": "Taboão da Serra",
        "addr:housenumber": "136",
        "addr:street": "Rua Ribeirão Preto",
        "addr:suburb": "Vila Iasi",
        "amenity": "kindergarten",
        "name": "EMI Floquinho",
        "phone": "+55 11 4139 7039",
        "id": "way/413202567"
      },
      "geometry": {
        "type": "Polygon",
        "coordinates": [
          [
            [
              -46.7910078,
              -23.6214944
            ],
            [
              -46.7910078,
              -23.6214109
            ],
            [
              -46.7911285,
              -23.6212217
            ],
            [
              -46.7913189,
              -23.6213568
            ],
            [
              -46.7910078,
              -23.6214944
            ]
          ]
        ]
      }
    },
    {
      "type": "Feature",
      "id": "way/413203457",
      "properties": {
        "timestamp": "2019-03-28T13:24:32Z",
        "version": 2,
        "changeset": 68625698,
        "addr:city": "Taboão da Serra",
        "addr:postcode": "06775-190",
        "addr:street": "Rua Joaquim Lucas Filho",
        "addr:suburb": "Jardim Roberto",
        "amenity": "kindergarten",
        "email": "emi_horacio@yahoo.com.br",
        "name": "Escola Municipal Infantil Horácio",
        "operator": "Secretaria Municipal de Educação",
        "phone": "+55 11 4138 4758",
        "ref": "35094353",
        "id": "way/413203457"
      },
      "geometry": {
        "type": "Polygon",
        "coordinates": [
          [
            [
              -46.7910342,
              -23.6368716
            ],
            [
              -46.7907928,
              -23.636616
            ],
            [
              -46.7908196,
              -23.6361295
            ],
            [
              -46.7911039,
              -23.6360975
            ],
            [
              -46.7910342,
              -23.6368716
            ]
          ]
        ]
      }
    },
    {
      "type": "Feature",
      "id": "way/979889644",
      "properties": {
        "timestamp": "2021-09-05T22:07:34Z",
        "version": 1,
        "changeset": 110766727,
        "addr:housenumber": "161",
        "addr:postcode": "06763-190",
        "addr:street": "Rua Elizabetta Lips",
        "addr:suburb": "Jardim Bontempo",
        "amenity": "kindergarten",
        "name": "Escola Municipal Infantil Pixuquinha",
        "phone": "+55 11 4787 3594",
        "preschool": "yes",
        "ref": "INEP-35495517",
        "source": "CADMEC 2017;INEP",
        "id": "way/979889644"
      },
      "geometry": {
        "type": "Polygon",
        "coordinates": [
          [
            [
              -46.758736,
              -23.6107663
            ],
            [
              -46.758614,
              -23.6108293
            ],
            [
              -46.7585223,
              -23.6107453
            ],
            [
              -46.7586503,
              -23.6106568
            ],
            [
              -46.758736,
              -23.6107663
            ]
          ]
        ]
      }
    },
    {
      "type": "Feature",
      "id": "way/993344242",
      "properties": {
        "timestamp": "2021-10-16T21:56:11Z",
        "version": 1,
        "changeset": 112594321,
        "addr:city": "Taboão da Serra",
        "addr:country": "BR",
        "addr:housenumber": "1985",
        "addr:postcode": "06766-361",
        "addr:street": "Estrada Benedito Cesário de Oliveira",
        "addr:suburb": "Jardim Record",
        "amenity": "kindergarten",
        "email": "emi_franjinha@yahoo.com.br",
        "name": "Escola Municipal Infantil Franjinha",
        "operator": "Secretaria Municipal de Educação",
        "phone": "+55 11 4138 5159",
        "ref": "35091200",
        "id": "way/993344242"
      },
      "geometry": {
        "type": "Polygon",
        "coordinates": [
          [
            [
              -46.7829274,
              -23.6314705
            ],
            [
              -46.7829824,
              -23.6316438
            ],
            [
              -46.7829086,
              -23.6317961
            ],
            [
              -46.782635,
              -23.631833
            ],
            [
              -46.7824338,
              -23.6317777
            ],
            [
              -46.7823775,
              -23.6315836
            ],
            [
              -46.7829274,
              -23.6314705
            ]
          ]
        ]
      }
    },
    {
      "type": "Feature",
      "id": "node/5695243158",
      "properties": {
        "timestamp": "2024-11-21T07:34:43Z",
        "version": 2,
        "changeset": 159397006,
        "addr:postcode": "06790-240",
        "addr:street": "Rua João Pires de Camargo",
        "addr:suburb": "Jardim Mirna",
        "amenity": "kindergarten",
        "name": "Educação Infantil Jane Suzana",
        "operator": "Associação Cristã Feminina",
        "religion": "christian",
        "website": "http://www.ymca.org.br/",
        "id": "node/5695243158"
      },
      "geometry": {
        "type": "Point",
        "coordinates": [
          -46.7820996,
          -23.6105876
        ]
      }
    },
    {
      "type": "Feature",
      "id": "node/10922132756",
      "properties": {
        "timestamp": "2023-05-23T16:54:53Z",
        "version": 1,
        "changeset": 136465524,
        "addr:city": "Taboão da Serra",
        "addr:housenumber": "338",
        "addr:postcode": "06764-390",
        "addr:street": "Rua José Copazi",
        "entrance": "main",
        "id": "node/10922132756"
      },
      "geometry": {
        "type": "Point",
        "coordinates": [
          -46.7668802,
          -23.6174478
        ]
      }
    }
  ]
}
