{
  "type": "FeatureCollection",
  "features": [
    {
      "type": "Feature",
      "id": "node/2510797552",
      "properties": {
        "timestamp": "2016-07-30T19:28:22Z",
        "version": 2,
        "changeset": 41132721,
        "name": "Hotel-Fazenda Ipê",
        "tourism": "hotel",
        "id": "node/2510797552"
      },
      "geometry": {
        "type": "Point",
        "coordinates": [
          -48.8196472,
          -27.4918486
        ]
      }
    },
    {
      "type": "Feature",
      "id": "node/8458516896",
      "properties": {
        "timestamp": "2021-04-30T22:49:43Z",
        "version": 2,
        "changeset": 103937973,
        "addr:city": "Antônio Carlos",
        "addr:housenumber": "1000",
        "addr:postcode": "88180-000",
        "addr:street": "Rua Agostinho Erasmo Kons",
        "addr:suburb": "Louro",
        "name": "Pousada Verde Ambiente",
        "tourism": "hotel",
        "id": "node/8458516896"
      },
      "geometry": {
        "type": "Point",
        "coordinates": [
          -48.8351003,
          -27.5438086
        ]
      }
    }
  ]
}
