{
  "type": "FeatureCollection",
  "features": [
    {
      "type": "Feature",
      "id": "way/976044647",
      "properties": {
        "timestamp": "2021-08-24T15:06:43Z",
        "version": 1,
        "changeset": 110179867,
        "addr:city": "Pirapemas",
        "addr:housenumber": "216",
        "addr:postcode": "65460-000",
        "addr:street": "Avenida Senador Vitorino Freire",
        "addr:suburb": "Centrinho",
        "amenity": "school",
        "name": "Centro De Ensino Pirapemas",
        "id": "way/976044647"
      },
      "geometry": {
        "type": "Polygon",
        "coordinates": [
          [
            [
              -44.2245412,
              -3.7310529
            ],
            [
              -44.2243894,
              -3.7314738
            ],
            [
              -44.2240688,
              -3.7313588
            ],
            [
              -44.2242206,
              -3.7309378
            ],
            [
              -44.2245412,
              -3.7310529
            ]
          ]
        ]
      }
    },
    {
      "type": "Feature",
      "id": "node/9032677467",
      "properties": {
        "timestamp": "2021-08-24T16:00:54Z",
        "version": 1,
        "changeset": 110182584,
        "addr:city": "Pirapemas",
        "addr:postcode": "65460-000",
        "addr:street": "Rua Deputado Lister Caldas",
        "addr:suburb": "Centrinho",
        "amenity": "school",
        "name": "Ji Pato Donald",
        "id": "node/9032677467"
      },
      "geometry": {
        "type": "Point",
        "coordinates": [
          -44.2248859,
          -3.7292061
        ]
      }
    },
    {
      "type": "Feature",
      "id": "node/9041497734",
      "properties": {
        "timestamp": "2021-08-27T18:10:16Z",
        "version": 1,
        "changeset": 110354210,
        "addr:city": "Pirapemas",
        "addr:housenumber": "49",
        "addr:postcode": "65460-000",
        "addr:street": "Avenida Engenheiro Celso Castelo Branco",
        "addr:suburb": "Centro",
        "amenity": "school",
        "name": "Centro De Ensino Ribamar Pinheiro",
        "id": "node/9041497734"
      },
      "geometry": {
        "type": "Point",
        "coordinates": [
          -44.2243816,
          -3.7265095
        ]
      }
    }
  ]
}
