{
  "type": "FeatureCollection",
  "features": [
    {
      "type": "Feature",
      "id": "node/9978768754",
      "properties": {
        "timestamp": "2022-08-25T23:32:14Z",
        "version": 1,
        "changeset": 125382703,
        "addr:city": "Janduís",
        "addr:postcode": "59690-000",
        "addr:street": "Rua Adrião Fernandes",
        "addr:suburb": "Centro",
        "amenity": "pharmacy",
        "dispensing": "yes",
        "healthcare": "pharmacy",
        "id": "node/9978768754"
      },
      "geometry": {
        "type": "Point",
        "coordinates": [
          -37.408959,
          -6.0157065
        ]
      }
    },
    {
      "type": "Feature",
      "id": "node/9978768755",
      "properties": {
        "timestamp": "2022-08-25T23:32:14Z",
        "version": 1,
        "changeset": 125382703,
        "addr:city": "Janduís",
        "addr:housenumber": "74",
        "addr:postcode": "59690-000",
        "addr:street": "Rua Santa Terezinha",
        "addr:suburb": "Centro",
        "amenity": "pharmacy",
        "dispensing": "yes",
        "healthcare": "pharmacy",
        "name": "Farmácia Santa Terezinha",
        "id": "node/9978768755"
      },
      "geometry": {
        "type": "Point",
        "coordinates": [
          -37.4071734,
          -6.0165179
        ]
      }
    }
  ]
}
