{
  "type": "FeatureCollection",
  "features": [
    {
      "type": "Feature",
      "id": "node/9026824999",
      "properties": {
        "timestamp": "2021-08-22T18:32:26Z",
        "version": 1,
        "changeset": 110074333,
        "addr:city": "Araguanã",
        "addr:postcode": "65368-000",
        "addr:street": "Avenida Major Silva Filho",
        "amenity": "school",
        "name": "Centro Educacional Vieira da Silva",
        "id": "node/9026824999"
      },
      "geometry": {
        "type": "Point",
        "coordinates": [
          -45.6656693,
          -2.9487023
        ]
      }
    },
    {
      "type": "Feature",
      "id": "node/9026836436",
      "properties": {
        "timestamp": "2021-08-22T18:30:19Z",
        "version": 1,
        "changeset": 110074249,
        "addr:city": "Araguanã",
        "addr:postcode": "65368-000",
        "addr:street": "Rua do Sol",
        "amenity": "school",
        "name": "UI Antônio da Silva Furtado",
        "id": "node/9026836436"
      },
      "geometry": {
        "type": "Point",
        "coordinates": [
          -45.668992,
          -2.9515282
        ]
      }
    },
    {
      "type": "Feature",
      "id": "node/9026907846",
      "properties": {
        "timestamp": "2021-08-22T19:18:14Z",
        "version": 1,
        "changeset": 110076073,
        "addr:city": "Araguanã",
        "addr:postcode": "65368-000",
        "addr:street": "Rua São Sebastião",
        "amenity": "school",
        "name": "Centro de Ensino Princesa Isabel - Anexo I - Ze Doca",
        "id": "node/9026907846"
      },
      "geometry": {
        "type": "Point",
        "coordinates": [
          -45.6691374,
          -2.952072
        ]
      }
    },
    {
      "type": "Feature",
      "id": "node/9026944310",
      "properties": {
        "timestamp": "2021-08-22T19:35:38Z",
        "version": 1,
        "changeset": 110076651,
        "amenity": "school",
        "name": "EM Bela Vista",
        "id": "node/9026944310"
      },
      "geometry": {
        "type": "Point",
        "coordinates": [
          -45.6377743,
          -3.0671675
        ]
      }
    },
    {
      "type": "Feature",
      "id": "node/9026947006",
      "properties": {
        "timestamp": "2021-08-22T19:44:34Z",
        "version": 1,
        "changeset": 110076936,
        "amenity": "school",
        "name": "EM São Francisco",
        "id": "node/9026947006"
      },
      "geometry": {
        "type": "Point",
        "coordinates": [
          -45.8217551,
          -3.1359806
        ]
      }
    }
  ]
}
