{
  "type": "FeatureCollection",
  "features": [
    {
      "type": "Feature",
      "id": "node/11449599213",
      "properties": {
        "timestamp": "2023-12-24T15:04:33Z",
        "version": 1,
        "changeset": 145471981,
        "addr:city": "Águas Formosas",
        "addr:housenumber": "580",
        "addr:postcode": "39880-000",
        "addr:street": "Rua Doutor Sebastião Figueiredo",
        "addr:suburb": "Centro",
        "email": "contabilidadedibai@ig.com.br",
        "name": "Havay Palace Hotel",
        "phone": "+55 33 3611 1420",
        "tourism": "hotel",
        "id": "node/11449599213"
      },
      "geometry": {
        "type": "Point",
        "coordinates": [
          -40.9353892,
          -17.0814659
        ]
      }
    },
    {
      "type": "Feature",
      "id": "node/11449599214",
      "properties": {
        "timestamp": "2023-12-24T15:04:33Z",
        "version": 1,
        "changeset": 145471981,
        "addr:city": "Águas Formosas",
        "addr:housenumber": "72",
        "addr:postcode": "39880-000",
        "addr:street": "Rua Teófilo Otoni",
        "addr:suburb": "Centro",
        "name": "Hotel Solar Dos Viajantes",
        "phone": "+55 33 3611 1600",
        "tourism": "hotel",
        "id": "node/11449599214"
      },
      "geometry": {
        "type": "Point",
        "coordinates": [
          -40.9356599,
          -17.0843351
        ]
      }
    }
  ]
}
