{
  "type": "FeatureCollection",
  "features": [
    {
      "type": "Feature",
      "id": "way/1233308676",
      "properties": {
        "timestamp": "2023-12-22T15:13:45Z",
        "version": 1,
        "changeset": 145410410,
        "addr:city": "Águas Formosas",
        "addr:housenumber": "336",
        "addr:postcode": "39880-000",
        "addr:street": "Rua João Antônio Duarte",
        "amenity": "school",
        "name": "Escola Estadual Carlos Magno Rebouças",
        "operator": "Secretaria de Educação do Estado de Minas Gerais",
        "operator:type": "public",
        "phone": "+55 33 3611 1554",
        "id": "way/1233308676"
      },
      "geometry": {
        "type": "Polygon",
        "coordinates": [
          [
            [
              -40.9424437,
              -17.0848674
            ],
            [
              -40.9424783,
              -17.0853979
            ],
            [
              -40.9412735,
              -17.0857653
            ],
            [
              -40.9408891,
              -17.0845253
            ],
            [
              -40.9418429,
              -17.0846076
            ],
            [
              -40.941821,
              -17.0848207
            ],
            [
              -40.9424437,
              -17.0848674
            ]
          ]
        ]
      }
    },
    {
      "type": "Feature",
      "id": "way/1233308680",
      "properties": {
        "timestamp": "2023-12-22T15:13:45Z",
        "version": 1,
        "changeset": 145410410,
        "addr:city": "Águas Formosas",
        "addr:housenumber": "296",
        "addr:postcode": "39880-000",
        "addr:street": "Rua Rosário Viana",
        "addr:suburb": "Centro",
        "amenity": "school",
        "name": "Escola Estadual Capitão Inacio Soares",
        "operator": "Secretaria de Estado da Educação de Minas Gerais",
        "operator:type": "public",
        "phone": "+55 33 3611 1059",
        "id": "way/1233308680"
      },
      "geometry": {
        "type": "Polygon",
        "coordinates": [
          [
            [
              -40.9365726,
              -17.0811177
            ],
            [
              -40.936024,
              -17.0812995
            ],
            [
              -40.9357265,
              -17.080458
            ],
            [
              -40.9362654,
              -17.0802832
            ],
            [
              -40.9365726,
              -17.0811177
            ]
          ]
        ]
      }
    },
    {
      "type": "Feature",
      "id": "way/1233308681",
      "properties": {
        "timestamp": "2023-12-22T15:13:45Z",
        "version": 1,
        "changeset": 145410410,
        "addr:city": "Águas Formosas",
        "addr:housenumber": "126",
        "addr:postcode": "39880-000",
        "addr:street": "Praça Minas Gerais",
        "addr:suburb": "Centro",
        "amenity": "school",
        "name": "Escola Estadual José Quaresma da Costa",
        "operator": "Secretaria de Estado da Educação de Minas Gerais",
        "operator:type": "public",
        "id": "way/1233308681"
      },
      "geometry": {
        "type": "Polygon",
        "coordinates": [
          [
            [
              -40.9371383,
              -17.0808683
            ],
            [
              -40.9374041,
              -17.0815908
            ],
            [
              -40.936914,
              -17.0817516
            ],
            [
              -40.9365677,
              -17.0807774
            ],
            [
              -40.9368457,
              -17.0806865
            ],
            [
              -40.9369384,
              -17.0809335
            ],
            [
              -40.9371383,
              -17.0808683
            ]
          ]
        ]
      }
    },
    {
      "type": "Feature",
      "id": "way/1233308682",
      "properties": {
        "timestamp": "2023-12-22T15:13:45Z",
        "version": 1,
        "changeset": 145410410,
        "addr:city": "Águas Formosas",
        "addr:housenumber": "234",
        "addr:postcode": "39880-000",
        "addr:street": "Avenida São Vicente",
        "addr:suburb": "Centro",
        "amenity": "school",
        "name": "Escola Estadual Cesário Matias de Almeida",
        "operator": "Secretaria de Estado da Educação de Minas Gerais",
        "operator:type": "public",
        "phone": "+55 33 3611 1543",
        "id": "way/1233308682"
      },
      "geometry": {
        "type": "Polygon",
        "coordinates": [
          [
            [
              -40.935808,
              -17.0863929
            ],
            [
              -40.9351871,
              -17.0866014
            ],
            [
              -40.935091,
              -17.0863329
            ],
            [
              -40.9357267,
              -17.0861209
            ],
            [
              -40.935808,
              -17.0863929
            ]
          ]
        ]
      }
    },
    {
      "type": "Feature",
      "id": "way/1233525585",
      "properties": {
        "timestamp": "2023-12-23T14:10:27Z",
        "version": 1,
        "changeset": 145438569,
        "addr:city": "Águas Formosas",
        "addr:housenumber": "150",
        "addr:postcode": "39880-000",
        "addr:street": "Avenida Presidente Getúlio Vargas",
        "addr:suburb": "Centro",
        "amenity": "school",
        "name": "Escola Estadual Major Raimundo Felicissimo",
        "operator": "Secretaria de Estado da Educação de Minas Gerais",
        "operator:type": "public",
        "phone": "+55 33 3611 1125",
        "id": "way/1233525585"
      },
      "geometry": {
        "type": "Polygon",
        "coordinates": [
          [
            [
              -40.9311927,
              -17.0803797
            ],
            [
              -40.9306281,
              -17.0804507
            ],
            [
              -40.9307342,
              -17.0800875
            ],
            [
              -40.9307703,
              -17.0800551
            ],
            [
              -40.9308446,
              -17.0800267
            ],
            [
              -40.9309125,
              -17.0800307
            ],
            [
              -40.9310017,
              -17.080049
            ],
            [
              -40.9310781,
              -17.080118
            ],
            [
              -40.9311927,
              -17.0803797
            ]
          ]
        ]
      }
    },
    {
      "type": "Feature",
      "id": "way/1233525586",
      "properties": {
        "timestamp": "2023-12-23T14:10:27Z",
        "version": 1,
        "changeset": 145438569,
        "addr:city": "Águas Formosas",
        "addr:housenumber": "820",
        "addr:postcode": "39880-000",
        "addr:street": "Rua José Quaresma da Costa",
        "addr:suburb": "Copasa",
        "amenity": "school",
        "name": "Centro Municipal de Educação Infantil Betania Pinto de Oliveira",
        "operator": "Município de Águas Formosas",
        "operator:type": "public",
        "id": "way/1233525586"
      },
      "geometry": {
        "type": "Polygon",
        "coordinates": [
          [
            [
              -40.9414126,
              -17.0817902
            ],
            [
              -40.9410288,
              -17.0818866
            ],
            [
              -40.9409,
              -17.0813029
            ],
            [
              -40.9413257,
              -17.0811691
            ],
            [
              -40.9414126,
              -17.0817902
            ]
          ]
        ]
      }
    },
    {
      "type": "Feature",
      "id": "way/1243797414",
      "properties": {
        "timestamp": "2024-01-28T20:04:16Z",
        "version": 1,
        "changeset": 146793603,
        "addr:city": "Águas Formosas",
        "addr:postcode": "39880-000",
        "amenity": "school",
        "name": "Escola Municipal Sebastião Lima Filho",
        "ref:INEP": "31312169",
        "wikidata": "Q124370588",
        "id": "way/1243797414"
      },
      "geometry": {
        "type": "Polygon",
        "coordinates": [
          [
            [
              -40.984198,
              -17.0012777
            ],
            [
              -40.9848568,
              -17.0013935
            ],
            [
              -40.9847704,
              -17.0018432
            ],
            [
              -40.9843414,
              -17.0017678
            ],
            [
              -40.9841115,
              -17.0017274
            ],
            [
              -40.984198,
              -17.0012777
            ]
          ]
        ]
      }
    },
    {
      "type": "Feature",
      "id": "node/11554798434",
      "properties": {
        "timestamp": "2024-01-26T20:08:07Z",
        "version": 1,
        "changeset": 146723531,
        "addr:city": "Águas Formosas",
        "addr:district": "Água Quente",
        "addr:housenumber": "166",
        "addr:postcode": "39880-000",
        "addr:street": "Rua Joaquim Pinto da Rocha",
        "addr:suburb": "Centro",
        "amenity": "school",
        "email": "escola.145947@educacao.mg.gov.br",
        "name": "Escola Estadual de Água Quente",
        "operator": "Secretaria de Estado da Educação de Minas Gerais",
        "operator:type": "public",
        "phone": "+55 33 3611 3012",
        "id": "node/11554798434"
      },
      "geometry": {
        "type": "Point",
        "coordinates": [
          -41.0462252,
          -17.0366585
        ]
      }
    }
  ]
}
