{
  "type": "FeatureCollection",
  "features": [
    {
      "type": "Feature",
      "id": "node/3213142038",
      "properties": {
        "timestamp": "2023-07-23T22:15:34Z",
        "version": 5,
        "changeset": 138912543,
        "addr:city": "Sapiranga",
        "addr:housenumber": "527",
        "addr:postcode": "93800-048",
        "addr:street": "Rua Get√∫lio Vargas",
        "addr:suburb": "Centro",
        "amenity": "hospital",
        "contact:facebook": "https://www.facebook.com/hospitalsapiranga",
        "contact:instagram": "https://www.instagram.com/hospitalsapiranga/",
        "contact:twitter": "https://twitter.com/hospsbs",
        "contact:youtube": "https://www.youtube.com/channel/UCOno_W7-97AGreB160dFrTw",
        "emergency": "yes",
        "healthcare": "hospital",
        "name": "Hospital Sapiranga",
        "operator": "Sociedade Beneficente Sapiranguense",
        "operator:type": "private_non_profit",
        "phone": "+55 51 3599-8100",
        "ref:CNES": "2232154",
        "ref:vatin": "BR97279350000170",
        "website": "https://www.hospitalsapiranga.com.br/",
        "wheelchair": "yes",
        "id": "node/3213142038"
      },
      "geometry": {
        "type": "Point",
        "coordinates": [
          -51.0069225,
          -29.6405606
        ]
      }
    }
  ]
}
