{
  "type": "FeatureCollection",
  "features": [
    {
      "type": "Feature",
      "id": "way/1164325503",
      "properties": {
        "timestamp": "2025-02-14T15:17:10Z",
        "version": 13,
        "changeset": 162507105,
        "addr:country": "BR",
        "addr:housenumber": "730",
        "addr:postcode": "09571-380",
        "addr:state": "SP",
        "addr:street": "Rua Visconde de Inhaúma",
        "addr:suburb": "São José",
        "alt_name": "Edifício Milton Andrade",
        "amenity": "arts_centre",
        "building": "yes",
        "check_date": "2023-05-26",
        "email": "fascs@fascs.com.br",
        "height": "14",
        "name": "Fundação das Artes de São Caetano do Sul (FASCS) - Unidade Milton Andrade",
        "phone": "+55 11 4239 2020",
        "source": "local knowledge",
        "website": "https://www.fascs.com.br/Institucional/Unidade1",
        "id": "way/1164325503"
      },
      "geometry": {
        "type": "Polygon",
        "coordinates": [
          [
            [
              -46.5646345,
              -23.6345296
            ],
            [
              -46.5646287,
              -23.6350211
            ],
            [
              -46.5643862,
              -23.6350188
            ],
            [
              -46.5643863,
              -23.6350014
            ],
            [
              -46.5643872,
              -23.6348326
            ],
            [
              -46.5643914,
              -23.6345272
            ],
            [
              -46.5646345,
              -23.6345296
            ]
          ]
        ]
      }
    },
    {
      "type": "Feature",
      "id": "node/10832234216",
      "properties": {
        "timestamp": "2023-04-22T17:41:23Z",
        "version": 1,
        "changeset": 135237640,
        "addr:housenumber": "554",
        "addr:postcode": "09541-150",
        "addr:street": "Rua Piauí",
        "amenity": "arts_centre",
        "email": "email@scaetano.sescsp.org.br",
        "name": "Sesc São Caetano",
        "phone": "+55 11 4223 8800",
        "website": "https://www.sesc.com.br/unidade/sesc-sao-caetano/",
        "id": "node/10832234216"
      },
      "geometry": {
        "type": "Point",
        "coordinates": [
          -46.5661044,
          -23.6191581
        ]
      }
    }
  ]
}
