{
  "type": "FeatureCollection",
  "features": [
    {
      "type": "Feature",
      "id": "way/559561509",
      "properties": {
        "timestamp": "2018-02-07T22:11:00Z",
        "version": 1,
        "changeset": 56162811,
        "building": "yes",
        "name": "Pedal Center",
        "shop": "bicycle",
        "id": "way/559561509"
      },
      "geometry": {
        "type": "Polygon",
        "coordinates": [
          [
            [
              -46.5573361,
              -23.6262137
            ],
            [
              -46.5573151,
              -23.6262993
            ],
            [
              -46.5571493,
              -23.6262437
            ],
            [
              -46.5571726,
              -23.6261592
            ],
            [
              -46.5573361,
              -23.6262137
            ]
          ]
        ]
      }
    },
    {
      "type": "Feature",
      "id": "way/1163689081",
      "properties": {
        "timestamp": "2023-05-27T02:27:29Z",
        "version": 4,
        "changeset": 136609230,
        "addr:city": "São Caetano do Sul",
        "addr:housenumber": "1522",
        "addr:postcode": "09570-000",
        "addr:street": "Avenida Presidente Kennedy",
        "addr:suburb": "Santa Paula",
        "building": "retail",
        "check_date": "2023-05-26",
        "currency:BRL": "yes",
        "name": "Bike Manya",
        "opening_hours": "Mo-Fr 09:00-19:00;Sa 09:00-17:00;Su 10:00-14:00",
        "payment:cash": "yes",
        "payment:contactless": "yes",
        "payment:credit_cards": "yes",
        "payment:debit_cards": "yes",
        "phone": "+55 11 4226-4578",
        "shop": "bicycle",
        "source": "local knowledge",
        "id": "way/1163689081"
      },
      "geometry": {
        "type": "Polygon",
        "coordinates": [
          [
            [
              -46.5580955,
              -23.6253064
            ],
            [
              -46.5579094,
              -23.625317
            ],
            [
              -46.557905,
              -23.6252516
            ],
            [
              -46.5580911,
              -23.625241
            ],
            [
              -46.5580955,
              -23.6253064
            ]
          ]
        ]
      }
    },
    {
      "type": "Feature",
      "id": "way/1163695997",
      "properties": {
        "timestamp": "2023-04-18T18:34:05Z",
        "version": 1,
        "changeset": 135072289,
        "addr:city": "São Caetano do Sul",
        "addr:housenumber": "22",
        "addr:postcode": "09561-060",
        "addr:street": "Rua Carmen Miranda",
        "addr:suburb": "Boa Vista",
        "building": "yes",
        "name": "Gerson Bike",
        "shop": "bicycle",
        "id": "way/1163695997"
      },
      "geometry": {
        "type": "Polygon",
        "coordinates": [
          [
            [
              -46.5586313,
              -23.6378546
            ],
            [
              -46.558759,
              -23.6379024
            ],
            [
              -46.5587609,
              -23.6379963
            ],
            [
              -46.5586217,
              -23.6379927
            ],
            [
              -46.5586313,
              -23.6378546
            ]
          ]
        ]
      }
    },
    {
      "type": "Feature",
      "id": "way/1163697455",
      "properties": {
        "timestamp": "2023-04-18T18:39:30Z",
        "version": 1,
        "changeset": 135072496,
        "addr:housenumber": "193",
        "addr:street": "Alameda São Caetano",
        "building": "yes",
        "name": "Oficina Bike",
        "shop": "bicycle",
        "id": "way/1163697455"
      },
      "geometry": {
        "type": "Polygon",
        "coordinates": [
          [
            [
              -46.5582187,
              -23.6202523
            ],
            [
              -46.5582094,
              -23.6203204
            ],
            [
              -46.5580502,
              -23.6203104
            ],
            [
              -46.5580557,
              -23.6202364
            ],
            [
              -46.5582187,
              -23.6202523
            ]
          ]
        ]
      }
    },
    {
      "type": "Feature",
      "id": "node/10788241913",
      "properties": {
        "timestamp": "2023-04-05T15:17:41Z",
        "version": 1,
        "changeset": 134543306,
        "addr:city": "São Caetano do Sul",
        "addr:housenumber": "947",
        "addr:postcode": "09581-170",
        "addr:street": "Rua Engenheiro Armando de Arruda Pereira",
        "addr:suburb": "Cerâmica",
        "amenity": "bicycle_repair_station",
        "currency:BRL": "yes",
        "name": "Bicicletaria Martins",
        "payment:cash": "yes",
        "payment:credit_cards": "yes",
        "payment:debit_cards": "yes",
        "phone": "+55 11 2311 1619",
        "phone2": "+55 11 96082 7424",
        "service:bicycle:bicycle": "yes",
        "service:bicycle:chain_tool": "yes",
        "service:bicycle:clothing": "yes",
        "service:bicycle:ebike": "yes",
        "service:bicycle:parts": "yes",
        "service:bicycle:pump": "yes",
        "service:bicycle:repair": "yes",
        "service:bicycle:retail": "yes",
        "service:bicycle:sales": "yes",
        "service:bicycle:second_hand": "yes",
        "service:bicycle:service": "yes",
        "shop": "bicycle",
        "id": "node/10788241913"
      },
      "geometry": {
        "type": "Point",
        "coordinates": [
          -46.5761292,
          -23.6310849
        ]
      }
    },
    {
      "type": "Feature",
      "id": "node/12374838572",
      "properties": {
        "timestamp": "2024-11-26T01:18:56Z",
        "version": 2,
        "changeset": 159595262,
        "addr:housenumber": "1294",
        "addr:street": "Avenida Goiás",
        "mobile": "+55 11 91326 9069",
        "name": "Conserta Bike",
        "shop": "bicycle",
        "id": "node/12374838572"
      },
      "geometry": {
        "type": "Point",
        "coordinates": [
          -46.5640604,
          -23.6166485
        ]
      }
    }
  ]
}
