{
  "type": "FeatureCollection",
  "features": [
    {
      "type": "Feature",
      "id": "way/372287599",
      "properties": {
        "timestamp": "2015-09-25T00:33:34Z",
        "version": 1,
        "changeset": 34236776,
        "addr:street": "Rua Conceição",
        "amenity": "clinic",
        "building": "yes",
        "name": "Centro Médico Santamália",
        "id": "way/372287599"
      },
      "geometry": {
        "type": "Polygon",
        "coordinates": [
          [
            [
              -46.5744629,
              -23.6186151
            ],
            [
              -46.5744589,
              -23.6188523
            ],
            [
              -46.5743422,
              -23.6188498
            ],
            [
              -46.5743395,
              -23.6186176
            ],
            [
              -46.5744629,
              -23.6186151
            ]
          ]
        ]
      }
    },
    {
      "type": "Feature",
      "id": "way/426504789",
      "properties": {
        "timestamp": "2023-10-28T16:40:38Z",
        "version": 5,
        "changeset": 143271731,
        "addr:city": "São Caetano do Sul",
        "addr:housenumber": "1153",
        "addr:postcode": "09540-420",
        "addr:street": "Rua Oswaldo Cruz",
        "addr:suburb": "Oswaldo Cruz",
        "amenity": "clinic",
        "building": "yes",
        "healthcare": "clinic",
        "healthcare:speciality": "general;paediatrics;vaccination;gynaecology",
        "name": "Unidade Básica de Saúde Nair Spina Benedictis",
        "opening_hours": "Mo-Fr 07:00-21:00; Sa 07:00-12:00; Su, PH off",
        "phone": "+55 11 4232 1274",
        "ref": "CNES-2706423",
        "short_name": "UBS Nair Spina Benedictis",
        "source": "CNES",
        "website": "https://www.saocaetanodosul.sp.gov.br/guia/ubs10.html",
        "id": "way/426504789"
      },
      "geometry": {
        "type": "Polygon",
        "coordinates": [
          [
            [
              -46.567698,
              -23.6267821
            ],
            [
              -46.5676539,
              -23.626906
            ],
            [
              -46.5676179,
              -23.6268933
            ],
            [
              -46.5675957,
              -23.6269463
            ],
            [
              -46.5674475,
              -23.6268919
            ],
            [
              -46.5674839,
              -23.6268656
            ],
            [
              -46.5675297,
              -23.6268604
            ],
            [
              -46.567576,
              -23.6267425
            ],
            [
              -46.567698,
              -23.6267821
            ]
          ]
        ]
      }
    },
    {
      "type": "Feature",
      "id": "way/430056599",
      "properties": {
        "timestamp": "2025-02-14T09:16:38Z",
        "version": 4,
        "changeset": 162495102,
        "addr:housenumber": "11",
        "addr:postcode": "09572-080",
        "addr:street": "Rua Vanda",
        "addr:suburb": "Boa Vista",
        "amenity": "clinic",
        "building": "yes",
        "emergency": "no",
        "healthcare": "clinic",
        "healthcare:speciality": "general;gynaecology;paediatrics;vaccination",
        "name": "Unidade Básica de Saúde Doutor Ângelo Antenor Zambom",
        "opening_hours": "Mo-Fr 07:00-17:00; Sa,Su,PH off",
        "ref:CNES": "5877121",
        "source": "CNES",
        "id": "way/430056599"
      },
      "geometry": {
        "type": "Polygon",
        "coordinates": [
          [
            [
              -46.5611674,
              -23.640762
            ],
            [
              -46.5609506,
              -23.6413485
            ],
            [
              -46.5608581,
              -23.6413238
            ],
            [
              -46.5610379,
              -23.6407983
            ],
            [
              -46.5609601,
              -23.6407593
            ],
            [
              -46.5609798,
              -23.6406868
            ],
            [
              -46.5611031,
              -23.640717
            ],
            [
              -46.5610936,
              -23.6407397
            ],
            [
              -46.5611674,
              -23.640762
            ]
          ]
        ]
      }
    },
    {
      "type": "Feature",
      "id": "way/1163734947",
      "properties": {
        "timestamp": "2025-02-15T12:58:27Z",
        "version": 4,
        "changeset": 162535259,
        "addr:housenumber": "58",
        "addr:postcode": "09580-430",
        "addr:street": "Rua General Estilav Leal",
        "addr:suburb": "Mauá",
        "amenity": "clinic",
        "building": "yes",
        "healthcare": "clinic",
        "healthcare:speciality": "general;gynaecology;paediatrics;vaccination",
        "name": "Unidade Básica de Saúde Darcy Sarmanho Vargas",
        "opening_hours": "Mo-Fr 07:00-17:00; Sa,Su,PH off",
        "operator": "Secretaria Municipal de Saúde",
        "operator:ref:vatin": "BR59307595000175",
        "operator:type": "government",
        "ref": "CNES-2032120",
        "ref:CNES": "2032120",
        "source": "CNES",
        "id": "way/1163734947"
      },
      "geometry": {
        "type": "Polygon",
        "coordinates": [
          [
            [
              -46.5700849,
              -23.646325
            ],
            [
              -46.5701204,
              -23.6464399
            ],
            [
              -46.5699386,
              -23.6464877
            ],
            [
              -46.5699093,
              -23.6463729
            ],
            [
              -46.5700849,
              -23.646325
            ]
          ]
        ]
      }
    },
    {
      "type": "Feature",
      "id": "way/1163880148",
      "properties": {
        "timestamp": "2023-04-19T12:48:47Z",
        "version": 1,
        "changeset": 135101381,
        "addr:housenumber": "301",
        "addr:postcode": "09572-400",
        "addr:street": "Avenida Tietê",
        "addr:suburb": "Nova Gerty",
        "amenity": "clinic",
        "building": "yes",
        "healthcare": "clinic",
        "healthcare:speciality": "general",
        "name": "Centro Políclinico Gentil Rstom",
        "opening_hours": "Mo-Fr 07:00-21:00; Sa 08:00-12:00, Su, PH off",
        "operator": "Secretaria da Saúde",
        "operator:type": "government",
        "phone": "+55 11 4233 7508",
        "ref": "CNES-2706296",
        "source": "CNES",
        "id": "way/1163880148"
      },
      "geometry": {
        "type": "Polygon",
        "coordinates": [
          [
            [
              -46.5658626,
              -23.6418317
            ],
            [
              -46.5658441,
              -23.6420041
            ],
            [
              -46.5656562,
              -23.6420012
            ],
            [
              -46.5656781,
              -23.64183
            ],
            [
              -46.5657331,
              -23.6418305
            ],
            [
              -46.5657386,
              -23.6418149
            ],
            [
              -46.5658101,
              -23.6418179
            ],
            [
              -46.5658084,
              -23.6418309
            ],
            [
              -46.5658626,
              -23.6418317
            ]
          ]
        ]
      }
    },
    {
      "type": "Feature",
      "id": "way/1164234820",
      "properties": {
        "timestamp": "2024-11-26T02:10:50Z",
        "version": 3,
        "changeset": 159595917,
        "addr:housenumber": "282",
        "addr:street": "Avenida Senador Roberto Simonsen",
        "addr:suburb": "Centro",
        "amenity": "clinic",
        "building": "yes",
        "healthcare": "clinic",
        "healthcare:speciality": "general",
        "name": "Unidade Médica Especalizada Doutor Pedro Salomão José Kassab",
        "opening_hours": "Mo-Fr 07:00-19:00; PH off",
        "operator": "Secretaria Municipal de Saúde",
        "operator:type": "government",
        "phone": "+55 11 4233 8115",
        "short_name": "Atende Fácil Saúde",
        "source": "https://www.saocaetanodosul.sp.gov.br/paginasweb/37",
        "id": "way/1164234820"
      },
      "geometry": {
        "type": "Polygon",
        "coordinates": [
          [
            [
              -46.5747243,
              -23.6154589
            ],
            [
              -46.5747333,
              -23.6157401
            ],
            [
              -46.5741173,
              -23.6157545
            ],
            [
              -46.5741173,
              -23.6154856
            ],
            [
              -46.5742702,
              -23.6154789
            ],
            [
              -46.5742831,
              -23.6155123
            ],
            [
              -46.5743234,
              -23.6155164
            ],
            [
              -46.5743279,
              -23.6154795
            ],
            [
              -46.5744871,
              -23.6154773
            ],
            [
              -46.5745791,
              -23.6154792
            ],
            [
              -46.574584,
              -23.6155036
            ],
            [
              -46.5746879,
              -23.615499
            ],
            [
              -46.5746896,
              -23.6154569
            ],
            [
              -46.5747243,
              -23.6154589
            ]
          ]
        ]
      }
    },
    {
      "type": "Feature",
      "id": "way/1165167808",
      "properties": {
        "timestamp": "2023-04-24T18:44:16Z",
        "version": 2,
        "changeset": 135314742,
        "addr:postcode": "09520-300",
        "addr:street": "Rua Heloisa Pamplona",
        "addr:suburb": "Bairro da Fundação",
        "amenity": "clinic",
        "building": "yes",
        "healthcare": "clinic",
        "name": "Complexo da Saúde Bairro Fundação",
        "operator": "Secretaria de Saúde",
        "operator:type": "government",
        "id": "way/1165167808"
      },
      "geometry": {
        "type": "Polygon",
        "coordinates": [
          [
            [
              -46.5717983,
              -23.6070404
            ],
            [
              -46.5719886,
              -23.6072478
            ],
            [
              -46.5717958,
              -23.6073964
            ],
            [
              -46.5716055,
              -23.6071889
            ],
            [
              -46.5717983,
              -23.6070404
            ]
          ]
        ]
      }
    },
    {
      "type": "Feature",
      "id": "way/1177292077",
      "properties": {
        "timestamp": "2025-02-14T09:16:38Z",
        "version": 3,
        "changeset": 162495102,
        "addr:city": "São Caetano do Sul",
        "addr:housenumber": "611",
        "addr:postcode": "09541-001",
        "addr:street": "Rua Maranhão",
        "addr:suburb": "Santa Paula",
        "amenity": "clinic",
        "building": "yes",
        "healthcare": "clinic",
        "healthcare:speciality": "general;gynaecology;paediatrics;vaccination",
        "name": "Unidade Básica de Saúde João Luiz Pasqual Bonaparte",
        "opening_hours": "Mo-Fr 07:00-17:00; PH off",
        "operator": "Secretaria da Saúde",
        "operator:type": "government",
        "phone": "+55 11 4233 7552",
        "ref:CNES": "6894461",
        "source": "CNES",
        "id": "way/1177292077"
      },
      "geometry": {
        "type": "Polygon",
        "coordinates": [
          [
            [
              -46.5672505,
              -23.6205473
            ],
            [
              -46.5672447,
              -23.6209405
            ],
            [
              -46.5671458,
              -23.6209393
            ],
            [
              -46.5671517,
              -23.620546
            ],
            [
              -46.5672505,
              -23.6205473
            ]
          ]
        ]
      }
    },
    {
      "type": "Feature",
      "id": "way/1177963803",
      "properties": {
        "timestamp": "2023-10-28T16:40:48Z",
        "version": 2,
        "changeset": 143271740,
        "addr:city": "São Caetano do Sul",
        "addr:country": "BR",
        "addr:housenumber": "800",
        "addr:postcode": "09560-130",
        "addr:street": "Alameda Conde de Porto Alegre",
        "addr:suburb": "Santa Maria",
        "amenity": "clinic",
        "building": "public",
        "name": "Centro de Triagem Neonatal e Estimulação Neurossensorial Dr. Tatuya Kawakami",
        "phone": "(11) 4221 6820",
        "website": "https://www.saocaetanodosul.sp.gov.br/",
        "id": "way/1177963803"
      },
      "geometry": {
        "type": "Polygon",
        "coordinates": [
          [
            [
              -46.5551321,
              -23.633057
            ],
            [
              -46.5549903,
              -23.632849
            ],
            [
              -46.5552849,
              -23.6326804
            ],
            [
              -46.5554267,
              -23.6328884
            ],
            [
              -46.5551321,
              -23.633057
            ]
          ]
        ]
      }
    },
    {
      "type": "Feature",
      "id": "node/3243857995",
      "properties": {
        "timestamp": "2023-04-24T18:54:17Z",
        "version": 7,
        "changeset": 135315026,
        "addr:city": "São Caetano do Sul",
        "addr:housenumber": "200",
        "addr:postcode": "09520-280",
        "addr:street": "Rua Herculano de Freitas",
        "addr:suburb": "Bairro da Fundação",
        "amenity": "clinic",
        "emergency": "no",
        "healthcare": "clinic",
        "healthcare:speciality": "gynaecology",
        "name": "Centro de Atenção Integral à Saúde da Mulher",
        "opening_hours": "Mo-Fr 07:00-17:00; Sa,Su,PH off",
        "operator": "Secretaria da Saúde",
        "operator:type": "government",
        "phone": "+55 11 4221 4442",
        "ref": "CNES-2038196",
        "short_name": "CAISM",
        "source": "CNES",
        "id": "node/3243857995"
      },
      "geometry": {
        "type": "Point",
        "coordinates": [
          -46.5727475,
          -23.6064622
        ]
      }
    },
    {
      "type": "Feature",
      "id": "node/10832241264",
      "properties": {
        "timestamp": "2023-04-22T17:57:58Z",
        "version": 1,
        "changeset": 135238220,
        "addr:housenumber": "370",
        "addr:street": "Rua Oswaldo Cruz",
        "addr:suburb": "Centro",
        "amenity": "clinic",
        "healthcare": "clinic",
        "name": "Clínica Antônio Galhardi",
        "phone": "+55 11 4232 5406",
        "id": "node/10832241264"
      },
      "geometry": {
        "type": "Point",
        "coordinates": [
          -46.5679753,
          -23.6197502
        ]
      }
    },
    {
      "type": "Feature",
      "id": "node/10837762982",
      "properties": {
        "timestamp": "2023-04-24T18:44:16Z",
        "version": 2,
        "changeset": 135314742,
        "addr:housenumber": "269",
        "addr:postcode": "09520-320",
        "addr:street": "Rua Heloisa Pamplona",
        "addr:suburb": "Bairro da Fundação",
        "amenity": "clinic",
        "healthcare": "clinic",
        "healthcare:speciality": "general",
        "name": "Centro de Especialidades Médicas Samuel Klein",
        "opening_hours": "Mo-Fr 07:00-21:00; Sa 08:12:00",
        "operator": "Secretaria de Saúde",
        "operator:type": "government",
        "phone": "+55 11 4233 7503",
        "ref": "CNES-2706342",
        "source": "CNES",
        "id": "node/10837762982"
      },
      "geometry": {
        "type": "Point",
        "coordinates": [
          -46.5718736,
          -23.6073004
        ]
      }
    },
    {
      "type": "Feature",
      "id": "node/10910497600",
      "properties": {
        "timestamp": "2023-05-28T04:32:08Z",
        "version": 8,
        "changeset": 136642958,
        "access": "customers",
        "addr:city": "São Caetano do Sul",
        "addr:country": "BR",
        "addr:housenumber": "181",
        "addr:postcode": "09531-205",
        "addr:street": "Rua Barão de Mauá",
        "addr:suburb": "Cerâmica",
        "amenity": "clinic",
        "check_date": "2023-05-28",
        "emergency": "emergency_ward_entrance",
        "entrance": "yes",
        "healthcare": "clinic",
        "healthcare:speciality": "emergency",
        "name": "Pronto Atendimento",
        "opening_hours": "24/7",
        "operator": "Rede D'Or São Luiz",
        "operator:type": "private",
        "phone": "+55 11 2777-1100",
        "wheelchair": "yes",
        "id": "node/10910497600"
      },
      "geometry": {
        "type": "Point",
        "coordinates": [
          -46.5795327,
          -23.6291753
        ]
      }
    },
    {
      "type": "Feature",
      "id": "node/10932918368",
      "properties": {
        "timestamp": "2023-05-28T04:32:08Z",
        "version": 3,
        "changeset": 136642958,
        "amenity": "clinic",
        "check_date": "2023-05-28",
        "healthcare": "clinic",
        "healthcare:speciality": "gynaecology;neonatology",
        "indoor": "yes",
        "level": "10",
        "name": "Ambulatório Obstetrícia/Ginecologia/Pediatria",
        "operator": "Rede D'Or São Luiz",
        "source": "local knowledge",
        "wheelchair": "yes",
        "id": "node/10932918368"
      },
      "geometry": {
        "type": "Point",
        "coordinates": [
          -46.5793317,
          -23.629246
        ]
      }
    },
    {
      "type": "Feature",
      "id": "node/10942790230",
      "properties": {
        "timestamp": "2023-05-31T19:54:27Z",
        "version": 1,
        "changeset": 136803873,
        "access": "yes",
        "addr:city": "São Caetano do Sul",
        "addr:country": "BR",
        "addr:housenumber": "101",
        "addr:postcode": "09521-310",
        "addr:state": "SP",
        "addr:street": "Rua Aurélia",
        "addr:suburb": "Santa Paula",
        "amenity": "clinic",
        "door": "yes",
        "emergency": "emergency_ward_entrance",
        "emergency_ward_entrance": "walk-in",
        "entrance": "yes",
        "healthcare": "clinic",
        "healthcare:speciality": "emergency",
        "name": "UPA São Caetano - Engenheiro Júlio Marcucci Sobrinho",
        "opening_hours": "24/7",
        "operator:type": "government",
        "phone": "(11) 4233 7500",
        "wheelchair": "yes",
        "id": "node/10942790230"
      },
      "geometry": {
        "type": "Point",
        "coordinates": [
          -46.556498,
          -23.6173822
        ]
      }
    }
  ]
}
