{
  "type": "FeatureCollection",
  "features": [
    {
      "type": "Feature",
      "id": "way/266378751",
      "properties": {
        "timestamp": "2023-10-28T16:40:22Z",
        "version": 7,
        "changeset": 143271721,
        "addr:city": "São Caetano do Sul",
        "addr:housenumber": "149",
        "addr:postcode": "09581-420",
        "addr:street": "Rua Bell Alliance",
        "addr:suburb": "Jardim São Caetano",
        "amenity": "college",
        "contact:phone": "+55 11 4238 7686",
        "email": "e011adm@cps.sp.gov.br",
        "name": "Escola Técnica Estadual Jorge Street",
        "operator": "Centro Paula Souza",
        "operator:type": "government",
        "phone": "+55 11 4238 7955",
        "ref": "INEP-35049669",
        "short_name": "ETEC Jorge Street",
        "website": "https://www.jorgestreet.com.br/",
        "id": "way/266378751"
      },
      "geometry": {
        "type": "Polygon",
        "coordinates": [
          [
            [
              -46.5785293,
              -23.6371587
            ],
            [
              -46.5781884,
              -23.6380999
            ],
            [
              -46.5773945,
              -23.6378774
            ],
            [
              -46.5777635,
              -23.6369362
            ],
            [
              -46.5785293,
              -23.6371587
            ]
          ]
        ]
      }
    },
    {
      "type": "Feature",
      "id": "way/434939645",
      "properties": {
        "timestamp": "2023-08-16T22:40:44Z",
        "version": 3,
        "changeset": 139987651,
        "addr:city": "São Caetano do Sul",
        "addr:housenumber": "680",
        "addr:postcode": "09572-000",
        "addr:street": "Rua Santo André",
        "addr:suburb": "Boa Vista",
        "amenity": "college",
        "description": "SENAI São Caetano do Sul - Mecatrônica",
        "email": "senaimecatronica@sp.senai.br",
        "name": "Escola SENAI Armando de Arruda Pereira",
        "operator": "Serviço Nacional da Indústria",
        "operator:type": "private_non_profit",
        "phone": "+55 11 4227 7450",
        "website": "https://www.sp.senai.br/unidade/mecatronica/",
        "id": "way/434939645"
      },
      "geometry": {
        "type": "Polygon",
        "coordinates": [
          [
            [
              -46.5581279,
              -23.6437374
            ],
            [
              -46.5591109,
              -23.6446224
            ],
            [
              -46.5583368,
              -23.6453201
            ],
            [
              -46.557789,
              -23.6458143
            ],
            [
              -46.5575609,
              -23.6461827
            ],
            [
              -46.5573526,
              -23.6458938
            ],
            [
              -46.5571778,
              -23.6455687
            ],
            [
              -46.5569616,
              -23.6451532
            ],
            [
              -46.5581279,
              -23.6437374
            ]
          ]
        ]
      }
    },
    {
      "type": "Feature",
      "id": "node/10830505574",
      "properties": {
        "timestamp": "2023-04-21T18:14:43Z",
        "version": 1,
        "changeset": 135205294,
        "barrier": "gate",
        "id": "node/10830505574"
      },
      "geometry": {
        "type": "Point",
        "coordinates": [
          -46.5571778,
          -23.6455687
        ]
      }
    }
  ]
}
