{
  "type": "FeatureCollection",
  "features": [
    {
      "type": "Feature",
      "id": "node/10834006479",
      "properties": {
        "timestamp": "2023-04-23T14:47:02Z",
        "version": 1,
        "changeset": 135265017,
        "addr:housenumber": "400",
        "addr:street": "Rua Gonzaga",
        "amenity": "dentist",
        "contact:mobile": "+55 11 99294 1882",
        "healthcare": "dentist",
        "healthcare:speciality": "periodontia;general;orthodontics",
        "name": "Gesuele Odontologia",
        "operator": "Karina Gesuele Pereira",
        "phone": "+55 11 4226 6363",
        "ref": "CROSP-120859",
        "id": "node/10834006479"
      },
      "geometry": {
        "type": "Point",
        "coordinates": [
          -46.5655948,
          -23.6240604
        ]
      }
    },
    {
      "type": "Feature",
      "id": "node/10837762983",
      "properties": {
        "timestamp": "2023-04-24T18:44:16Z",
        "version": 2,
        "changeset": 135314742,
        "addr:housenumber": "115",
        "addr:postcode": "09520-300",
        "addr:street": "Avenida Doutor Rodrigues Alves",
        "addr:suburb": "Bairro da Fundação",
        "amenity": "dentist",
        "healthcare": "dentist",
        "name": "Clínica-Escola Municipal de Odontologia",
        "operator": "Universidade São Caetano",
        "ref": "CNES-0295396",
        "source": "CNES",
        "id": "node/10837762983"
      },
      "geometry": {
        "type": "Point",
        "coordinates": [
          -46.5718341,
          -23.6071389
        ]
      }
    }
  ]
}
