{
  "type": "FeatureCollection",
  "features": [
    {
      "type": "Feature",
      "id": "way/457327521",
      "properties": {
        "timestamp": "2018-02-18T18:54:58Z",
        "version": 2,
        "changeset": 56471031,
        "addr:city": "São Caetano do Sul",
        "addr:housenumber": "150",
        "addr:postcode": "09572-300",
        "addr:street": "Rua Boa Vista",
        "addr:suburb": "Boa Vista",
        "amenity": "library",
        "building": "yes",
        "name": "Biblioteca Municipal Esther Mesquita",
        "opening_hours": "Mo-Fr 08:00-18:00, Sa 09:00-13:00",
        "phone": "+55 11 4238 0524",
        "id": "way/457327521"
      },
      "geometry": {
        "type": "Polygon",
        "coordinates": [
          [
            [
              -46.5632479,
              -23.6404811
            ],
            [
              -46.5634343,
              -23.6406322
            ],
            [
              -46.563394,
              -23.6406765
            ],
            [
              -46.5632398,
              -23.6406777
            ],
            [
              -46.5631848,
              -23.6406396
            ],
            [
              -46.5632385,
              -23.6405991
            ],
            [
              -46.5631795,
              -23.6405475
            ],
            [
              -46.5632479,
              -23.6404811
            ]
          ]
        ]
      }
    },
    {
      "type": "Feature",
      "id": "way/1177959352",
      "properties": {
        "timestamp": "2023-10-28T16:40:54Z",
        "version": 2,
        "changeset": 143271744,
        "amenity": "library",
        "indoor": "room",
        "level": "0",
        "opening_hours": "Mo-Fr 08:00-18:00",
        "phone": "(11) 4224 0674",
        "website": "https://www.saocaetanodosul.sp.gov.br/",
        "wheelchair": "yes",
        "id": "way/1177959352"
      },
      "geometry": {
        "type": "Polygon",
        "coordinates": [
          [
            [
              -46.5673703,
              -23.616584
            ],
            [
              -46.567369,
              -23.6166899
            ],
            [
              -46.5670298,
              -23.6166918
            ],
            [
              -46.5670295,
              -23.6165848
            ],
            [
              -46.5673703,
              -23.616584
            ]
          ]
        ]
      }
    },
    {
      "type": "Feature",
      "id": "node/6417948592",
      "properties": {
        "timestamp": "2019-04-20T14:36:44Z",
        "version": 1,
        "changeset": 69404126,
        "addr:city": "São Caetano do Sul",
        "addr:housenumber": "255",
        "addr:postcode": "09540-080",
        "addr:street": "Avenida Doutor Augusto de Toledo",
        "addr:suburb": "Santa Paula",
        "amenity": "library",
        "name": "Biblioteca Paul Harris",
        "id": "node/6417948592"
      },
      "geometry": {
        "type": "Point",
        "coordinates": [
          -46.566699,
          -23.6159495
        ]
      }
    }
  ]
}
