{
  "type": "FeatureCollection",
  "features": [
    {
      "type": "Feature",
      "id": "way/439069103",
      "properties": {
        "timestamp": "2025-02-17T14:57:16Z",
        "version": 8,
        "changeset": 162616845,
        "addr:city": "São Caetano do Sul",
        "addr:housenumber": "841",
        "addr:postcode": "09571-380",
        "addr:state": "SP",
        "addr:street": "Avenida Visconde de Inhaúma",
        "addr:suburb": "Oswaldo Cruz",
        "amenity": "pharmacy",
        "brand": "Coop",
        "building": "yes",
        "check_date": "2025-01-11",
        "check_date:opening_hours": "2025-01-11",
        "contact:mobile": "+55 11 99663 4491",
        "dispensing": "yes",
        "drive_through": "no",
        "healthcare": "pharmacy",
        "landuse": "retail",
        "name": "Coop Drogaria",
        "opening_hours": "Mo-Su,PH 07:00-23:00",
        "payment:cash": "yes",
        "payment:coins": "yes",
        "payment:contactless": "yes",
        "payment:credit_cards": "yes",
        "payment:debit_cards": "yes",
        "phone": "+55 11 4118 2847",
        "source": "local knowledge",
        "website": "https://www.coopdrogaria.com.br/",
        "wheelchair": "yes",
        "id": "way/439069103"
      },
      "geometry": {
        "type": "Polygon",
        "coordinates": [
          [
            [
              -46.564228,
              -23.6359526
            ],
            [
              -46.5642452,
              -23.6360305
            ],
            [
              -46.564007,
              -23.6360271
            ],
            [
              -46.564008,
              -23.6359505
            ],
            [
              -46.564228,
              -23.6359526
            ]
          ]
        ]
      }
    },
    {
      "type": "Feature",
      "id": "way/546867018",
      "properties": {
        "timestamp": "2017-12-14T17:02:58Z",
        "version": 1,
        "changeset": 54630049,
        "amenity": "pharmacy",
        "building": "yes",
        "healthcare": "pharmacy",
        "name": "Posto médico",
        "id": "way/546867018"
      },
      "geometry": {
        "type": "Polygon",
        "coordinates": [
          [
            [
              -46.5549989,
              -23.6197336
            ],
            [
              -46.5549024,
              -23.6198675
            ],
            [
              -46.5544584,
              -23.6196242
            ],
            [
              -46.554555,
              -23.6194915
            ],
            [
              -46.5549989,
              -23.6197336
            ]
          ]
        ]
      }
    },
    {
      "type": "Feature",
      "id": "way/559561508",
      "properties": {
        "timestamp": "2024-04-16T02:16:52Z",
        "version": 2,
        "changeset": 150063148,
        "amenity": "pharmacy",
        "brand": "Drogasil",
        "brand:wikidata": "Q5308185",
        "building": "yes",
        "healthcare": "pharmacy",
        "name": "Drogasil",
        "id": "way/559561508"
      },
      "geometry": {
        "type": "Polygon",
        "coordinates": [
          [
            [
              -46.5573151,
              -23.6262993
            ],
            [
              -46.5572952,
              -23.6263902
            ],
            [
              -46.5571154,
              -23.6263325
            ],
            [
              -46.5571493,
              -23.6262437
            ],
            [
              -46.5573151,
              -23.6262993
            ]
          ]
        ]
      }
    },
    {
      "type": "Feature",
      "id": "way/613934739",
      "properties": {
        "timestamp": "2019-05-06T02:11:57Z",
        "version": 2,
        "changeset": 69919658,
        "addr:city": "São Caetano do Sul",
        "addr:housenumber": "354",
        "addr:street": "Rua Alegre",
        "addr:suburb": "Barcelona",
        "amenity": "pharmacy",
        "building": "yes",
        "dispensing": "yes",
        "healthcare": "pharmacy",
        "name": "Farmais Drogarias",
        "operator": "Farmais",
        "id": "way/613934739"
      },
      "geometry": {
        "type": "Polygon",
        "coordinates": [
          [
            [
              -46.5536211,
              -23.6202328
            ],
            [
              -46.5535855,
              -23.6202824
            ],
            [
              -46.5535507,
              -23.620331
            ],
            [
              -46.5533976,
              -23.6202412
            ],
            [
              -46.5534496,
              -23.6201682
            ],
            [
              -46.5535017,
              -23.6201612
            ],
            [
              -46.5536211,
              -23.6202328
            ]
          ]
        ]
      }
    },
    {
      "type": "Feature",
      "id": "way/1163482525",
      "properties": {
        "timestamp": "2023-04-17T21:26:01Z",
        "version": 1,
        "changeset": 135033413,
        "addr:housenumber": "801",
        "addr:street": "Rua Amazonas",
        "amenity": "pharmacy",
        "building": "yes",
        "contact:mobile": "+55 11 94128 6268",
        "dispensing": "yes",
        "drive_through": "no",
        "healthcare": "pharmacy",
        "name": "Coop Drogaria",
        "opening_hours": "Mo-Su,PH 07:00-23:00",
        "phone": "+55 11 3181 9137",
        "website": "https://www.coopdrogaria.com.br/",
        "id": "way/1163482525"
      },
      "geometry": {
        "type": "Polygon",
        "coordinates": [
          [
            [
              -46.5693556,
              -23.6178214
            ],
            [
              -46.5693543,
              -23.6179194
            ],
            [
              -46.5692919,
              -23.6179244
            ],
            [
              -46.5692839,
              -23.6180099
            ],
            [
              -46.5692086,
              -23.6180095
            ],
            [
              -46.5692134,
              -23.6178114
            ],
            [
              -46.5693556,
              -23.6178214
            ]
          ]
        ]
      }
    },
    {
      "type": "Feature",
      "id": "way/1163675475",
      "properties": {
        "timestamp": "2023-04-18T17:09:38Z",
        "version": 1,
        "changeset": 135069224,
        "addr:street": "Rua São Paulo",
        "amenity": "pharmacy",
        "brand": "Droga Raia",
        "brand:wikidata": "Q10357101",
        "building": "yes",
        "dispensing": "yes",
        "drive_through": "no",
        "healthcare": "pharmacy",
        "name": "Droga Raia",
        "opening_hours": "24/7",
        "id": "way/1163675475"
      },
      "geometry": {
        "type": "Polygon",
        "coordinates": [
          [
            [
              -46.5643185,
              -23.6217024
            ],
            [
              -46.5643212,
              -23.6218253
            ],
            [
              -46.5642139,
              -23.6218228
            ],
            [
              -46.5642085,
              -23.6217024
            ],
            [
              -46.5643185,
              -23.6217024
            ]
          ]
        ]
      }
    },
    {
      "type": "Feature",
      "id": "way/1164450452",
      "properties": {
        "timestamp": "2023-05-27T02:16:48Z",
        "version": 3,
        "changeset": 136609144,
        "amenity": "pharmacy",
        "brand": "Drogasil",
        "brand:wikidata": "Q5308185",
        "building": "yes",
        "check_date": "2023-05-26",
        "dispensing": "yes",
        "drive_through": "no",
        "healthcare": "pharmacy",
        "landuse": "retail",
        "name": "Drogasil",
        "payment:cash": "yes",
        "payment:coins": "yes",
        "payment:contactless": "yes",
        "payment:credit_cards": "yes",
        "payment:debit_cards": "yes",
        "phone": "+55 11 4232 2651",
        "source": "local knowledge",
        "wheelchair": "yes",
        "id": "way/1164450452"
      },
      "geometry": {
        "type": "Polygon",
        "coordinates": [
          [
            [
              -46.5651503,
              -23.6373264
            ],
            [
              -46.5651472,
              -23.6373938
            ],
            [
              -46.5648859,
              -23.6373838
            ],
            [
              -46.5648889,
              -23.6373164
            ],
            [
              -46.5651503,
              -23.6373264
            ]
          ]
        ]
      }
    },
    {
      "type": "Feature",
      "id": "way/1177313163",
      "properties": {
        "timestamp": "2023-05-31T22:38:53Z",
        "version": 3,
        "changeset": 136807791,
        "amenity": "pharmacy",
        "brand": "Drogaria São Paulo",
        "brand:wikidata": "Q5308184",
        "check_date": "2023-05-31",
        "healthcare": "pharmacy",
        "indoor": "room",
        "level": "1",
        "name": "Drogaria São Paulo",
        "opening_hours": "Mo-Sa 10:00-22:00; Su,PH 14:00-20:00",
        "payment:cash": "yes",
        "payment:contactless": "yes",
        "payment:credit_cards": "yes",
        "payment:debit_cards": "yes",
        "ref": "2008",
        "source": "local knowledge",
        "wheelchair": "yes",
        "id": "way/1177313163"
      },
      "geometry": {
        "type": "Polygon",
        "coordinates": [
          [
            [
              -46.5793987,
              -23.6263347
            ],
            [
              -46.5793987,
              -23.6264493
            ],
            [
              -46.5793421,
              -23.6264508
            ],
            [
              -46.5793129,
              -23.6264505
            ],
            [
              -46.5793075,
              -23.6263003
            ],
            [
              -46.579337,
              -23.6262855
            ],
            [
              -46.5793987,
              -23.6263347
            ]
          ]
        ]
      }
    },
    {
      "type": "Feature",
      "id": "way/1178165458",
      "properties": {
        "timestamp": "2025-01-21T17:22:49Z",
        "version": 5,
        "changeset": 161609206,
        "addr:postcode": "09571-000",
        "addr:street": "Avenida Visconde de Inhaúma",
        "amenity": "pharmacy",
        "brand": "Drogaria São Paulo",
        "brand:wikidata": "Q5308184",
        "building": "yes",
        "check_date": "2025-01-14",
        "check_date:opening_hours": "2025-01-14",
        "dispensing": "yes",
        "drive_through": "no",
        "healthcare": "pharmacy",
        "name": "Drogaria São Paulo",
        "opening_hours": "07:00-23:00",
        "payment:cash": "yes",
        "payment:contactless": "yes",
        "payment:credit_cards": "yes",
        "payment:debit_cards": "yes",
        "source": "local knowledge",
        "wheelchair": "yes",
        "id": "way/1178165458"
      },
      "geometry": {
        "type": "Polygon",
        "coordinates": [
          [
            [
              -46.5648452,
              -23.6339073
            ],
            [
              -46.5645974,
              -23.633902
            ],
            [
              -46.5646213,
              -23.6338301
            ],
            [
              -46.5648442,
              -23.6338321
            ],
            [
              -46.5648452,
              -23.6339073
            ]
          ]
        ]
      }
    },
    {
      "type": "Feature",
      "id": "way/1219114374",
      "properties": {
        "timestamp": "2023-11-12T19:48:30Z",
        "version": 4,
        "changeset": 143946173,
        "addr:city": "São Caetano do Sul",
        "addr:country": "BR",
        "addr:housenumber": "180",
        "addr:postcode": "09571-390",
        "addr:state": "SP",
        "addr:street": "Rua Visconde de Inhaúma",
        "amenity": "pharmacy",
        "building": "commercial",
        "check_date": "2023-10-28",
        "dispensing": "yes",
        "drive_through": "no",
        "healthcare": "pharmacy",
        "name": "Drogaria Coop",
        "name:pt": "Drogaria Coop",
        "opening_hours": "Mo-Sa 07:00-21:30; Su 08:00-18:00",
        "operator": "Coop",
        "payment:cash": "yes",
        "payment:contactless": "yes",
        "payment:credit_cards": "yes",
        "payment:debit_cards": "yes",
        "phone": "+55 11 97399-1691",
        "website": "https://www.portalcoop.com.br/",
        "wheelchair": "yes",
        "id": "way/1219114374"
      },
      "geometry": {
        "type": "Polygon",
        "coordinates": [
          [
            [
              -46.5666702,
              -23.6305224
            ],
            [
              -46.5666655,
              -23.6306183
            ],
            [
              -46.5663302,
              -23.6306132
            ],
            [
              -46.5663748,
              -23.6305271
            ],
            [
              -46.5664339,
              -23.6305249
            ],
            [
              -46.5666702,
              -23.6305224
            ]
          ]
        ]
      }
    },
    {
      "type": "Feature",
      "id": "node/4374659513",
      "properties": {
        "timestamp": "2024-04-16T02:14:25Z",
        "version": 2,
        "changeset": 150063107,
        "addr:city": "São Caetano do Sul",
        "addr:housenumber": "1519",
        "addr:state": "SP",
        "addr:street": "Avenida Presidente Kennedy",
        "addr:suburb": "Santa Paula",
        "amenity": "pharmacy",
        "brand": "Drogaria São Paulo",
        "brand:wikidata": "Q5308184",
        "healthcare": "pharmacy",
        "name": "Drogaria São Paulo",
        "opening_hours": "24/7",
        "phone": "+55 11 2668 5130",
        "wheelchair": "yes",
        "id": "node/4374659513"
      },
      "geometry": {
        "type": "Point",
        "coordinates": [
          -46.5571762,
          -23.6253259
        ]
      }
    },
    {
      "type": "Feature",
      "id": "node/5567379396",
      "properties": {
        "timestamp": "2019-07-13T15:40:04Z",
        "version": 2,
        "changeset": 72212741,
        "addr:city": "São Caetano do Sul",
        "addr:housenumber": "1986",
        "addr:postcode": "09580-500",
        "addr:street": "Estrada das Lágrimas",
        "addr:suburb": "Mauá",
        "amenity": "pharmacy",
        "brand": "Drogasil",
        "brand:wikidata": "Q5308185",
        "brand:wikipedia": "pt:Drogasil",
        "dispensing": "yes",
        "healthcare": "pharmacy",
        "name": "Drogasil",
        "operator": "Drogasil",
        "wheelchair": "yes",
        "id": "node/5567379396"
      },
      "geometry": {
        "type": "Point",
        "coordinates": [
          -46.5764243,
          -23.6465769
        ]
      }
    },
    {
      "type": "Feature",
      "id": "node/9348127649",
      "properties": {
        "timestamp": "2021-12-18T07:37:38Z",
        "version": 1,
        "changeset": 115084628,
        "addr:housenumber": "2451",
        "addr:street": "Alameda São Caetano",
        "amenity": "pharmacy",
        "dispensing": "yes",
        "healthcare": "pharmacy",
        "name": "Farma Alameda",
        "id": "node/9348127649"
      },
      "geometry": {
        "type": "Point",
        "coordinates": [
          -46.5544129,
          -23.6392638
        ]
      }
    },
    {
      "type": "Feature",
      "id": "node/9348127651",
      "properties": {
        "timestamp": "2021-12-18T07:37:38Z",
        "version": 1,
        "changeset": 115084628,
        "addr:housenumber": "1341",
        "addr:street": "Alameda Conde de Porto Alegre",
        "amenity": "pharmacy",
        "dispensing": "yes",
        "healthcare": "pharmacy",
        "name": "Drogaria Eliane",
        "id": "node/9348127651"
      },
      "geometry": {
        "type": "Point",
        "coordinates": [
          -46.5570004,
          -23.6377466
        ]
      }
    },
    {
      "type": "Feature",
      "id": "node/10822409017",
      "properties": {
        "timestamp": "2023-04-18T17:09:38Z",
        "version": 1,
        "changeset": 135069224,
        "addr:housenumber": "1732",
        "addr:street": "Rua São Paulo",
        "amenity": "pharmacy",
        "dispensing": "yes",
        "drive_through": "no",
        "healthcare": "pharmacy",
        "name": "BioPharma",
        "id": "node/10822409017"
      },
      "geometry": {
        "type": "Point",
        "coordinates": [
          -46.564525,
          -23.6221226
        ]
      }
    },
    {
      "type": "Feature",
      "id": "node/10831838732",
      "properties": {
        "timestamp": "2025-01-14T13:31:57Z",
        "version": 4,
        "changeset": 161345422,
        "addr:housenumber": "824",
        "addr:postcode": "09571-380",
        "addr:street": "Avenida Visconde de Inhaúma",
        "addr:suburb": "Oswaldo Cruz",
        "amenity": "pharmacy",
        "brand": "Drogaria São Paulo",
        "brand:wikidata": "Q5308184",
        "check_date": "2025-01-14",
        "check_date:opening_hours": "2025-01-14",
        "contact:phone": "+55 11 4232 0976",
        "dispensing": "yes",
        "drive_through": "no",
        "healthcare": "pharmacy",
        "name": "Drogaria São Paulo",
        "opening_hours": "07:00-23:00",
        "payment:cash": "yes",
        "payment:contactless": "yes",
        "payment:credit_cards": "yes",
        "payment:debit_cards": "yes",
        "phone": "+ 55 11 5685 0083",
        "source": "local knowledge",
        "website": "https://www.drogariasaopaulo.com.br/:",
        "id": "node/10831838732"
      },
      "geometry": {
        "type": "Point",
        "coordinates": [
          -46.5644281,
          -23.6357539
        ]
      }
    },
    {
      "type": "Feature",
      "id": "node/10833966946",
      "properties": {
        "timestamp": "2023-04-23T14:23:03Z",
        "version": 1,
        "changeset": 135264089,
        "addr:street": "Rua Gonzaga",
        "amenity": "pharmacy",
        "dispensing": "yes",
        "drive_through": "no",
        "healthcare": "pharmacy",
        "name": "Drogaria Real",
        "phone": "+55 11 4229 5517",
        "id": "node/10833966946"
      },
      "geometry": {
        "type": "Point",
        "coordinates": [
          -46.5658338,
          -23.6239256
        ]
      }
    },
    {
      "type": "Feature",
      "id": "node/11590348132",
      "properties": {
        "timestamp": "2024-04-16T01:40:51Z",
        "version": 2,
        "changeset": 150062696,
        "addr:housenumber": "651",
        "addr:postcode": "09521-310",
        "addr:street": "Rua Major Carlos Del Prete",
        "addr:suburb": "Centro",
        "amenity": "pharmacy",
        "dispensing": "no",
        "drive_through": "no",
        "healthcare": "pharmacy",
        "name": "FME - Fármacia de Medicamentos Especializados",
        "operator": "Secretaria de Estado da Saúde de São Paulo",
        "operator:type": "government",
        "phone": "+55 11 4227 7600",
        "website": "https://saude.sp.gov.br/ses/perfil/gestor/assistencia-farmaceutica/medicamentos-dos-componentes-da-assistencia-farmaceutica/medicamentos-do-componente-especializado-da-assistencia-farmaceutica/onde-encontrar",
        "id": "node/11590348132"
      },
      "geometry": {
        "type": "Point",
        "coordinates": [
          -46.5759727,
          -23.6133968
        ]
      }
    },
    {
      "type": "Feature",
      "id": "node/11645140911",
      "properties": {
        "timestamp": "2024-02-20T10:05:45Z",
        "version": 1,
        "changeset": 147684873,
        "amenity": "pharmacy",
        "brand": "Drogaria São Paulo",
        "brand:wikidata": "Q5308184",
        "dispensing": "yes",
        "healthcare": "pharmacy",
        "name": "Drogaria São Paulo",
        "id": "node/11645140911"
      },
      "geometry": {
        "type": "Point",
        "coordinates": [
          -46.5527512,
          -23.6212962
        ]
      }
    },
    {
      "type": "Feature",
      "id": "node/11645172795",
      "properties": {
        "timestamp": "2024-02-20T10:10:00Z",
        "version": 1,
        "changeset": 147685021,
        "amenity": "pharmacy",
        "brand": "Drogasil",
        "brand:wikidata": "Q5308185",
        "dispensing": "yes",
        "healthcare": "pharmacy",
        "name": "Drogasil",
        "wheelchair": "yes",
        "id": "node/11645172795"
      },
      "geometry": {
        "type": "Point",
        "coordinates": [
          -46.5509734,
          -23.6237645
        ]
      }
    },
    {
      "type": "Feature",
      "id": "node/11810213319",
      "properties": {
        "timestamp": "2024-04-11T19:46:58Z",
        "version": 2,
        "changeset": 149880245,
        "addr:housenumber": "821",
        "addr:street": "Rua Justino Paixão",
        "amenity": "pharmacy",
        "dispensing": "yes",
        "drive_through": "no",
        "healthcare": "pharmacy",
        "mobile": "+55 11 96047 7355",
        "name": "Feliz Farma",
        "phone": "+55 11 4318 1300",
        "id": "node/11810213319"
      },
      "geometry": {
        "type": "Point",
        "coordinates": [
          -46.5794806,
          -23.6438621
        ]
      }
    }
  ]
}
