{
  "type": "FeatureCollection",
  "features": [
    {
      "type": "Feature",
      "id": "way/425436128",
      "properties": {
        "timestamp": "2023-02-01T15:06:46Z",
        "version": 3,
        "changeset": 131967314,
        "addr:city": "São Caetano do Sul",
        "alt_name": "Centro de Referência Especializado de Assistência Social São Caetano do Sul",
        "amenity": "social_facility",
        "building": "yes",
        "name": "CREAS São Caetano do Sul",
        "social_facility": "outreach",
        "social_facility:for": "underprivileged;abused;victim",
        "id": "way/425436128"
      },
      "geometry": {
        "type": "Polygon",
        "coordinates": [
          [
            [
              -46.5797018,
              -23.6336602
            ],
            [
              -46.5795481,
              -23.6337961
            ],
            [
              -46.5794453,
              -23.6337327
            ],
            [
              -46.57962,
              -23.6335761
            ],
            [
              -46.5797018,
              -23.6336602
            ]
          ]
        ]
      }
    },
    {
      "type": "Feature",
      "id": "way/426504788",
      "properties": {
        "timestamp": "2016-07-24T11:42:22Z",
        "version": 2,
        "changeset": 40989527,
        "addr:city": "São Caetano do Sul",
        "addr:housenumber": "100",
        "addr:postcode": "09540-300",
        "addr:street": "Rua Bertolino Cunha",
        "addr:suburb": "Osvaldo Cruz",
        "amenity": "social_facility",
        "building": "yes",
        "name": "Conselho Tutelar dos Direitos da Criança e do Adolescente de São Caetano do Sul",
        "id": "way/426504788"
      },
      "geometry": {
        "type": "Polygon",
        "coordinates": [
          [
            [
              -46.5670207,
              -23.626067
            ],
            [
              -46.567002,
              -23.626368
            ],
            [
              -46.5668474,
              -23.6263777
            ],
            [
              -46.5668634,
              -23.626072
            ],
            [
              -46.5670207,
              -23.626067
            ]
          ]
        ]
      }
    },
    {
      "type": "Feature",
      "id": "way/441252223",
      "properties": {
        "timestamp": "2023-04-18T19:26:36Z",
        "version": 2,
        "changeset": 135074072,
        "addr:city": "São Caetano do Sul",
        "addr:housenumber": "1253",
        "addr:postcode": "09571-310",
        "addr:state": "SP",
        "addr:street": "Rua Cavalheiro Ernesto Giuliano",
        "amenity": "social_facility",
        "contact:phone": "+55 11 4239 5004",
        "email": "casadaamizade@casadaamizadescsul.com.br",
        "name": "Casa da Amizade de São Caetano do Sul",
        "operator": "Rotary Club",
        "operator:type": "private_non_profit",
        "phone": "+55 11 4238 6777",
        "website": "http://casadaamizadescsul.com.br/",
        "id": "way/441252223"
      },
      "geometry": {
        "type": "Polygon",
        "coordinates": [
          [
            [
              -46.5604978,
              -23.6357008
            ],
            [
              -46.5602819,
              -23.6359257
            ],
            [
              -46.5597388,
              -23.6359011
            ],
            [
              -46.5597361,
              -23.635847
            ],
            [
              -46.5597723,
              -23.6358004
            ],
            [
              -46.5602672,
              -23.6355055
            ],
            [
              -46.5604978,
              -23.6357008
            ]
          ]
        ]
      }
    },
    {
      "type": "Feature",
      "id": "way/684962391",
      "properties": {
        "timestamp": "2023-01-23T19:41:52Z",
        "version": 2,
        "changeset": 131622536,
        "addr:city": "São Caetano do Sul",
        "addr:housenumber": "180",
        "addr:postcode": "09520-050",
        "addr:street": "Rua Antônio Bento",
        "addr:suburb": "Santa Paula",
        "alt_name": "Centro de Referência Especializado de Assistência Social",
        "amenity": "social_facility",
        "building": "yes",
        "name": "CREAS Augusto Bisco",
        "social_facility": "outreach",
        "social_facility:for": "underprivileged;abused;victim",
        "id": "way/684962391"
      },
      "geometry": {
        "type": "Polygon",
        "coordinates": [
          [
            [
              -46.5656739,
              -23.6154783
            ],
            [
              -46.5656709,
              -23.6153978
            ],
            [
              -46.5660007,
              -23.6153936
            ],
            [
              -46.5660029,
              -23.6154692
            ],
            [
              -46.5656739,
              -23.6154783
            ]
          ]
        ]
      }
    },
    {
      "type": "Feature",
      "id": "way/1177292078",
      "properties": {
        "timestamp": "2023-05-29T17:08:10Z",
        "version": 1,
        "changeset": 136709871,
        "addr:city": "São Caetano do Sul",
        "addr:housenumber": "600",
        "addr:postcode": "09541-250",
        "addr:street": "Rua Rafael Correia Sampaio",
        "addr:suburb": "Santa Paula",
        "amenity": "social_facility",
        "name": "CISE da Terceira Idade. Unidade1",
        "social_facility": "nursing_home",
        "social_facility:for": "senior",
        "id": "way/1177292078"
      },
      "geometry": {
        "type": "Polygon",
        "coordinates": [
          [
            [
              -46.5672477,
              -23.6200874
            ],
            [
              -46.5672504,
              -23.6205471
            ],
            [
              -46.5671516,
              -23.6205458
            ],
            [
              -46.567154,
              -23.6200873
            ],
            [
              -46.5672477,
              -23.6200874
            ]
          ]
        ]
      }
    },
    {
      "type": "Feature",
      "id": "way/1177292079",
      "properties": {
        "timestamp": "2023-05-29T17:08:10Z",
        "version": 1,
        "changeset": 136709871,
        "addr:city": "São Caetano do Sul",
        "addr:housenumber": "601",
        "addr:postcode": "09541-250",
        "addr:street": "Rua Rafael Correia Sampaio",
        "addr:suburb": "Santa Paula",
        "amenity": "social_facility",
        "name": "CISE da Terceira Idade. Unidade 2",
        "social_facility": "nursing_home",
        "social_facility:for": "senior",
        "id": "way/1177292079"
      },
      "geometry": {
        "type": "Polygon",
        "coordinates": [
          [
            [
              -46.5675233,
              -23.6200055
            ],
            [
              -46.5671524,
              -23.6200059
            ],
            [
              -46.5671514,
              -23.6190547
            ],
            [
              -46.5675221,
              -23.6190544
            ],
            [
              -46.5675233,
              -23.6200055
            ]
          ]
        ]
      }
    }
  ]
}
