{
  "type": "FeatureCollection",
  "features": [
    {
      "type": "Feature",
      "id": "way/685529098",
      "properties": {
        "timestamp": "2019-04-23T23:34:48Z",
        "version": 1,
        "changeset": 69507200,
        "addr:city": "Humaitá",
        "addr:postcode": "69800-000",
        "addr:street": "Rua Vilibalde",
        "addr:suburb": "São Francisco",
        "amenity": "clinic",
        "building": "yes",
        "healthcare": "clinic",
        "healthcare:speciality": "general",
        "name": "UBS Irmã Maria Bernardes",
        "id": "way/685529098"
      },
      "geometry": {
        "type": "Polygon",
        "coordinates": [
          [
            [
              -63.0251284,
              -7.5244594
            ],
            [
              -63.0255329,
              -7.5244292
            ],
            [
              -63.0255268,
              -7.5246045
            ],
            [
              -63.0251975,
              -7.5248101
            ],
            [
              -63.0251284,
              -7.5244594
            ]
          ]
        ]
      }
    }
  ]
}
