{
  "type": "FeatureCollection",
  "features": [
    {
      "type": "Feature",
      "id": "way/296971153",
      "properties": {
        "timestamp": "2019-08-31T15:07:53Z",
        "version": 4,
        "changeset": 73951594,
        "addr:city": "Humaitá",
        "addr:postcode": "69800000",
        "addr:street": "Rodovia Transamazônica km 7",
        "addr:suburb": "São Cristovão",
        "amenity": "college",
        "camping:tents": "Humaitá",
        "name": "IFAM - Instituto Federal de Ciência e Tecnologia do Amazonas",
        "operator": "#IFES",
        "website": "http://www2.ifam.edu.br/campus/humaita",
        "id": "way/296971153"
      },
      "geometry": {
        "type": "Polygon",
        "coordinates": [
          [
            [
              -63.0725605,
              -7.5511733
            ],
            [
              -63.0722292,
              -7.5525035
            ],
            [
              -63.0706408,
              -7.5521147
            ],
            [
              -63.0709722,
              -7.5507845
            ],
            [
              -63.0714348,
              -7.5508977
            ],
            [
              -63.0725605,
              -7.5511733
            ]
          ]
        ]
      }
    }
  ]
}
