{
  "type": "FeatureCollection",
  "features": [
    {
      "type": "Feature",
      "id": "way/275862072",
      "properties": {
        "timestamp": "2014-04-21T03:08:15Z",
        "version": 1,
        "changeset": 21827897,
        "addr:city": "São Fidélis",
        "addr:housenumber": "135",
        "addr:postcode": "28400-000",
        "addr:street": "Rua Teixeira Soares",
        "amenity": "library",
        "building": "yes",
        "name": "Biblioteca e Museu Corina Peixoto de Araújo",
        "phone": "+55 24 27582393",
        "id": "way/275862072"
      },
      "geometry": {
        "type": "Polygon",
        "coordinates": [
          [
            [
              -41.7477196,
              -21.6458554
            ],
            [
              -41.7475362,
              -21.6460253
            ],
            [
              -41.7473435,
              -21.6458455
            ],
            [
              -41.7475269,
              -21.6456756
            ],
            [
              -41.7477196,
              -21.6458554
            ]
          ]
        ]
      }
    }
  ]
}
