{
  "type": "FeatureCollection",
  "features": [
    {
      "type": "Feature",
      "id": "node/4354204022",
      "properties": {
        "timestamp": "2022-09-09T17:01:05Z",
        "version": 8,
        "changeset": 125989606,
        "addr:city": "Botuverá",
        "addr:housenumber": "60",
        "addr:postcode": "88295-000",
        "addr:street": "Rua João Morelli",
        "addr:suburb": "Centro",
        "alt_name": "Câmara de Vereadores de Botuverá",
        "government": "legislative",
        "name": "Câmara Municipal de Botuverá",
        "office": "government",
        "phone": "+55 47 3359-1223",
        "website": "https://www.camarabotuvera.sc.gov.br/",
        "id": "node/4354204022"
      },
      "geometry": {
        "type": "Point",
        "coordinates": [
          -49.0732733,
          -27.1979475
        ]
      }
    },
    {
      "type": "Feature",
      "id": "node/9127724564",
      "properties": {
        "timestamp": "2021-09-27T19:24:32Z",
        "version": 1,
        "changeset": 111784961,
        "addr:city": "Botuverá",
        "addr:housenumber": "99",
        "addr:postcode": "88370-000",
        "addr:street": "Rua Luiz Vicentini",
        "government": "register_office",
        "name": "Cartório de Botuverá",
        "office": "government",
        "phone": "+55 47 3359-1420",
        "id": "node/9127724564"
      },
      "geometry": {
        "type": "Point",
        "coordinates": [
          -49.0720467,
          -27.1940931
        ]
      }
    },
    {
      "type": "Feature",
      "id": "node/9127889380",
      "properties": {
        "timestamp": "2021-09-27T20:41:10Z",
        "version": 1,
        "changeset": 111787977,
        "addr:city": "Botuverá",
        "addr:housenumber": "5",
        "addr:street": "Rua João Morelli",
        "government": "administrative",
        "name": "Secretaria de Saúde",
        "office": "government",
        "id": "node/9127889380"
      },
      "geometry": {
        "type": "Point",
        "coordinates": [
          -49.0725198,
          -27.1974449
        ]
      }
    },
    {
      "type": "Feature",
      "id": "node/9127889393",
      "properties": {
        "timestamp": "2022-09-09T17:01:05Z",
        "version": 3,
        "changeset": 125989606,
        "addr:city": "Botuverá",
        "addr:housenumber": "62",
        "addr:street": "Rua João Morelli",
        "government": "agriculture",
        "name": "Secretaria Municipal de Agricultura",
        "office": "government",
        "id": "node/9127889393"
      },
      "geometry": {
        "type": "Point",
        "coordinates": [
          -49.0732331,
          -27.1978669
        ]
      }
    },
    {
      "type": "Feature",
      "id": "node/9127916957",
      "properties": {
        "timestamp": "2022-06-13T21:59:34Z",
        "version": 2,
        "changeset": 122345201,
        "addr:city": "Botuverá",
        "addr:housenumber": "134",
        "addr:street": "Rua João Morelli",
        "government": "education",
        "name": "Secretaria de Educação",
        "office": "government",
        "id": "node/9127916957"
      },
      "geometry": {
        "type": "Point",
        "coordinates": [
          -49.073405,
          -27.1987199
        ]
      }
    }
  ]
}
