{
  "type": "FeatureCollection",
  "features": [
    {
      "type": "Feature",
      "id": "way/974991817",
      "properties": {
        "timestamp": "2021-08-20T12:52:31Z",
        "version": 1,
        "changeset": 109987412,
        "addr:city": "Afonso Cunha",
        "addr:housenumber": "02",
        "addr:postcode": "65505-000",
        "addr:street": "Avenida Raimundo de Melo Bacelar",
        "addr:suburb": "Centro",
        "amenity": "school",
        "name": "Centro de Ensino - Anália Bacelar Silva",
        "id": "way/974991817"
      },
      "geometry": {
        "type": "Polygon",
        "coordinates": [
          [
            [
              -43.3227498,
              -4.1334181
            ],
            [
              -43.3228684,
              -4.1339225
            ],
            [
              -43.322186,
              -4.1340821
            ],
            [
              -43.3220675,
              -4.1335778
            ],
            [
              -43.3227498,
              -4.1334181
            ]
          ]
        ]
      }
    },
    {
      "type": "Feature",
      "id": "way/974993327",
      "properties": {
        "timestamp": "2021-08-20T13:00:51Z",
        "version": 1,
        "changeset": 109987870,
        "addr:city": "Afonso Cunha",
        "addr:postcode": "65505-000",
        "amenity": "school",
        "name": "EM Mariza Duarte",
        "id": "way/974993327"
      },
      "geometry": {
        "type": "Polygon",
        "coordinates": [
          [
            [
              -43.3858779,
              -4.2110582
            ],
            [
              -43.3860759,
              -4.2110428
            ],
            [
              -43.3861196,
              -4.2116039
            ],
            [
              -43.3859217,
              -4.2116192
            ],
            [
              -43.3858779,
              -4.2110582
            ]
          ]
        ]
      }
    },
    {
      "type": "Feature",
      "id": "way/975011630",
      "properties": {
        "timestamp": "2021-08-20T14:34:53Z",
        "version": 1,
        "changeset": 109992038,
        "addr:city": "Afonso Cunha",
        "addr:postcode": "65505-000",
        "addr:street": "Avenida Antonio Bacelar",
        "addr:suburb": "Centro",
        "amenity": "school",
        "name": "UE Deputado Federal Gastão Dias Vieira",
        "phone": "+55 98 3484 1179",
        "id": "way/975011630"
      },
      "geometry": {
        "type": "Polygon",
        "coordinates": [
          [
            [
              -43.323117,
              -4.1340753
            ],
            [
              -43.3235427,
              -4.1339772
            ],
            [
              -43.3236432,
              -4.1344111
            ],
            [
              -43.3232176,
              -4.1345091
            ],
            [
              -43.323117,
              -4.1340753
            ]
          ]
        ]
      }
    },
    {
      "type": "Feature",
      "id": "node/7140446488",
      "properties": {
        "timestamp": "2020-01-18T01:40:45Z",
        "version": 2,
        "changeset": 79720461,
        "addr:postcode": "65505-000",
        "amenity": "school",
        "fixme": "verifique a localização pfvr",
        "name": "Escola Ateneu Duque Bacelar",
        "operator": "Público",
        "phone": "+55 98 3484 1041",
        "id": "node/7140446488"
      },
      "geometry": {
        "type": "Point",
        "coordinates": [
          -43.3223709,
          -4.1329366
        ]
      }
    },
    {
      "type": "Feature",
      "id": "node/7140482985",
      "properties": {
        "timestamp": "2021-08-20T13:48:33Z",
        "version": 2,
        "changeset": 109989949,
        "addr:city": "Afonso Cunha",
        "addr:postcode": "65505-000",
        "amenity": "school",
        "name": "EM Agda Rosa de Sousa",
        "id": "node/7140482985"
      },
      "geometry": {
        "type": "Point",
        "coordinates": [
          -43.249809,
          -4.2078192
        ]
      }
    },
    {
      "type": "Feature",
      "id": "node/7140482986",
      "properties": {
        "timestamp": "2021-08-20T13:13:46Z",
        "version": 2,
        "changeset": 109988504,
        "addr:city": "Afonso Cunha",
        "addr:postcode": "65505-000",
        "amenity": "school",
        "name": "EM São Francisco",
        "phone": "+55 98 3484 1047",
        "id": "node/7140482986"
      },
      "geometry": {
        "type": "Point",
        "coordinates": [
          -43.2315167,
          -4.305735
        ]
      }
    },
    {
      "type": "Feature",
      "id": "node/7140483085",
      "properties": {
        "timestamp": "2020-01-18T01:53:47Z",
        "version": 1,
        "changeset": 79720583,
        "addr:postcode": "65505-000",
        "amenity": "school",
        "name": "EM Maria Gomes de Oliveira",
        "id": "node/7140483085"
      },
      "geometry": {
        "type": "Point",
        "coordinates": [
          -43.2688617,
          -4.0807883
        ]
      }
    },
    {
      "type": "Feature",
      "id": "node/7140483086",
      "properties": {
        "timestamp": "2020-01-18T01:53:48Z",
        "version": 1,
        "changeset": 79720583,
        "addr:postcode": "65505-000",
        "amenity": "school",
        "name": "EM Bacelândia",
        "id": "node/7140483086"
      },
      "geometry": {
        "type": "Point",
        "coordinates": [
          -43.2396017,
          -4.230955
        ]
      }
    },
    {
      "type": "Feature",
      "id": "node/7140498286",
      "properties": {
        "timestamp": "2021-08-20T14:17:52Z",
        "version": 2,
        "changeset": 109991292,
        "addr:city": "Afonso Cunha",
        "addr:postcode": "65505-000",
        "amenity": "school",
        "name": "EM Maria Bacelar",
        "id": "node/7140498286"
      },
      "geometry": {
        "type": "Point",
        "coordinates": [
          -43.2607054,
          -4.1299374
        ]
      }
    },
    {
      "type": "Feature",
      "id": "node/7140498288",
      "properties": {
        "timestamp": "2020-01-18T02:23:11Z",
        "version": 1,
        "changeset": 79720930,
        "addr:postcode": "65505-000",
        "amenity": "school",
        "name": "EM - Santa Vitória",
        "id": "node/7140498288"
      },
      "geometry": {
        "type": "Point",
        "coordinates": [
          -43.2283247,
          -4.1602147
        ]
      }
    },
    {
      "type": "Feature",
      "id": "node/7140498290",
      "properties": {
        "timestamp": "2021-08-20T12:45:40Z",
        "version": 2,
        "changeset": 109987085,
        "addr:city": "Afonso Cunha",
        "addr:postcode": "65505-000",
        "addr:street": "Rua Francisco Machado",
        "amenity": "school",
        "name": "Escolinha Roseana Sarney",
        "id": "node/7140498290"
      },
      "geometry": {
        "type": "Point",
        "coordinates": [
          -43.3238533,
          -4.13555
        ]
      }
    },
    {
      "type": "Feature",
      "id": "node/7140498291",
      "properties": {
        "timestamp": "2020-01-18T02:23:14Z",
        "version": 1,
        "changeset": 79720930,
        "addr:postcode": "65505-000",
        "addr:street": "Povoado Jiboa",
        "amenity": "school",
        "name": "EM - Santa Rita de Cassia",
        "id": "node/7140498291"
      },
      "geometry": {
        "type": "Point",
        "coordinates": [
          -43.2315436,
          -4.2637266
        ]
      }
    },
    {
      "type": "Feature",
      "id": "node/7140498292",
      "properties": {
        "timestamp": "2020-01-18T02:23:14Z",
        "version": 1,
        "changeset": 79720930,
        "addr:postcode": "65505-000",
        "amenity": "school",
        "name": "EM - Tânia Cristine Ribeiro B Nunes",
        "id": "node/7140498292"
      },
      "geometry": {
        "type": "Point",
        "coordinates": [
          -43.3917805,
          -4.1958012
        ]
      }
    },
    {
      "type": "Feature",
      "id": "node/7140498293",
      "properties": {
        "timestamp": "2021-08-20T13:51:06Z",
        "version": 2,
        "changeset": 109990051,
        "addr:city": "Afonso Cunha",
        "addr:postcode": "65505-000",
        "addr:suburb": "Sao Pedro",
        "amenity": "school",
        "name": "EM - João Paulo II",
        "id": "node/7140498293"
      },
      "geometry": {
        "type": "Point",
        "coordinates": [
          -43.3832601,
          -4.22919
        ]
      }
    },
    {
      "type": "Feature",
      "id": "node/7140498294",
      "properties": {
        "timestamp": "2021-08-20T12:43:59Z",
        "version": 2,
        "changeset": 109987014,
        "addr:city": "Afonso Cunha",
        "addr:postcode": "65505-000",
        "addr:street": "Rua Prefeito Francisco Santos",
        "addr:suburb": "Campo Velho",
        "amenity": "school",
        "name": "Escolinha Comunitária - Walter Oliveira Viana",
        "phone": "+55 98 9 9149 2043",
        "id": "node/7140498294"
      },
      "geometry": {
        "type": "Point",
        "coordinates": [
          -43.3243282,
          -4.1360106
        ]
      }
    },
    {
      "type": "Feature",
      "id": "node/7140525285",
      "properties": {
        "timestamp": "2021-08-20T14:01:15Z",
        "version": 2,
        "changeset": 109990500,
        "addr:city": "Afonso Cunha",
        "addr:postcode": "65505-000",
        "amenity": "school",
        "name": "EM Francisco Ferreira",
        "id": "node/7140525285"
      },
      "geometry": {
        "type": "Point",
        "coordinates": [
          -43.2783524,
          -4.3144252
        ]
      }
    }
  ]
}
