{
  "type": "FeatureCollection",
  "features": [
    {
      "type": "Feature",
      "id": "way/1115614829",
      "properties": {
        "timestamp": "2022-11-19T23:50:44Z",
        "version": 1,
        "changeset": 129141161,
        "amenity": "school",
        "id": "way/1115614829"
      },
      "geometry": {
        "type": "Polygon",
        "coordinates": [
          [
            [
              -37.5408519,
              -7.5899355
            ],
            [
              -37.5403959,
              -7.5899813
            ],
            [
              -37.540326,
              -7.589296
            ],
            [
              -37.540782,
              -7.5892503
            ],
            [
              -37.5408519,
              -7.5899355
            ]
          ]
        ]
      }
    },
    {
      "type": "Feature",
      "id": "node/11420772159",
      "properties": {
        "timestamp": "2023-12-15T18:14:46Z",
        "version": 1,
        "changeset": 145161286,
        "addr:city": "Tabira",
        "addr:housenumber": "42",
        "addr:postcode": "56.780-000",
        "addr:street": "UA GENESIA MASCENA VERAS",
        "addr:suburb": "Centro",
        "amenity": "school",
        "name": "Escola Arnaldo Alves Cavalcanti (EREM)",
        "operator": "Estado de pernambuco",
        "operator:type": "public",
        "website": "https://qedu.org.br/escola/26023245-escola-arnaldo-alves-cavalcanti",
        "id": "node/11420772159"
      },
      "geometry": {
        "type": "Point",
        "coordinates": [
          -37.5373414,
          -7.5884495
        ]
      }
    }
  ]
}
