{
  "type": "FeatureCollection",
  "features": [
    {
      "type": "Feature",
      "id": "way/405172712",
      "properties": {
        "timestamp": "2018-09-18T09:51:26Z",
        "version": 5,
        "changeset": 62691118,
        "amenity": "college",
        "name": "Colégio Génius",
        "id": "way/405172712"
      },
      "geometry": {
        "type": "Polygon",
        "coordinates": [
          [
            [
              -49.336681,
              -15.7510369
            ],
            [
              -49.3361175,
              -15.7524911
            ],
            [
              -49.3354231,
              -15.752122
            ],
            [
              -49.3364912,
              -15.7509366
            ],
            [
              -49.336681,
              -15.7510369
            ]
          ]
        ]
      }
    },
    {
      "type": "Feature",
      "id": "node/9638801203",
      "properties": {
        "timestamp": "2022-04-08T16:40:30Z",
        "version": 3,
        "changeset": 119478080,
        "addr:city": "Jaraguá-go",
        "addr:housenumber": "BR-153",
        "addr:postcode": "76330000",
        "addr:street": "Rua Manoel Ribeiro de Freitas Machado",
        "addr:suburb": "Vila São José",
        "amenity": "college",
        "name": "COTEC Irtes Alves de Castro Ribeiro",
        "operator": "COTEC",
        "operator:type": "private",
        "website": "https://www.instagram.com/cotecgoias/",
        "id": "node/9638801203"
      },
      "geometry": {
        "type": "Point",
        "coordinates": [
          -49.3163223,
          -15.7541187
        ]
      }
    }
  ]
}
