{
  "type": "FeatureCollection",
  "features": [
    {
      "type": "Feature",
      "id": "way/529791877",
      "properties": {
        "timestamp": "2021-02-21T06:15:21Z",
        "version": 2,
        "changeset": 99668328,
        "amenity": "dentist",
        "building": "yes",
        "healthcare": "dentist",
        "name": "Odontologia São Martinho",
        "id": "way/529791877"
      },
      "geometry": {
        "type": "Polygon",
        "coordinates": [
          [
            [
              -49.0253311,
              -28.442953
            ],
            [
              -49.0253646,
              -28.4430345
            ],
            [
              -49.0252881,
              -28.4430589
            ],
            [
              -49.025276,
              -28.4430294
            ],
            [
              -49.0252546,
              -28.4429773
            ],
            [
              -49.0253311,
              -28.442953
            ]
          ]
        ]
      }
    },
    {
      "type": "Feature",
      "id": "way/1152763442",
      "properties": {
        "timestamp": "2023-03-08T20:14:04Z",
        "version": 1,
        "changeset": 133454455,
        "addr:city": "Tubarão",
        "addr:housenumber": "1369",
        "addr:postcode": "88702-101",
        "addr:street": "Rua Altamiro Guimarães",
        "addr:suburb": "Oficinas",
        "amenity": "dentist",
        "building": "yes",
        "healthcare": "dentist",
        "name": "Odonto Oficinas",
        "opening_hours": "Mo-Fr 08:00-12:00,13:30-18:30",
        "phone": "+55 48 3626-0171",
        "wheelchair": "yes",
        "id": "way/1152763442"
      },
      "geometry": {
        "type": "Polygon",
        "coordinates": [
          [
            [
              -49.0210415,
              -28.4891206
            ],
            [
              -49.0211111,
              -28.4891382
            ],
            [
              -49.0210763,
              -28.4892442
            ],
            [
              -49.0210067,
              -28.4892265
            ],
            [
              -49.0210415,
              -28.4891206
            ]
          ]
        ]
      }
    },
    {
      "type": "Feature",
      "id": "node/5145997441",
      "properties": {
        "timestamp": "2022-08-10T03:39:44Z",
        "version": 3,
        "changeset": 124709394,
        "entrance": "main",
        "id": "node/5145997441"
      },
      "geometry": {
        "type": "Point",
        "coordinates": [
          -49.025276,
          -28.4430294
        ]
      }
    },
    {
      "type": "Feature",
      "id": "node/10308927247",
      "properties": {
        "timestamp": "2023-01-11T14:49:50Z",
        "version": 2,
        "changeset": 131149461,
        "amenity": "dentist",
        "description": "Clínica Odonto",
        "healthcare": "dentist",
        "name": "Pro Orto",
        "id": "node/10308927247"
      },
      "geometry": {
        "type": "Point",
        "coordinates": [
          -49.0048639,
          -28.4808714
        ]
      }
    },
    {
      "type": "Feature",
      "id": "node/10722172137",
      "properties": {
        "timestamp": "2023-03-08T20:14:04Z",
        "version": 1,
        "changeset": 133454455,
        "addr:city": "Tubarão",
        "addr:housenumber": "1337",
        "addr:postcode": "88702-101",
        "addr:street": "Rua Altamiro Guimarães",
        "addr:suburb": "Oficinas",
        "amenity": "dentist",
        "healthcare": "dentist",
        "level": "0",
        "name": "Odontologia Elaine Zapelini",
        "opening_hours": "Mo-Th 09:30-11:30,13:30-19:00; Fr 09:30-11:30,13:30-18:00",
        "phone": "+55 48 3632-0198",
        "id": "node/10722172137"
      },
      "geometry": {
        "type": "Point",
        "coordinates": [
          -49.0205998,
          -28.4889921
        ]
      }
    },
    {
      "type": "Feature",
      "id": "node/10723637804",
      "properties": {
        "timestamp": "2023-03-09T14:38:04Z",
        "version": 1,
        "changeset": 133481774,
        "addr:city": "Tubarão",
        "addr:housenumber": "310",
        "addr:postcode": "88702-210",
        "addr:street": "Rua Laguna",
        "addr:suburb": "Oficinas",
        "amenity": "dentist",
        "healthcare": "dentist",
        "name": "Odontologia e Harmonizacao Adriano e Heloisa Souza",
        "phone": "+55 48 99651-6789",
        "id": "node/10723637804"
      },
      "geometry": {
        "type": "Point",
        "coordinates": [
          -49.0194255,
          -28.4874916
        ]
      }
    }
  ]
}
