{
  "type": "FeatureCollection",
  "features": [
    {
      "type": "Feature",
      "id": "way/1033360359",
      "properties": {
        "timestamp": "2022-02-20T00:07:41Z",
        "version": 1,
        "changeset": 117622860,
        "addr:city": "Ipueiras",
        "addr:postcode": "77553-000",
        "addr:street": "Avenida Raimundo Pinto Correia",
        "addr:suburb": "Centro'",
        "amenity": "school",
        "name": "Esc Est Felix Camoa Ii",
        "phone": "+55 63 3536 1118",
        "id": "way/1033360359"
      },
      "geometry": {
        "type": "Polygon",
        "coordinates": [
          [
            [
              -48.4440221,
              -11.2385898
            ],
            [
              -48.4437941,
              -11.2391527
            ],
            [
              -48.4430592,
              -11.2388292
            ],
            [
              -48.4433059,
              -11.2382714
            ],
            [
              -48.4440221,
              -11.2385898
            ]
          ]
        ]
      }
    },
    {
      "type": "Feature",
      "id": "node/9520680114",
      "properties": {
        "timestamp": "2022-02-20T00:04:24Z",
        "version": 1,
        "changeset": 117622829,
        "addr:city": "Ipueiras",
        "addr:postcode": "77553-000",
        "addr:street": "Avenida Santo Ant√¥nio",
        "addr:suburb": "Centro",
        "amenity": "school",
        "name": "Esc Mul Firmina Pereira Dos Santos Pinto",
        "phone": "+55 63 3536 1076",
        "id": "node/9520680114"
      },
      "geometry": {
        "type": "Point",
        "coordinates": [
          -48.4442608,
          -11.241481
        ]
      }
    }
  ]
}
