{
  "type": "FeatureCollection",
  "features": [
    {
      "type": "Feature",
      "id": "way/374642402",
      "properties": {
        "timestamp": "2022-11-18T18:37:30Z",
        "version": 2,
        "changeset": 129097552,
        "addr:city": "Corumbá",
        "addr:housenumber": "1880",
        "addr:postcode": "79331-000",
        "addr:street": "Rua 21 de Setembro",
        "addr:suburb": "Nossa Senhora de Fátima",
        "government": "yes",
        "name": "Embrapa",
        "office": "government",
        "phone": "+55 67 3234 5800",
        "id": "way/374642402"
      },
      "geometry": {
        "type": "Polygon",
        "coordinates": [
          [
            [
              -57.6565348,
              -19.0189253
            ],
            [
              -57.6578751,
              -19.0193712
            ],
            [
              -57.6576743,
              -19.0199716
            ],
            [
              -57.6562873,
              -19.0195257
            ],
            [
              -57.6565348,
              -19.0189253
            ]
          ]
        ]
      }
    },
    {
      "type": "Feature",
      "id": "node/3190991701",
      "properties": {
        "timestamp": "2018-11-14T16:39:50Z",
        "version": 3,
        "changeset": 64491777,
        "government": "customs",
        "name": "Receita Federal do Brasil (Aduana)",
        "office": "government",
        "id": "node/3190991701"
      },
      "geometry": {
        "type": "Point",
        "coordinates": [
          -57.7074603,
          -19.0280424
        ]
      }
    },
    {
      "type": "Feature",
      "id": "node/3841608993",
      "properties": {
        "timestamp": "2019-03-16T04:47:02Z",
        "version": 2,
        "changeset": 68195552,
        "addr:city": "Corumba",
        "addr:housenumber": "1641",
        "addr:street": "Rua Firmo de Matos",
        "name": "Oficina de empadronamiento electoral de Bolivia en el exterior",
        "office": "government",
        "website": "https://yoparticipo.oep.org.bo/",
        "id": "node/3841608993"
      },
      "geometry": {
        "type": "Point",
        "coordinates": [
          -57.6553901,
          -19.0131756
        ]
      }
    },
    {
      "type": "Feature",
      "id": "node/4299128491",
      "properties": {
        "timestamp": "2021-03-23T23:42:21Z",
        "version": 4,
        "changeset": 101602756,
        "government": "migration",
        "name": "Imigração Brasileira",
        "office": "government",
        "opening_hours": "Mo-Su 08:00-18:00",
        "id": "node/4299128491"
      },
      "geometry": {
        "type": "Point",
        "coordinates": [
          -57.7078502,
          -19.0277427
        ]
      }
    },
    {
      "type": "Feature",
      "id": "node/12196890278",
      "properties": {
        "timestamp": "2024-09-24T12:10:27Z",
        "version": 1,
        "changeset": 157036781,
        "addr:city": "Corumbá",
        "addr:housenumber": "1354",
        "addr:postcode": "79330-040",
        "addr:street": "Rua Delamare",
        "addr:suburb": "Centro",
        "government": "register_office",
        "name": "2º Serviço Notarial e de Registro Civil",
        "office": "government",
        "opening_hours": "Mo-Fr 08:00-11:00, 13:00-17:00",
        "phone": "+55 67 99964 1891",
        "id": "node/12196890278"
      },
      "geometry": {
        "type": "Point",
        "coordinates": [
          -57.6567305,
          -18.999896
        ]
      }
    }
  ]
}
