{
  "type": "FeatureCollection",
  "features": [
    {
      "type": "Feature",
      "id": "node/2124538868",
      "properties": {
        "timestamp": "2013-01-22T22:19:06Z",
        "version": 1,
        "changeset": 14751489,
        "name": "Pousada Levitour",
        "tourism": "guest_house",
        "id": "node/2124538868"
      },
      "geometry": {
        "type": "Point",
        "coordinates": [
          -57.543351,
          -19.0187249
        ]
      }
    },
    {
      "type": "Feature",
      "id": "node/2124539288",
      "properties": {
        "timestamp": "2014-07-09T20:02:08Z",
        "version": 2,
        "changeset": 24052087,
        "name": "Pousada Pontal",
        "tourism": "guest_house",
        "id": "node/2124539288"
      },
      "geometry": {
        "type": "Point",
        "coordinates": [
          -57.4999261,
          -19.0226923
        ]
      }
    },
    {
      "type": "Feature",
      "id": "node/2124539363",
      "properties": {
        "timestamp": "2013-01-22T22:19:30Z",
        "version": 1,
        "changeset": 14751489,
        "name": "Pousada Vitoria Regia",
        "tourism": "guest_house",
        "id": "node/2124539363"
      },
      "geometry": {
        "type": "Point",
        "coordinates": [
          -57.5519173,
          -19.0192253
        ]
      }
    },
    {
      "type": "Feature",
      "id": "node/2126007714",
      "properties": {
        "timestamp": "2023-08-22T19:17:57Z",
        "version": 2,
        "changeset": 140243490,
        "name": "Pousada Tagiloma",
        "tourism": "guest_house",
        "id": "node/2126007714"
      },
      "geometry": {
        "type": "Point",
        "coordinates": [
          -57.6261661,
          -18.9948298
        ]
      }
    },
    {
      "type": "Feature",
      "id": "node/4033239959",
      "properties": {
        "timestamp": "2017-04-27T14:41:51Z",
        "version": 2,
        "changeset": 48197336,
        "name": "Pousada Arara Azul",
        "tourism": "guest_house",
        "id": "node/4033239959"
      },
      "geometry": {
        "type": "Point",
        "coordinates": [
          -57.0522697,
          -19.3205336
        ]
      }
    },
    {
      "type": "Feature",
      "id": "node/4358199351",
      "properties": {
        "timestamp": "2022-04-04T00:11:23Z",
        "version": 3,
        "changeset": 119281484,
        "addr:city": "Corumba",
        "addr:postcode": "79210-000",
        "addr:street": "Estrada Parque Pantanal-MS",
        "addr:suburb": "km 72",
        "name": "São João Ecotur - Estrada Parque Pantanal MS",
        "name:en": "São João - Pantanal Park Road MS",
        "opening_hours": "24/7",
        "operator": "Pousada",
        "phone": "+5567996483730",
        "tourism": "guest_house",
        "website": "https://pousadasaojoao.com.br/",
        "id": "node/4358199351"
      },
      "geometry": {
        "type": "Point",
        "coordinates": [
          -57.0404071,
          -19.401042
        ]
      }
    },
    {
      "type": "Feature",
      "id": "node/6622688386",
      "properties": {
        "timestamp": "2019-07-17T12:42:06Z",
        "version": 1,
        "changeset": 72346779,
        "name": "Fazenda Xaraes",
        "tourism": "guest_house",
        "id": "node/6622688386"
      },
      "geometry": {
        "type": "Point",
        "coordinates": [
          -56.9570935,
          -19.4935295
        ]
      }
    },
    {
      "type": "Feature",
      "id": "node/8791774052",
      "properties": {
        "timestamp": "2021-06-02T12:08:28Z",
        "version": 1,
        "changeset": 105720656,
        "name": "Ilha caveira",
        "tourism": "guest_house",
        "id": "node/8791774052"
      },
      "geometry": {
        "type": "Point",
        "coordinates": [
          -57.367968,
          -18.3377465
        ]
      }
    },
    {
      "type": "Feature",
      "id": "node/9256713797",
      "properties": {
        "timestamp": "2024-03-25T14:51:24Z",
        "version": 2,
        "changeset": 149135201,
        "addr:city": "Corumbá",
        "addr:housenumber": "4",
        "addr:postcode": "79333120",
        "addr:street": "Rua Alan Kardec",
        "addr:suburb": "Dom Bosco",
        "email": "cachimboresort@yahoo.com.br",
        "guest_house": "hostel",
        "internet_access": "yes",
        "internet_access:fee": "no",
        "name": "Pousada do Cachimbo",
        "operator": "Hugo Perreira",
        "rooms": "15",
        "tourism": "guest_house",
        "id": "node/9256713797"
      },
      "geometry": {
        "type": "Point",
        "coordinates": [
          -57.6731217,
          -19.0027127
        ]
      }
    }
  ]
}
