{
  "type": "FeatureCollection",
  "features": [
    {
      "type": "Feature",
      "id": "way/149084499",
      "properties": {
        "timestamp": "2024-11-27T01:06:15Z",
        "version": 4,
        "changeset": 159639247,
        "addr:city": "Corumbá",
        "addr:housenumber": "1555",
        "addr:postcode": "79310-050",
        "addr:street": "Rua Nossa Senhora da Candelária",
        "addr:suburb": "Maria Leite",
        "amenity": "school",
        "name": "SESI - Centro de Atividades",
        "id": "way/149084499"
      },
      "geometry": {
        "type": "Polygon",
        "coordinates": [
          [
            [
              -57.6255105,
              -19.0123178
            ],
            [
              -57.6254623,
              -19.0115578
            ],
            [
              -57.6268944,
              -19.0114767
            ],
            [
              -57.6269426,
              -19.0122364
            ],
            [
              -57.6255105,
              -19.0123178
            ]
          ]
        ]
      }
    },
    {
      "type": "Feature",
      "id": "way/162013279",
      "properties": {
        "timestamp": "2022-11-18T22:41:53Z",
        "version": 4,
        "changeset": 129105086,
        "addr:city": "Corumbá",
        "addr:housenumber": "4375",
        "addr:postcode": "79331-000",
        "addr:street": "Rua Ciríaco de Toledo",
        "addr:suburb": "Guanã",
        "amenity": "school",
        "name": "Escola Clio Proença",
        "phone": "+55 67 3907 5366",
        "id": "way/162013279"
      },
      "geometry": {
        "type": "Polygon",
        "coordinates": [
          [
            [
              -57.6483339,
              -19.051272
            ],
            [
              -57.6475642,
              -19.0510198
            ],
            [
              -57.6477974,
              -19.0503838
            ],
            [
              -57.6485405,
              -19.0506272
            ],
            [
              -57.648557,
              -19.0506638
            ],
            [
              -57.6483339,
              -19.051272
            ]
          ]
        ]
      }
    },
    {
      "type": "Feature",
      "id": "way/292079876",
      "properties": {
        "timestamp": "2019-11-05T20:57:58Z",
        "version": 2,
        "changeset": 76667745,
        "amenity": "school",
        "building": "yes",
        "name": "escolar",
        "id": "way/292079876"
      },
      "geometry": {
        "type": "Polygon",
        "coordinates": [
          [
            [
              -57.4075923,
              -18.4899079
            ],
            [
              -57.4076623,
              -18.490065
            ],
            [
              -57.4075345,
              -18.4901162
            ],
            [
              -57.4074645,
              -18.4899591
            ],
            [
              -57.4075923,
              -18.4899079
            ]
          ]
        ]
      }
    },
    {
      "type": "Feature",
      "id": "node/8077406646",
      "properties": {
        "timestamp": "2020-11-03T10:09:23Z",
        "version": 1,
        "changeset": 93473370,
        "amenity": "school",
        "isced:level": "1",
        "name": "Escola Jatobazinho",
        "operator": "Acaia Pantanal",
        "id": "node/8077406646"
      },
      "geometry": {
        "type": "Point",
        "coordinates": [
          -57.5140954,
          -18.580133
        ]
      }
    },
    {
      "type": "Feature",
      "id": "node/10087966617",
      "properties": {
        "timestamp": "2024-10-05T13:35:41Z",
        "version": 2,
        "changeset": 157501552,
        "addr:city": "Corumbá",
        "addr:housenumber": "km 1",
        "addr:postcode": "79331-000",
        "addr:street": "Rodovia Ramon Gomes",
        "addr:suburb": "Dom Bosco",
        "amenity": "school",
        "name": "Escola Padre Ernesto Sassida",
        "official_name": "Centro de Atendimento Integral à Criança Padre Ernesto Sassida",
        "phone": "+55 67 3907 5365",
        "short_name": "CAIC Padre Ernesto Sassida",
        "id": "node/10087966617"
      },
      "geometry": {
        "type": "Point",
        "coordinates": [
          -57.6755086,
          -19.0086857
        ]
      }
    },
    {
      "type": "Feature",
      "id": "node/10098119472",
      "properties": {
        "timestamp": "2022-10-13T13:57:48Z",
        "version": 1,
        "changeset": 127472232,
        "addr:city": "Corumbá",
        "addr:housenumber": "330",
        "addr:postcode": "79331-000",
        "addr:street": "Rua Ciríaco de Toledo",
        "addr:suburb": "Dom Bosco",
        "amenity": "school",
        "name": "Escola Dom Bosco",
        "phone": "+55 67 3231 0501",
        "website": "https://www.eecdb.com.br/",
        "id": "node/10098119472"
      },
      "geometry": {
        "type": "Point",
        "coordinates": [
          -57.6649243,
          -19.0050402
        ]
      }
    },
    {
      "type": "Feature",
      "id": "node/10098207702",
      "properties": {
        "timestamp": "2022-10-13T14:18:26Z",
        "version": 1,
        "changeset": 127473014,
        "addr:city": "Corumbá",
        "addr:housenumber": "280",
        "addr:postcode": "79331-120",
        "addr:street": "Avenida Brandão Junior",
        "addr:suburb": "Cervejaria",
        "amenity": "school",
        "name": "Escola Tilma Fernandes Veiga",
        "phone": "+55 67 3907 5356",
        "id": "node/10098207702"
      },
      "geometry": {
        "type": "Point",
        "coordinates": [
          -57.6631706,
          -18.9992513
        ]
      }
    },
    {
      "type": "Feature",
      "id": "node/10200195853",
      "properties": {
        "timestamp": "2022-11-18T18:23:32Z",
        "version": 1,
        "changeset": 129097186,
        "addr:city": "Corumbá",
        "addr:housenumber": "1655",
        "addr:postcode": "79320-200",
        "addr:street": "Rua Alan Kardec",
        "addr:suburb": "Aeroporto",
        "amenity": "school",
        "name": "Escola Rachid Bardauil",
        "phone": "+55 67 39075368",
        "id": "node/10200195853"
      },
      "geometry": {
        "type": "Point",
        "coordinates": [
          -57.6660111,
          -19.0198524
        ]
      }
    },
    {
      "type": "Feature",
      "id": "node/10200379141",
      "properties": {
        "timestamp": "2022-11-18T20:27:27Z",
        "version": 1,
        "changeset": 129100803,
        "addr:city": "Corumbá",
        "addr:housenumber": "60",
        "addr:postcode": "79331-000",
        "addr:street": "Alameda Augusto Amaral",
        "addr:suburb": "Popular Nova",
        "amenity": "school",
        "name": "Escola Izabel Correa de Oliveira",
        "phone": "+55 67 3907 5358",
        "id": "node/10200379141"
      },
      "geometry": {
        "type": "Point",
        "coordinates": [
          -57.656921,
          -19.02546
        ]
      }
    },
    {
      "type": "Feature",
      "id": "node/10200388982",
      "properties": {
        "timestamp": "2022-11-18T20:28:38Z",
        "version": 1,
        "changeset": 129100837,
        "addr:city": "Corumbá",
        "addr:housenumber": "90",
        "addr:postcode": "79331-000",
        "addr:street": "Rua São Paulo",
        "addr:suburb": "Popular Nova",
        "amenity": "school",
        "name": "Escola Maria Helena Albaneze",
        "phone": "+55 67 323 37034",
        "id": "node/10200388982"
      },
      "geometry": {
        "type": "Point",
        "coordinates": [
          -57.6582635,
          -19.0269524
        ]
      }
    },
    {
      "type": "Feature",
      "id": "node/10200391925",
      "properties": {
        "timestamp": "2022-11-18T20:30:24Z",
        "version": 1,
        "changeset": 129100891,
        "addr:city": "Corumbá",
        "addr:postcode": "79331-000",
        "addr:street": "Rua Pará",
        "addr:suburb": "Jardim dos Estados",
        "amenity": "school",
        "name": "Escola Ângela Maria Perez",
        "nohousenumber": "yes",
        "phone": "+55 67 3907 5362",
        "id": "node/10200391925"
      },
      "geometry": {
        "type": "Point",
        "coordinates": [
          -57.654955,
          -19.0337869
        ]
      }
    },
    {
      "type": "Feature",
      "id": "node/10200578348",
      "properties": {
        "timestamp": "2022-11-18T22:29:44Z",
        "version": 1,
        "changeset": 129104820,
        "addr:city": "Corumbá",
        "addr:postcode": "79331-000",
        "amenity": "school",
        "name": "Escola Pólo Paiolzinho",
        "phone": "+55 67 3232 1532",
        "id": "node/10200578348"
      },
      "geometry": {
        "type": "Point",
        "coordinates": [
          -57.7908592,
          -19.0998643
        ]
      }
    },
    {
      "type": "Feature",
      "id": "node/10200581749",
      "properties": {
        "timestamp": "2022-11-18T22:32:10Z",
        "version": 1,
        "changeset": 129104877,
        "addr:block": "Setor 13 Quadra 9",
        "addr:city": "Corumbá",
        "addr:postcode": "79333-100",
        "addr:street": "Rua Marechal Floriano",
        "addr:suburb": "Nova Corumbá",
        "amenity": "school",
        "name": "Escola Doutor Cássio Leite de Barros",
        "phone": "+55 67 3907 5354",
        "id": "node/10200581749"
      },
      "geometry": {
        "type": "Point",
        "coordinates": [
          -57.655445,
          -19.0467514
        ]
      }
    },
    {
      "type": "Feature",
      "id": "node/10200584704",
      "properties": {
        "timestamp": "2022-11-18T22:30:49Z",
        "version": 1,
        "changeset": 129104849,
        "addr:city": "Corumbá",
        "addr:district": "Assentamento Tamarineiro I",
        "addr:postcode": "79331-000",
        "amenity": "school",
        "name": "Escola Eutrópia Gomes Pedroso",
        "id": "node/10200584704"
      },
      "geometry": {
        "type": "Point",
        "coordinates": [
          -57.7421806,
          -19.0564186
        ]
      }
    },
    {
      "type": "Feature",
      "id": "node/10200587791",
      "properties": {
        "timestamp": "2022-11-18T22:27:17Z",
        "version": 1,
        "changeset": 129104770,
        "addr:city": "Corumbá",
        "addr:district": "Assentamento Taquaral",
        "addr:postcode": "79331-000",
        "amenity": "school",
        "name": "Escola Monte Azul",
        "id": "node/10200587791"
      },
      "geometry": {
        "type": "Point",
        "coordinates": [
          -57.7109459,
          -19.1135692
        ]
      }
    },
    {
      "type": "Feature",
      "id": "node/10200595054",
      "properties": {
        "timestamp": "2022-11-18T22:33:21Z",
        "version": 1,
        "changeset": 129104896,
        "addr:city": "Corumbá",
        "addr:housenumber": "2867",
        "addr:postcode": "79331-000",
        "addr:street": "Rua Ceará",
        "addr:suburb": "Nova Corumbá",
        "amenity": "school",
        "name": "Escola Nathercia Pompeo dos Santos",
        "phone": "+55 67 3233 3539",
        "id": "node/10200595054"
      },
      "geometry": {
        "type": "Point",
        "coordinates": [
          -57.6532062,
          -19.0411827
        ]
      }
    },
    {
      "type": "Feature",
      "id": "node/10201709979",
      "properties": {
        "timestamp": "2022-11-19T11:49:22Z",
        "version": 1,
        "changeset": 129120575,
        "addr:city": "Corumbá",
        "addr:district": "Porto Esperança",
        "addr:postcode": "79331-000",
        "amenity": "school",
        "name": "Escola de Porto Esperança",
        "phone": "+55 67 3907 5369",
        "id": "node/10201709979"
      },
      "geometry": {
        "type": "Point",
        "coordinates": [
          -57.4545729,
          -19.6099548
        ]
      }
    },
    {
      "type": "Feature",
      "id": "node/10201720252",
      "properties": {
        "timestamp": "2022-11-19T11:52:08Z",
        "version": 1,
        "changeset": 129120660,
        "addr:city": "Corumbá",
        "addr:postcode": "79300-000",
        "amenity": "school",
        "name": "Escola Carlos Carcano",
        "phone": "+55 67 3231 4150",
        "id": "node/10201720252"
      },
      "geometry": {
        "type": "Point",
        "coordinates": [
          -57.4761903,
          -19.3016295
        ]
      }
    },
    {
      "type": "Feature",
      "id": "node/10201742299",
      "properties": {
        "timestamp": "2022-11-19T11:50:46Z",
        "version": 1,
        "changeset": 129120620,
        "addr:city": "Corumbá",
        "addr:district": "Distrito de Albuquerque",
        "addr:postcode": "79331-000",
        "amenity": "school",
        "name": "Escola de Albuquerque",
        "phone": "+55 67 3275 1080",
        "id": "node/10201742299"
      },
      "geometry": {
        "type": "Point",
        "coordinates": [
          -57.4110679,
          -19.4012632
        ]
      }
    },
    {
      "type": "Feature",
      "id": "node/10201744572",
      "properties": {
        "timestamp": "2022-11-19T12:02:56Z",
        "version": 1,
        "changeset": 129121060,
        "addr:city": "Ladário",
        "addr:housenumber": "2245",
        "addr:postcode": "79370-000",
        "addr:street": "Rua Saldanha da Gama",
        "addr:suburb": "Almirante Tamandaré",
        "amenity": "school",
        "name": "Escola Professor João Batista",
        "phone": "+55 67 3226 1436",
        "id": "node/10201744572"
      },
      "geometry": {
        "type": "Point",
        "coordinates": [
          -57.6091248,
          -19.0172138
        ]
      }
    },
    {
      "type": "Feature",
      "id": "node/10201747110",
      "properties": {
        "timestamp": "2022-11-19T12:19:43Z",
        "version": 1,
        "changeset": 129121615,
        "addr:city": "Ladário",
        "addr:housenumber": "744",
        "addr:postcode": "79370-000",
        "addr:street": "Rua Almirante Barroso",
        "addr:suburb": "Centro",
        "amenity": "school",
        "name": "Escola Professor Eduardo Malhado",
        "phone": "+55 67 3226 1435",
        "id": "node/10201747110"
      },
      "geometry": {
        "type": "Point",
        "coordinates": [
          -57.6075538,
          -19.0061353
        ]
      }
    },
    {
      "type": "Feature",
      "id": "node/10201752132",
      "properties": {
        "timestamp": "2022-11-19T12:00:53Z",
        "version": 1,
        "changeset": 129120986,
        "addr:city": "Ladário",
        "addr:postcode": "79370-000",
        "addr:suburb": "Nova Aliança",
        "amenity": "school",
        "name": "Escola Marquês de Tamandaré",
        "phone": "+55 67 99863 4947",
        "id": "node/10201752132"
      },
      "geometry": {
        "type": "Point",
        "coordinates": [
          -57.6124128,
          -19.0246977
        ]
      }
    },
    {
      "type": "Feature",
      "id": "node/10201771748",
      "properties": {
        "timestamp": "2022-11-19T12:05:06Z",
        "version": 1,
        "changeset": 129121152,
        "addr:city": "Ladário",
        "addr:postcode": "79370-000",
        "addr:street": "Rua Riachuelo",
        "addr:suburb": "Santo Antônio",
        "amenity": "school",
        "name": "Escola Francisco Mendes Sampaio",
        "nohousenumber": "yes",
        "phone": "+55 67 3222 64237",
        "id": "node/10201771748"
      },
      "geometry": {
        "type": "Point",
        "coordinates": [
          -57.6029101,
          -19.0134972
        ]
      }
    },
    {
      "type": "Feature",
      "id": "node/10201796415",
      "properties": {
        "timestamp": "2022-11-19T12:06:49Z",
        "version": 1,
        "changeset": 129121196,
        "addr:city": "Ladário",
        "addr:housenumber": "403",
        "addr:postcode": "79370-000",
        "addr:street": "Rua Comandante Souza Lôbo",
        "addr:suburb": "Centro",
        "amenity": "school",
        "name": "Escola São Miguel",
        "phone": "+55 67 3226 1717",
        "id": "node/10201796415"
      },
      "geometry": {
        "type": "Point",
        "coordinates": [
          -57.6030051,
          -19.0056249
        ]
      }
    },
    {
      "type": "Feature",
      "id": "node/10201815712",
      "properties": {
        "timestamp": "2022-11-19T12:17:36Z",
        "version": 1,
        "changeset": 129121541,
        "addr:city": "Ladário",
        "addr:housenumber": "598",
        "addr:postcode": "79370-000",
        "addr:street": "Avenida 14 de Março",
        "addr:suburb": "Centro",
        "amenity": "school",
        "name": "Escola 2 de Setembro",
        "phone": "+55 67 3226 1380",
        "id": "node/10201815712"
      },
      "geometry": {
        "type": "Point",
        "coordinates": [
          -57.6036286,
          -19.0030208
        ]
      }
    },
    {
      "type": "Feature",
      "id": "node/10201815714",
      "properties": {
        "timestamp": "2022-11-19T12:17:36Z",
        "version": 1,
        "changeset": 129121541,
        "addr:city": "Ladário",
        "addr:housenumber": "481",
        "addr:postcode": "79370-000",
        "addr:street": "Rua Almirante Tamandaré",
        "addr:suburb": "Centro",
        "amenity": "school",
        "name": "Escola 17 de Março",
        "id": "node/10201815714"
      },
      "geometry": {
        "type": "Point",
        "coordinates": [
          -57.6025462,
          -19.0026846
        ]
      }
    },
    {
      "type": "Feature",
      "id": "node/10201816802",
      "properties": {
        "timestamp": "2022-11-19T12:18:45Z",
        "version": 1,
        "changeset": 129121575,
        "addr:city": "Ladário",
        "addr:housenumber": "162",
        "addr:postcode": "79370-000",
        "addr:street": "Avenida 14 de Março",
        "addr:suburb": "Centro",
        "amenity": "school",
        "name": "Escola Farol do Norte",
        "phone": "+55 67 99245 4103",
        "id": "node/10201816802"
      },
      "geometry": {
        "type": "Point",
        "coordinates": [
          -57.6000989,
          -19.0037744
        ]
      }
    }
  ]
}
