{
  "type": "FeatureCollection",
  "features": [
    {
      "type": "Feature",
      "id": "node/1634038420",
      "properties": {
        "timestamp": "2021-09-28T01:54:20Z",
        "version": 5,
        "changeset": 111793741,
        "amenity": "university",
        "name": "CPAN/UFMS",
        "name:pt": "CPAN/UFMS Campus Pantanal - Universidade Federal de Mato Grosso do Sul",
        "operator": "Campus Pantanal/Universidade Federal de Mato Grosso do Sul - CPAN/UFMS",
        "operator:type": "public",
        "ownership": "national",
        "short_name": "UFMS",
        "id": "node/1634038420"
      },
      "geometry": {
        "type": "Point",
        "coordinates": [
          -57.6300212,
          -19.0003949
        ]
      }
    },
    {
      "type": "Feature",
      "id": "node/10206284581",
      "properties": {
        "timestamp": "2022-11-21T04:18:17Z",
        "version": 1,
        "changeset": 129178393,
        "addr:city": "Corumbá",
        "addr:postcode": "79310-110",
        "addr:street": "Rua Pedro de Medeiros",
        "addr:suburb": "Popular Velha",
        "amenity": "university",
        "name": "Instituto Federal de Mato Grosso do Sul",
        "nohousenumber": "yes",
        "phone": "+55 67 3234-9101",
        "short_name": "IFMS",
        "id": "node/10206284581"
      },
      "geometry": {
        "type": "Point",
        "coordinates": [
          -57.6405867,
          -19.012845
        ]
      }
    },
    {
      "type": "Feature",
      "id": "node/10870588524",
      "properties": {
        "timestamp": "2023-05-05T12:58:53Z",
        "version": 1,
        "changeset": 135741121,
        "addr:city": "Corumbá",
        "addr:housenumber": "99",
        "addr:postcode": "79300130",
        "addr:street": "Rua Domingos Sahib",
        "addr:suburb": "Centro",
        "amenity": "university",
        "name": "EMAJ - Escritório Modelo de Assistência Judiciária (UFMS/CPAN)",
        "operator": "UFMS/CPAN",
        "operator:type": "public",
        "id": "node/10870588524"
      },
      "geometry": {
        "type": "Point",
        "coordinates": [
          -57.6561428,
          -18.9973804
        ]
      }
    }
  ]
}
