{
  "type": "FeatureCollection",
  "features": [
    {
      "type": "Feature",
      "id": "node/10881621889",
      "properties": {
        "timestamp": "2023-05-09T17:09:58Z",
        "version": 1,
        "changeset": 135904746,
        "addr:city": "Laranja da Terra",
        "addr:housenumber": "105",
        "addr:postcode": "29615-000",
        "addr:street": "Rua Luiz Obermuller Filho",
        "addr:suburb": "Centro",
        "email": "p.lterra@mpes.mp.br",
        "government": "prosecutor",
        "name": "Promotoria de Justiça de Laranja da Terra",
        "office": "government",
        "opening_hours": "Mo-Fr 12:00-18:00",
        "phone": "+55 27 3736 1220",
        "id": "node/10881621889"
      },
      "geometry": {
        "type": "Point",
        "coordinates": [
          -41.0574777,
          -19.8981474
        ]
      }
    },
    {
      "type": "Feature",
      "id": "node/10881621894",
      "properties": {
        "timestamp": "2023-05-09T17:09:58Z",
        "version": 1,
        "changeset": 135904746,
        "addr:city": "Laranja da Terra",
        "addr:housenumber": "19",
        "addr:postcode": "29615-000",
        "addr:street": "Rua Raimundo Pereira",
        "addr:suburb": "Centro",
        "email": "laranjaterra@incaper.es.gov.br",
        "government": "agriculture",
        "name": "Escritório Local de Desenvolvimento Rural de Laranja da Terra",
        "office": "government",
        "operator": "Instituto Capixaba de Pesquisa, Assistência Técnica e Extensão Rural - Incaper",
        "phone": "+55 27 3736 1171",
        "id": "node/10881621894"
      },
      "geometry": {
        "type": "Point",
        "coordinates": [
          -41.0559166,
          -19.8979936
        ]
      }
    }
  ]
}
