{
  "type": "FeatureCollection",
  "features": [
    {
      "type": "Feature",
      "id": "node/3999139447",
      "properties": {
        "timestamp": "2023-05-09T14:25:24Z",
        "version": 2,
        "changeset": 135898692,
        "addr:city": "Laranja da Terra",
        "addr:postcode": "29615-000",
        "addr:street": "Avenida Germano Stabenow",
        "addr:suburb": "Niterói",
        "alt_name": "Centro de Referência de Assistência Social",
        "amenity": "social_facility",
        "name": "Centro de Referência de Assistência Social - Cras",
        "operator": "Município de Laranja da Terra",
        "operator:type": "public",
        "phone": "+55 27 3736 1076",
        "social_facility": "outreach",
        "source": "IJSN",
        "id": "node/3999139447"
      },
      "geometry": {
        "type": "Point",
        "coordinates": [
          -41.0579135,
          -19.9025581
        ]
      }
    },
    {
      "type": "Feature",
      "id": "node/10881110056",
      "properties": {
        "timestamp": "2023-05-09T14:25:24Z",
        "version": 1,
        "changeset": 135898692,
        "addr:city": "Laranja da Terra",
        "addr:postcode": "29615-000",
        "addr:street": "Avenida Germano Stabenow",
        "addr:suburb": "Niterói",
        "amenity": "social_facility",
        "name": "Centro de Referência Especializado da Assistência Social - Creas",
        "operator": "Município de Laranja da Terra",
        "operator:type": "public",
        "phone": "+55 27 3736 1243",
        "id": "node/10881110056"
      },
      "geometry": {
        "type": "Point",
        "coordinates": [
          -41.0579216,
          -19.9027296
        ]
      }
    }
  ]
}
