{
  "type": "FeatureCollection",
  "features": [
    {
      "type": "Feature",
      "id": "node/10039707521",
      "properties": {
        "timestamp": "2022-09-20T14:48:48Z",
        "version": 1,
        "changeset": 126426724,
        "addr:city": "Morro do Pilar",
        "addr:housenumber": "238",
        "addr:postcode": "35875-000",
        "addr:street": "Rua Intendente Câmara",
        "addr:suburb": "Centro",
        "name": "Pousada Indaiá",
        "phone": "+55 31 98790 4726",
        "tourism": "hotel",
        "id": "node/10039707521"
      },
      "geometry": {
        "type": "Point",
        "coordinates": [
          -43.3777193,
          -19.2176834
        ]
      }
    },
    {
      "type": "Feature",
      "id": "node/10039707522",
      "properties": {
        "timestamp": "2022-11-05T19:40:00Z",
        "version": 2,
        "changeset": 128534156,
        "addr:city": "Morro do Pilar",
        "addr:housenumber": "367",
        "addr:postcode": "35875-000",
        "addr:street": "Rua José Batista Ferreira",
        "addr:suburb": "Centro",
        "name": "Pousada Licuri",
        "tourism": "hotel",
        "id": "node/10039707522"
      },
      "geometry": {
        "type": "Point",
        "coordinates": [
          -43.3778164,
          -19.2165433
        ]
      }
    },
    {
      "type": "Feature",
      "id": "node/10039707523",
      "properties": {
        "timestamp": "2022-09-20T14:48:48Z",
        "version": 1,
        "changeset": 126426724,
        "addr:city": "Morro do Pilar",
        "name": "Pousada Vovô Juca",
        "tourism": "hotel",
        "id": "node/10039707523"
      },
      "geometry": {
        "type": "Point",
        "coordinates": [
          -43.377496,
          -19.2176819
        ]
      }
    }
  ]
}
