{
  "type": "FeatureCollection",
  "features": [
    {
      "type": "Feature",
      "id": "node/5528678599",
      "properties": {
        "timestamp": "2022-11-26T11:57:02Z",
        "version": 2,
        "changeset": 129399461,
        "addr:city": "Seabra",
        "addr:housenumber": "118",
        "addr:postcode": "46900-000",
        "addr:street": "Rua Cônego João Pedro Alves",
        "addr:suburb": "Centro",
        "amenity": "pharmacy",
        "dispensing": "yes",
        "healthcare": "pharmacy",
        "name": "Farmácias Carvalho",
        "operator": "Dene",
        "id": "node/5528678599"
      },
      "geometry": {
        "type": "Point",
        "coordinates": [
          -41.7691637,
          -12.4193342
        ]
      }
    },
    {
      "type": "Feature",
      "id": "node/5542697350",
      "properties": {
        "timestamp": "2022-11-26T11:57:02Z",
        "version": 6,
        "changeset": 129399461,
        "addr:city": "Seabra",
        "addr:housenumber": "179",
        "addr:postcode": "46900-000",
        "addr:street": "Avenida Franklin de Queiroz",
        "addr:suburb": "Centro",
        "amenity": "pharmacy",
        "dispensing": "yes",
        "healthcare": "pharmacy",
        "name": "Farmácia Seabra",
        "phone": "+55 75 3331 3102",
        "id": "node/5542697350"
      },
      "geometry": {
        "type": "Point",
        "coordinates": [
          -41.7701797,
          -12.4184043
        ]
      }
    },
    {
      "type": "Feature",
      "id": "node/10198521025",
      "properties": {
        "timestamp": "2023-06-16T19:33:34Z",
        "version": 2,
        "changeset": 137426550,
        "addr:city": "Seabra",
        "addr:housenumber": "88",
        "addr:postcode": "46900-000",
        "addr:street": "Rua Souto Soares",
        "addr:suburb": "Centro",
        "amenity": "pharmacy",
        "brand": "Pague Menos",
        "brand:wikidata": "Q7124466",
        "healthcare": "pharmacy",
        "name": "Pague Menos",
        "id": "node/10198521025"
      },
      "geometry": {
        "type": "Point",
        "coordinates": [
          -41.7677013,
          -12.4186735
        ]
      }
    },
    {
      "type": "Feature",
      "id": "node/10219521468",
      "properties": {
        "timestamp": "2022-11-26T11:57:02Z",
        "version": 1,
        "changeset": 129399461,
        "addr:city": "Seabra",
        "addr:housenumber": "261",
        "addr:postcode": "46900-000",
        "addr:street": "Rua Cônego João Pedro Alves",
        "addr:suburb": "Centro",
        "amenity": "pharmacy",
        "dispensing": "yes",
        "healthcare": "pharmacy",
        "name": "Farmácias Carvalho",
        "operator": "Pedro",
        "id": "node/10219521468"
      },
      "geometry": {
        "type": "Point",
        "coordinates": [
          -41.7692881,
          -12.4179698
        ]
      }
    },
    {
      "type": "Feature",
      "id": "node/10219521469",
      "properties": {
        "timestamp": "2023-06-20T19:42:48Z",
        "version": 3,
        "changeset": 137577386,
        "addr:city": "Seabra",
        "addr:housenumber": "116",
        "addr:postcode": "46900-000",
        "addr:street": "Rua Horácio de Matos",
        "addr:suburb": "Centro",
        "amenity": "pharmacy",
        "dispensing": "yes",
        "healthcare": "pharmacy",
        "name": "Farmácias Carvalho",
        "operator": "Alex",
        "id": "node/10219521469"
      },
      "geometry": {
        "type": "Point",
        "coordinates": [
          -41.7698849,
          -12.4180736
        ]
      }
    },
    {
      "type": "Feature",
      "id": "node/10263250340",
      "properties": {
        "timestamp": "2022-12-14T19:42:09Z",
        "version": 1,
        "changeset": 130087942,
        "amenity": "pharmacy",
        "healthcare": "pharmacy",
        "name": "Farmácia São Jorge",
        "id": "node/10263250340"
      },
      "geometry": {
        "type": "Point",
        "coordinates": [
          -41.7693024,
          -12.4186579
        ]
      }
    },
    {
      "type": "Feature",
      "id": "node/12031029308",
      "properties": {
        "timestamp": "2024-07-03T11:41:46Z",
        "version": 1,
        "changeset": 153498132,
        "addr:housenumber": "376",
        "addr:street": "Rua Cônego João Pedro Alves",
        "addr:suburb": "Centro",
        "amenity": "pharmacy",
        "name": "FARMÁCIA MENOR PREÇO DA CHADAPA",
        "id": "node/12031029308"
      },
      "geometry": {
        "type": "Point",
        "coordinates": [
          -41.7691724,
          -12.416928
        ]
      }
    },
    {
      "type": "Feature",
      "id": "node/12031032738",
      "properties": {
        "timestamp": "2024-07-03T11:47:49Z",
        "version": 1,
        "changeset": 153498377,
        "addr:street": "Rua João Esquivel",
        "addr:suburb": "Centro",
        "amenity": "pharmacy",
        "name": "FARMÁCIA ULTRAECONÔMICA",
        "id": "node/12031032738"
      },
      "geometry": {
        "type": "Point",
        "coordinates": [
          -41.7688297,
          -12.4184947
        ]
      }
    },
    {
      "type": "Feature",
      "id": "node/12640975467",
      "properties": {
        "timestamp": "2025-03-20T17:50:18Z",
        "version": 2,
        "changeset": 163874521,
        "amenity": "pharmacy",
        "healthcare": "pharmacy",
        "name": "Farmácia Bahia Brasil",
        "phone": "(75)9 9865-5456",
        "id": "node/12640975467"
      },
      "geometry": {
        "type": "Point",
        "coordinates": [
          -41.770006,
          -12.4156865
        ]
      }
    }
  ]
}
