{
  "type": "FeatureCollection",
  "features": [
    {
      "type": "Feature",
      "id": "way/197865037",
      "properties": {
        "timestamp": "2024-02-02T21:39:28Z",
        "version": 2,
        "changeset": 147001846,
        "addr:street": "Praça Tiradentes",
        "amenity": "school",
        "id": "way/197865037"
      },
      "geometry": {
        "type": "Polygon",
        "coordinates": [
          [
            [
              -51.0801443,
              -21.6884953
            ],
            [
              -51.0802808,
              -21.6885809
            ],
            [
              -51.0803818,
              -21.6887278
            ],
            [
              -51.0804081,
              -21.6888578
            ],
            [
              -51.0803646,
              -21.6890424
            ],
            [
              -51.0802596,
              -21.68917
            ],
            [
              -51.0801376,
              -21.6892397
            ],
            [
              -51.0799725,
              -21.6892693
            ],
            [
              -51.0798446,
              -21.6892509
            ],
            [
              -51.0797151,
              -21.6891894
            ],
            [
              -51.079617,
              -21.6890949
            ],
            [
              -51.0795646,
              -21.6889987
            ],
            [
              -51.0795407,
              -21.688878
            ],
            [
              -51.0795659,
              -21.6887302
            ],
            [
              -51.079645,
              -21.6886037
            ],
            [
              -51.0797024,
              -21.6885521
            ],
            [
              -51.0798344,
              -21.6884846
            ],
            [
              -51.0799857,
              -21.6884632
            ],
            [
              -51.0801443,
              -21.6884953
            ]
          ]
        ]
      }
    },
    {
      "type": "Feature",
      "id": "way/254579441",
      "properties": {
        "timestamp": "2013-12-31T22:19:37Z",
        "version": 1,
        "changeset": 19739064,
        "addr:city": "Adamantina",
        "addr:housename": "Teruyo Kikuta",
        "addr:housenumber": "154",
        "addr:postcode": "17800-000",
        "addr:street": "Rua dos Jamins",
        "amenity": "school",
        "building": "yes",
        "name": "EMEF Profª Teruyo Kikuta",
        "id": "way/254579441"
      },
      "geometry": {
        "type": "Polygon",
        "coordinates": [
          [
            [
              -51.066987,
              -21.6832627
            ],
            [
              -51.0676395,
              -21.6828364
            ],
            [
              -51.0680982,
              -21.6834556
            ],
            [
              -51.067424,
              -21.6838745
            ],
            [
              -51.066987,
              -21.6832627
            ]
          ]
        ]
      }
    },
    {
      "type": "Feature",
      "id": "way/543893246",
      "properties": {
        "timestamp": "2024-02-02T21:00:29Z",
        "version": 3,
        "changeset": 147000819,
        "addr:housenumber": "99",
        "addr:postcode": "17800-000",
        "addr:street": "Avenida Vitorio Romanini",
        "addr:suburb": "Vila Cicma",
        "amenity": "school",
        "email": "e031112A@educacao.sp.gov.br",
        "name": "Escola Estadual Professora Fleurides Cavallini Menechino",
        "operator": "Secretaria da Educação do Estado de São Paulo",
        "operator:type": "government",
        "phone": "+55 18 3521 2650",
        "religion": "none",
        "id": "way/543893246"
      },
      "geometry": {
        "type": "Polygon",
        "coordinates": [
          [
            [
              -51.0708542,
              -21.6919777
            ],
            [
              -51.0700871,
              -21.6935241
            ],
            [
              -51.0692798,
              -21.6931852
            ],
            [
              -51.0700543,
              -21.6916394
            ],
            [
              -51.0708542,
              -21.6919777
            ]
          ]
        ]
      }
    },
    {
      "type": "Feature",
      "id": "way/543893321",
      "properties": {
        "timestamp": "2024-02-02T21:22:21Z",
        "version": 4,
        "changeset": 147001382,
        "addr:housenumber": "122",
        "addr:postcode": "17800-000",
        "addr:street": "Rua Mario Olivero",
        "addr:suburb": "Vila Cicma",
        "amenity": "school",
        "email": "e030806A@educacao.sp.gov.br",
        "name": "Escola Estadual Helen Keller",
        "operator": "Secretaria da Educação do Estado de São Paulo",
        "operator:type": "government",
        "phone": "+55 18 3521 2492",
        "religion": "none",
        "id": "way/543893321"
      },
      "geometry": {
        "type": "Polygon",
        "coordinates": [
          [
            [
              -51.0687581,
              -21.6920898
            ],
            [
              -51.0695332,
              -21.6924088
            ],
            [
              -51.0691845,
              -21.6931291
            ],
            [
              -51.0683953,
              -21.6928138
            ],
            [
              -51.0687581,
              -21.6920898
            ]
          ]
        ]
      }
    },
    {
      "type": "Feature",
      "id": "way/543893708",
      "properties": {
        "timestamp": "2024-02-02T21:17:55Z",
        "version": 5,
        "changeset": 147001257,
        "addr:housenumber": "60",
        "addr:postcode": "17800-000",
        "addr:street": "Rua Antônio Schimidt Villela",
        "addr:suburb": "Centro",
        "amenity": "school",
        "denomination": "roman_catholic",
        "name": "Escola Champagnat",
        "old_name": "Colégio Madre Clélia Merloni",
        "operator": "Grupo Marista",
        "operator:type": "government",
        "phone": "+55 18 3502 3220",
        "religion": "christian",
        "website": "https://escolachampagnat.com.br/adamantina/",
        "id": "way/543893708"
      },
      "geometry": {
        "type": "Polygon",
        "coordinates": [
          [
            [
              -51.0703607,
              -21.6907863
            ],
            [
              -51.0699624,
              -21.6915926
            ],
            [
              -51.0696039,
              -21.6923238
            ],
            [
              -51.0688028,
              -21.6919878
            ],
            [
              -51.0695855,
              -21.6904486
            ],
            [
              -51.0703607,
              -21.6907863
            ]
          ]
        ]
      }
    },
    {
      "type": "Feature",
      "id": "node/2296016848",
      "properties": {
        "timestamp": "2017-12-01T14:37:22Z",
        "version": 5,
        "changeset": 54237948,
        "addr:city": "Adamantina",
        "addr:housename": "FAI - Campus II",
        "addr:housenumber": "1000",
        "addr:postcode": "17800-000",
        "addr:street": "Avenida Francisco Bellusci",
        "amenity": "school",
        "name": "FAI - Faculdades Adamantinenses Integradas (Campus II)",
        "power": "tower",
        "website": "http://www.fai.com.br",
        "wikidata": "Q10279652",
        "wikipedia": "pt:Faculdades Adamantinenses Integradas",
        "id": "node/2296016848"
      },
      "geometry": {
        "type": "Point",
        "coordinates": [
          -51.0773546,
          -21.6686631
        ]
      }
    }
  ]
}
