{
  "type": "FeatureCollection",
  "features": [
    {
      "type": "Feature",
      "id": "node/4112343289",
      "properties": {
        "timestamp": "2019-09-29T21:12:30Z",
        "version": 2,
        "changeset": 75072764,
        "addr:housenumber": "1626",
        "addr:street": "Rua Secundiano Piccolo",
        "amenity": "pharmacy",
        "healthcare": "pharmacy",
        "name": "Farmácia São Judas",
        "opening_hours": "Mo-Su 08:00-22:00",
        "id": "node/4112343289"
      },
      "geometry": {
        "type": "Point",
        "coordinates": [
          -48.7934308,
          -22.3408585
        ]
      }
    },
    {
      "type": "Feature",
      "id": "node/6835714123",
      "properties": {
        "timestamp": "2019-09-29T19:36:03Z",
        "version": 1,
        "changeset": 75070789,
        "amenity": "pharmacy",
        "dispensing": "yes",
        "healthcare": "pharmacy",
        "name": "Farmácia Multidrogas",
        "id": "node/6835714123"
      },
      "geometry": {
        "type": "Point",
        "coordinates": [
          -48.7758634,
          -22.3530097
        ]
      }
    },
    {
      "type": "Feature",
      "id": "node/6835785166",
      "properties": {
        "timestamp": "2019-09-29T21:12:30Z",
        "version": 1,
        "changeset": 75072764,
        "addr:city": "Pederneiras",
        "addr:housenumber": "102",
        "addr:postcode": "17280-000",
        "addr:street": "Rua Santos Dumont",
        "addr:suburb": "Centro",
        "amenity": "pharmacy",
        "dispensing": "yes",
        "healthcare": "pharmacy",
        "name": "Farmácia Drogal Pederneiras",
        "id": "node/6835785166"
      },
      "geometry": {
        "type": "Point",
        "coordinates": [
          -48.7762943,
          -22.3540536
        ]
      }
    }
  ]
}
