{
  "type": "FeatureCollection",
  "features": [
    {
      "type": "Feature",
      "id": "way/386573142",
      "properties": {
        "timestamp": "2019-09-17T21:59:04Z",
        "version": 2,
        "changeset": 74600086,
        "addr:city": "Pederneiras",
        "addr:housenumber": "2855",
        "addr:postcode": "17280-000",
        "addr:street": "Rua Professor Massud Jos√© Nachef",
        "addr:suburb": "Parque da Colina",
        "amenity": "university",
        "building": "school",
        "landuse": "commercial",
        "name": "Faculdade FGP",
        "surface": "concrete",
        "id": "way/386573142"
      },
      "geometry": {
        "type": "Polygon",
        "coordinates": [
          [
            [
              -48.7964673,
              -22.3365187
            ],
            [
              -48.7965939,
              -22.3358895
            ],
            [
              -48.7972789,
              -22.3360075
            ],
            [
              -48.7971523,
              -22.3366366
            ],
            [
              -48.7964673,
              -22.3365187
            ]
          ]
        ]
      }
    }
  ]
}
