{
  "type": "FeatureCollection",
  "features": [
    {
      "type": "Feature",
      "id": "way/688670025",
      "properties": {
        "timestamp": "2022-02-18T11:05:14Z",
        "version": 3,
        "changeset": 117559379,
        "addr:housenumber": "37",
        "addr:street": "Avenida Olindo de Miranda",
        "amenity": "hospital",
        "clinic": "Saude",
        "healthcare": "hospital",
        "name": "CenterMed",
        "official_name": "CenterMED - Centro de Especialidades Médicas",
        "id": "way/688670025"
      },
      "geometry": {
        "type": "Polygon",
        "coordinates": [
          [
            [
              -40.6921608,
              -16.1735751
            ],
            [
              -40.6922041,
              -16.1736516
            ],
            [
              -40.6920274,
              -16.1737439
            ],
            [
              -40.6919841,
              -16.1736674
            ],
            [
              -40.6921608,
              -16.1735751
            ]
          ]
        ]
      }
    },
    {
      "type": "Feature",
      "id": "node/3787714054",
      "properties": {
        "timestamp": "2023-05-22T22:07:29Z",
        "version": 2,
        "changeset": 136431736,
        "addr:housenumber": "549",
        "addr:postcode": "39900-000",
        "addr:street": "Rua Hermano de Souza",
        "addr:suburb": "Centro",
        "amenity": "hospital",
        "healthcare": "hospital",
        "name": "Hospital Deraldo Guimarães",
        "phone": "+55 33 3721 1222",
        "ref:CNES": "2108992",
        "ref:vatin": "BR20180634000180",
        "id": "node/3787714054"
      },
      "geometry": {
        "type": "Point",
        "coordinates": [
          -40.6968114,
          -16.1786889
        ]
      }
    },
    {
      "type": "Feature",
      "id": "node/3787714172",
      "properties": {
        "timestamp": "2023-05-22T22:07:29Z",
        "version": 4,
        "changeset": 136431736,
        "addr:housenumber": "01",
        "addr:postcode": "39900-000",
        "addr:street": "Rua Alberto Viana Abreu",
        "addr:suburb": "Cidade Verde",
        "amenity": "hospital",
        "email": "hbs@byalnet.com.br",
        "fax": "+55 33 3721 1248",
        "healthcare": "hospital",
        "name": "Hospital Bemvindo Saúde",
        "phone": "+55 33 3721 1280",
        "ref:CNES": "2139022",
        "ref:vatin": "BR19564137000105",
        "id": "node/3787714172"
      },
      "geometry": {
        "type": "Point",
        "coordinates": [
          -40.6972437,
          -16.1709638
        ]
      }
    },
    {
      "type": "Feature",
      "id": "node/3787714199",
      "properties": {
        "timestamp": "2024-01-02T13:37:38Z",
        "version": 2,
        "changeset": 145798529,
        "amenity": "hospital",
        "healthcare": "hospital",
        "id": "node/3787714199"
      },
      "geometry": {
        "type": "Point",
        "coordinates": [
          -40.6977716,
          -16.1789566
        ]
      }
    }
  ]
}
