{
  "type": "FeatureCollection",
  "features": [
    {
      "type": "Feature",
      "id": "way/130277201",
      "properties": {
        "timestamp": "2024-06-30T12:08:07Z",
        "version": 7,
        "changeset": 153366201,
        "addr:city": "Fernando de Noronha",
        "addr:country": "BR",
        "addr:housenumber": "488",
        "addr:postcode": "53990-000",
        "addr:street": "Rua Amaro Preto",
        "building": "house",
        "building:levels": "1",
        "email": "contato@neuronhese.com",
        "name": "Pousada Vila Sal",
        "phone": "+55 81 99409-7669",
        "roof:levels": "0",
        "roof:shape": "gabled",
        "tourism": "guest_house",
        "website": "https://www.vilasalnoronha.com/",
        "id": "way/130277201"
      },
      "geometry": {
        "type": "Polygon",
        "coordinates": [
          [
            [
              -32.4131206,
              -3.8456938
            ],
            [
              -32.4131446,
              -3.8457488
            ],
            [
              -32.4130609,
              -3.8457853
            ],
            [
              -32.4130368,
              -3.8457302
            ],
            [
              -32.4131206,
              -3.8456938
            ]
          ]
        ]
      }
    },
    {
      "type": "Feature",
      "id": "way/726989960",
      "properties": {
        "timestamp": "2024-06-30T12:08:07Z",
        "version": 2,
        "changeset": 153366201,
        "addr:city": "Fernando de Noronha",
        "addr:country": "BR",
        "addr:postcode": "53990-000",
        "addr:street": "Rua da Consolação",
        "building": "yes",
        "name": "Stefano guia",
        "phone": "+55 81 987703364",
        "tourism": "guest_house",
        "id": "way/726989960"
      },
      "geometry": {
        "type": "Polygon",
        "coordinates": [
          [
            [
              -32.4122841,
              -3.8444617
            ],
            [
              -32.4122274,
              -3.8445029
            ],
            [
              -32.4121839,
              -3.8444433
            ],
            [
              -32.4122406,
              -3.8444021
            ],
            [
              -32.4122841,
              -3.8444617
            ]
          ]
        ]
      }
    },
    {
      "type": "Feature",
      "id": "way/776071712",
      "properties": {
        "timestamp": "2020-02-24T21:02:33Z",
        "version": 1,
        "changeset": 81423423,
        "building": "yes",
        "name": "Estrela de Noronha",
        "tourism": "guest_house",
        "id": "way/776071712"
      },
      "geometry": {
        "type": "Polygon",
        "coordinates": [
          [
            [
              -32.4105233,
              -3.8440043
            ],
            [
              -32.4104637,
              -3.8440108
            ],
            [
              -32.4104541,
              -3.8439244
            ],
            [
              -32.4105137,
              -3.8439179
            ],
            [
              -32.4105233,
              -3.8440043
            ]
          ]
        ]
      }
    },
    {
      "type": "Feature",
      "id": "node/4946279721",
      "properties": {
        "timestamp": "2017-09-16T19:13:04Z",
        "version": 2,
        "changeset": 52102949,
        "addr:city": "Fernando de Noronha",
        "addr:country": "BR",
        "addr:housenumber": "1",
        "addr:postcode": "53990-000",
        "addr:street": "Alameda da Harmonia",
        "addr:suburb": "Floresta Nova",
        "internet_access": "wlan",
        "name": "Pousada Portal dos Golfinhos",
        "name:en": "Pousada Portal dos Golfinhos",
        "name:pt": "Pousada Portal dos Golfinhos",
        "tourism": "guest_house",
        "id": "node/4946279721"
      },
      "geometry": {
        "type": "Point",
        "coordinates": [
          -32.4112849,
          -3.847461
        ]
      }
    },
    {
      "type": "Feature",
      "id": "node/6213401085",
      "properties": {
        "timestamp": "2019-01-16T14:21:01Z",
        "version": 1,
        "changeset": 66364923,
        "name": "Ou Mar",
        "name:en": "Pousada Ou Mar",
        "name:pt": "Pousada Ou Mar",
        "tourism": "guest_house",
        "id": "node/6213401085"
      },
      "geometry": {
        "type": "Point",
        "coordinates": [
          -32.4134172,
          -3.8487838
        ]
      }
    },
    {
      "type": "Feature",
      "id": "node/9868441618",
      "properties": {
        "timestamp": "2022-07-05T14:55:24Z",
        "version": 1,
        "changeset": 123239340,
        "name": "Casa da Neide",
        "tourism": "guest_house",
        "id": "node/9868441618"
      },
      "geometry": {
        "type": "Point",
        "coordinates": [
          -32.4106331,
          -3.8473467
        ]
      }
    },
    {
      "type": "Feature",
      "id": "node/9868443917",
      "properties": {
        "timestamp": "2022-07-05T14:56:09Z",
        "version": 1,
        "changeset": 123239375,
        "name": "Pousada Maria Flor",
        "tourism": "guest_house",
        "id": "node/9868443917"
      },
      "geometry": {
        "type": "Point",
        "coordinates": [
          -32.4106399,
          -3.8472298
        ]
      }
    },
    {
      "type": "Feature",
      "id": "node/9868444218",
      "properties": {
        "timestamp": "2022-07-05T14:59:22Z",
        "version": 1,
        "changeset": 123239522,
        "name": "Casa da Neide",
        "tourism": "guest_house",
        "id": "node/9868444218"
      },
      "geometry": {
        "type": "Point",
        "coordinates": [
          -32.4106486,
          -3.8473476
        ]
      }
    },
    {
      "type": "Feature",
      "id": "node/11524381318",
      "properties": {
        "timestamp": "2024-01-17T09:50:00Z",
        "version": 1,
        "changeset": 146355689,
        "name": "Pousada Boldro",
        "tourism": "guest_house",
        "id": "node/11524381318"
      },
      "geometry": {
        "type": "Point",
        "coordinates": [
          -32.4273581,
          -3.8482628
        ]
      }
    },
    {
      "type": "Feature",
      "id": "node/12307555801",
      "properties": {
        "timestamp": "2024-11-02T17:18:21Z",
        "version": 1,
        "changeset": 158668759,
        "addr:housenumber": "345",
        "addr:postcode": "53990-000",
        "addr:street": "Rua São Miguel",
        "name": "Villa Carmem",
        "phone": "+55-18-98118-9806",
        "tourism": "guest_house",
        "id": "node/12307555801"
      },
      "geometry": {
        "type": "Point",
        "coordinates": [
          -32.4111707,
          -3.8445892
        ]
      }
    },
    {
      "type": "Feature",
      "id": "node/12435640001",
      "properties": {
        "timestamp": "2024-12-20T11:11:37Z",
        "version": 2,
        "changeset": 160428330,
        "addr:street": "Rua Dom Juquinha I",
        "name": "Vila Chris",
        "tourism": "guest_house",
        "id": "node/12435640001"
      },
      "geometry": {
        "type": "Point",
        "coordinates": [
          -32.4090249,
          -3.845478
        ]
      }
    }
  ]
}
