{
  "type": "FeatureCollection",
  "features": [
    {
      "type": "Feature",
      "id": "way/129217757",
      "properties": {
        "timestamp": "2024-01-02T15:00:43Z",
        "version": 6,
        "changeset": 145801920,
        "addr:city": "Fernando de Noronha",
        "addr:country": "BR",
        "addr:housenumber": "1",
        "addr:postcode": "53990-000",
        "addr:street": "Rua Nice Cordeiro",
        "addr:suburb": "Vila Floresta Velha",
        "building": "yes",
        "name": "Pousada Zé Maria",
        "tourism": "hotel",
        "website": "https://www.pousadazemaria.com.br/",
        "id": "way/129217757"
      },
      "geometry": {
        "type": "Polygon",
        "coordinates": [
          [
            [
              -32.4169145,
              -3.8481952
            ],
            [
              -32.4169619,
              -3.8481321
            ],
            [
              -32.4169397,
              -3.8481155
            ],
            [
              -32.4170551,
              -3.8479619
            ],
            [
              -32.4170676,
              -3.8479713
            ],
            [
              -32.4170943,
              -3.8479357
            ],
            [
              -32.4171651,
              -3.8479887
            ],
            [
              -32.4171738,
              -3.8480215
            ],
            [
              -32.4171704,
              -3.8480528
            ],
            [
              -32.4171321,
              -3.8481038
            ],
            [
              -32.4170681,
              -3.8481147
            ],
            [
              -32.4170471,
              -3.848099
            ],
            [
              -32.4169532,
              -3.8482241
            ],
            [
              -32.4169145,
              -3.8481952
            ]
          ]
        ]
      }
    },
    {
      "type": "Feature",
      "id": "way/129217826",
      "properties": {
        "timestamp": "2015-10-03T21:41:09Z",
        "version": 2,
        "changeset": 34416619,
        "addr:city": "Fernando de Noronha",
        "addr:country": "BR",
        "addr:housenumber": "3",
        "addr:postcode": "53990-000",
        "addr:street": "Rua Nice Cordeiro",
        "addr:suburb": "Vila Floresta Velha",
        "building": "yes",
        "name": "Pousada da Filó",
        "phone": "+55 81 3619 1137",
        "tourism": "hotel",
        "website": "http://www.pousadadafilo.com.br",
        "id": "way/129217826"
      },
      "geometry": {
        "type": "Polygon",
        "coordinates": [
          [
            [
              -32.416655,
              -3.8480049
            ],
            [
              -32.4165509,
              -3.8479261
            ],
            [
              -32.4166427,
              -3.8478054
            ],
            [
              -32.4167467,
              -3.8478842
            ],
            [
              -32.416655,
              -3.8480049
            ]
          ]
        ]
      }
    },
    {
      "type": "Feature",
      "id": "way/129217835",
      "properties": {
        "timestamp": "2023-11-18T04:35:17Z",
        "version": 4,
        "changeset": 144161756,
        "addr:city": "Fernando de Noronha",
        "addr:country": "BR",
        "addr:housenumber": "2600",
        "addr:postcode": "53990-000",
        "addr:street": "Rua Nice Cordeiro",
        "addr:suburb": "Vila Floresta Velha",
        "building": "yes",
        "email": "morena@noronha.com.br",
        "name": "Pousada da Morena",
        "phone": "+55 81 3619 1816",
        "tourism": "hotel",
        "website": "https://pousadamorena.com.br/",
        "id": "way/129217835"
      },
      "geometry": {
        "type": "Polygon",
        "coordinates": [
          [
            [
              -32.4163255,
              -3.8477712
            ],
            [
              -32.4164098,
              -3.8476537
            ],
            [
              -32.4165034,
              -3.8477206
            ],
            [
              -32.4164416,
              -3.8478067
            ],
            [
              -32.4164575,
              -3.8478181
            ],
            [
              -32.416435,
              -3.8478494
            ],
            [
              -32.4163255,
              -3.8477712
            ]
          ]
        ]
      }
    },
    {
      "type": "Feature",
      "id": "way/129217850",
      "properties": {
        "timestamp": "2020-04-29T11:35:27Z",
        "version": 3,
        "changeset": 84335250,
        "addr:city": "Fernando de Noronha",
        "addr:country": "BR",
        "addr:postcode": "53990-000",
        "addr:street": "Rua Primavera",
        "addr:suburb": "Vila da Vacaria",
        "building": "yes",
        "email": "faleconosco@dolphinhotel.tur.br",
        "name": "Dolphin Hotel",
        "phone": "+55 81 3619 1100",
        "tourism": "hotel",
        "website": "https://ww.dolphinhotel.tur.br",
        "id": "way/129217850"
      },
      "geometry": {
        "type": "Polygon",
        "coordinates": [
          [
            [
              -32.42011,
              -3.8503356
            ],
            [
              -32.4198516,
              -3.8502336
            ],
            [
              -32.4199115,
              -3.8500824
            ],
            [
              -32.4201379,
              -3.8501717
            ],
            [
              -32.4201251,
              -3.8502039
            ],
            [
              -32.4201572,
              -3.8502166
            ],
            [
              -32.42011,
              -3.8503356
            ]
          ]
        ]
      }
    },
    {
      "type": "Feature",
      "id": "way/129218835",
      "properties": {
        "timestamp": "2020-04-29T11:35:27Z",
        "version": 4,
        "changeset": 84335250,
        "addr:city": "Fernando de Noronha",
        "addr:country": "BR",
        "addr:housenumber": "4080",
        "addr:postcode": "53990-000",
        "addr:street": "Rua Padre Gurgel",
        "addr:suburb": "Vila do Boldró",
        "building": "yes",
        "name": "Pousada Aleffawi",
        "phone": "+55 81 3619 1318",
        "tourism": "hotel",
        "website": "https://www.aleffawi.com.br/",
        "id": "way/129218835"
      },
      "geometry": {
        "type": "Polygon",
        "coordinates": [
          [
            [
              -32.4248459,
              -3.8494793
            ],
            [
              -32.424865,
              -3.8497385
            ],
            [
              -32.4247968,
              -3.8497435
            ],
            [
              -32.4247777,
              -3.8494843
            ],
            [
              -32.4248459,
              -3.8494793
            ]
          ]
        ]
      }
    },
    {
      "type": "Feature",
      "id": "way/129218857",
      "properties": {
        "timestamp": "2015-09-20T19:10:27Z",
        "version": 3,
        "changeset": 34147375,
        "addr:city": "Fernando de Noronha",
        "addr:country": "BR",
        "addr:housenumber": "3550",
        "addr:postcode": "53990-000",
        "addr:street": "Rua Padre Gurgel",
        "addr:suburb": "Vila do Boldró",
        "building": "yes",
        "email": "reservas@pousadasecocharme.com.br",
        "name": "EcoCharme Pousada do Marcílio",
        "phone": "+55 81 3619 1392",
        "tourism": "hotel",
        "website": "http://www.pousadasecocharme.com.br/",
        "id": "way/129218857"
      },
      "geometry": {
        "type": "Polygon",
        "coordinates": [
          [
            [
              -32.4242293,
              -3.8497728
            ],
            [
              -32.4240921,
              -3.8497809
            ],
            [
              -32.4240802,
              -3.8495794
            ],
            [
              -32.4242173,
              -3.8495713
            ],
            [
              -32.4242293,
              -3.8497728
            ]
          ]
        ]
      }
    },
    {
      "type": "Feature",
      "id": "way/129218870",
      "properties": {
        "timestamp": "2023-11-18T04:35:33Z",
        "version": 4,
        "changeset": 144161756,
        "addr:city": "Fernando de Noronha",
        "addr:country": "BR",
        "addr:housenumber": "4080",
        "addr:postcode": "53990-000",
        "addr:street": "Rua Padre Gurgel",
        "addr:suburb": "Vila do Boldró",
        "building": "yes",
        "name": "Pousada Topázio",
        "phone": "+55 81 3619 1110",
        "tourism": "hotel",
        "website": "https://pousadatopazio.com.br/",
        "id": "way/129218870"
      },
      "geometry": {
        "type": "Polygon",
        "coordinates": [
          [
            [
              -32.4252647,
              -3.8497091
            ],
            [
              -32.4251319,
              -3.849716
            ],
            [
              -32.4251176,
              -3.8494455
            ],
            [
              -32.4251688,
              -3.8494428
            ],
            [
              -32.4251709,
              -3.8494836
            ],
            [
              -32.4252525,
              -3.8494793
            ],
            [
              -32.4252647,
              -3.8497091
            ]
          ]
        ]
      }
    },
    {
      "type": "Feature",
      "id": "way/129220494",
      "properties": {
        "timestamp": "2017-10-02T21:14:18Z",
        "version": 2,
        "changeset": 52579133,
        "addr:city": "Fernando de Noronha",
        "addr:country": "BR",
        "addr:postcode": "53990-000",
        "addr:street": "Rua Joaquim Ferreira",
        "addr:suburb": "Vila do Porto",
        "building": "yes",
        "name": "Pousada Naonda",
        "phone": "+55 81 3619 1259",
        "tourism": "hotel",
        "id": "way/129220494"
      },
      "geometry": {
        "type": "Polygon",
        "coordinates": [
          [
            [
              -32.3987392,
              -3.832398
            ],
            [
              -32.3986751,
              -3.8323895
            ],
            [
              -32.3986773,
              -3.8323725
            ],
            [
              -32.3986503,
              -3.8323689
            ],
            [
              -32.3986558,
              -3.832328
            ],
            [
              -32.3986827,
              -3.8323315
            ],
            [
              -32.398689,
              -3.8322846
            ],
            [
              -32.3987531,
              -3.8322931
            ],
            [
              -32.3987462,
              -3.8323454
            ],
            [
              -32.3988079,
              -3.8323535
            ],
            [
              -32.3988024,
              -3.8323946
            ],
            [
              -32.3987407,
              -3.8323864
            ],
            [
              -32.3987392,
              -3.832398
            ]
          ]
        ]
      }
    },
    {
      "type": "Feature",
      "id": "way/129220525",
      "properties": {
        "timestamp": "2015-09-05T18:52:48Z",
        "version": 2,
        "changeset": 33819901,
        "addr:city": "Fernando de Noronha",
        "addr:country": "BR",
        "addr:postcode": "53990-000",
        "addr:street": "BR-363",
        "addr:suburb": "Vila Do Sueste",
        "building": "yes",
        "name": "Pousada Solar dos Ventos",
        "phone": "+55 81 3619-1347",
        "tourism": "hotel",
        "website": "http://www.pousadasolardosventos.com.br/",
        "id": "way/129220525"
      },
      "geometry": {
        "type": "Polygon",
        "coordinates": [
          [
            [
              -32.4282008,
              -3.8632266
            ],
            [
              -32.4281301,
              -3.8633157
            ],
            [
              -32.427957,
              -3.8631789
            ],
            [
              -32.4280278,
              -3.8630898
            ],
            [
              -32.4282008,
              -3.8632266
            ]
          ]
        ]
      }
    },
    {
      "type": "Feature",
      "id": "way/129220577",
      "properties": {
        "timestamp": "2017-10-02T21:14:19Z",
        "version": 2,
        "changeset": 52579133,
        "addr:city": "Fernando de Noronha",
        "addr:country": "BR",
        "addr:postcode": "53990-000",
        "addr:street": "Rua Joaquim Ferreira",
        "addr:suburb": "Vila do Porto",
        "building": "yes",
        "email": "reservas@pousadasantuarionoronha.com.br",
        "name": "Pousada Santuario",
        "phone": "+55 81 9914 0908",
        "tourism": "hotel",
        "website": "https://www.pousadasantuarionoronha.com.br",
        "id": "way/129220577"
      },
      "geometry": {
        "type": "Polygon",
        "coordinates": [
          [
            [
              -32.3987726,
              -3.8343366
            ],
            [
              -32.3988726,
              -3.8342797
            ],
            [
              -32.3988911,
              -3.8343121
            ],
            [
              -32.398915,
              -3.8342985
            ],
            [
              -32.3989474,
              -3.8343552
            ],
            [
              -32.3989259,
              -3.8343674
            ],
            [
              -32.3989321,
              -3.8343782
            ],
            [
              -32.3988297,
              -3.8344364
            ],
            [
              -32.3987726,
              -3.8343366
            ]
          ]
        ]
      }
    },
    {
      "type": "Feature",
      "id": "way/129220579",
      "properties": {
        "timestamp": "2023-11-18T04:35:22Z",
        "version": 5,
        "changeset": 144161756,
        "addr:city": "Fernando de Noronha",
        "addr:country": "BR",
        "addr:postcode": "53990-000",
        "addr:street": "BR-363",
        "addr:suburb": "Vila Do Sueste",
        "building": "yes",
        "name": "Pousada Sueste",
        "phone": "+55 81 3619 1164",
        "tourism": "hotel",
        "website": "https://www.pousadasueste.com.br/",
        "id": "way/129220579"
      },
      "geometry": {
        "type": "Polygon",
        "coordinates": [
          [
            [
              -32.4285234,
              -3.8619724
            ],
            [
              -32.4284518,
              -3.861889
            ],
            [
              -32.4285077,
              -3.8618412
            ],
            [
              -32.4286228,
              -3.8617428
            ],
            [
              -32.4286414,
              -3.8617643
            ],
            [
              -32.4286273,
              -3.8617764
            ],
            [
              -32.4286574,
              -3.8618115
            ],
            [
              -32.4286715,
              -3.8617994
            ],
            [
              -32.4286944,
              -3.8618261
            ],
            [
              -32.4285234,
              -3.8619724
            ]
          ]
        ]
      }
    },
    {
      "type": "Feature",
      "id": "way/129221025",
      "properties": {
        "timestamp": "2018-06-30T01:37:47Z",
        "version": 2,
        "changeset": 60292260,
        "building": "yes",
        "name": "Ecocharme Pousada Pedra do Mar",
        "tourism": "hotel",
        "id": "way/129221025"
      },
      "geometry": {
        "type": "Polygon",
        "coordinates": [
          [
            [
              -32.4137229,
              -3.8479073
            ],
            [
              -32.4137217,
              -3.8479681
            ],
            [
              -32.4136365,
              -3.8479663
            ],
            [
              -32.4136378,
              -3.8479056
            ],
            [
              -32.4137229,
              -3.8479073
            ]
          ]
        ]
      }
    },
    {
      "type": "Feature",
      "id": "way/129221046",
      "properties": {
        "timestamp": "2023-11-18T04:35:15Z",
        "version": 4,
        "changeset": 144161756,
        "addr:city": "Fernando de Noronha",
        "addr:country": "BR",
        "addr:housenumber": "45",
        "addr:postcode": "53990-000",
        "addr:street": "Alameda dos Cajueiros",
        "addr:suburb": "Floresta Nova",
        "building": "yes",
        "name": "Pousada Lenda das Águas",
        "phone": "+55 81 3619 0199",
        "tourism": "hotel",
        "website": "https://www.pousadalendadasaguas.com.br/",
        "id": "way/129221046"
      },
      "geometry": {
        "type": "Polygon",
        "coordinates": [
          [
            [
              -32.4135934,
              -3.8480425
            ],
            [
              -32.413593,
              -3.8481518
            ],
            [
              -32.4133949,
              -3.8481509
            ],
            [
              -32.4133954,
              -3.8480417
            ],
            [
              -32.4135934,
              -3.8480425
            ]
          ]
        ]
      }
    },
    {
      "type": "Feature",
      "id": "way/129221053",
      "properties": {
        "timestamp": "2018-06-30T01:37:47Z",
        "version": 3,
        "changeset": 60292260,
        "addr:city": "Fernando de Noronha",
        "addr:country": "BR",
        "addr:postcode": "53990-000",
        "addr:street": "Alameda dos Cajueiros",
        "addr:suburb": "Floresta Nova",
        "building": "yes",
        "email": "reservas@pousadasecocharme.com.br",
        "phone": "+55 81 33666252",
        "tourism": "hotel",
        "website": "http://www.pousadasecocharme.com/",
        "id": "way/129221053"
      },
      "geometry": {
        "type": "Polygon",
        "coordinates": [
          [
            [
              -32.413391,
              -3.8479151
            ],
            [
              -32.4135691,
              -3.8479142
            ],
            [
              -32.4135695,
              -3.8479983
            ],
            [
              -32.4133914,
              -3.8479991
            ],
            [
              -32.413391,
              -3.8479151
            ]
          ]
        ]
      }
    },
    {
      "type": "Feature",
      "id": "way/129221062",
      "properties": {
        "timestamp": "2015-10-09T20:58:07Z",
        "version": 3,
        "changeset": 34539098,
        "addr:city": "Fernando de Noronha",
        "addr:country": "BR",
        "addr:housenumber": "15",
        "addr:postcode": "53990-000",
        "addr:street": "Rua Severino Dino da Silva",
        "addr:suburb": "Floresta Nova",
        "building": "yes",
        "name": "Pousada Mar Azul",
        "phone": "+55 81 3619 1315",
        "tourism": "hotel",
        "id": "way/129221062"
      },
      "geometry": {
        "type": "Polygon",
        "coordinates": [
          [
            [
              -32.414463,
              -3.8478737
            ],
            [
              -32.4145457,
              -3.8479527
            ],
            [
              -32.414472,
              -3.8480295
            ],
            [
              -32.4143893,
              -3.8479505
            ],
            [
              -32.414463,
              -3.8478737
            ]
          ]
        ]
      }
    },
    {
      "type": "Feature",
      "id": "way/129221072",
      "properties": {
        "timestamp": "2015-09-30T15:11:13Z",
        "version": 4,
        "changeset": 34349297,
        "addr:city": "Fernando de Noronha",
        "addr:country": "BR",
        "addr:postcode": "53990-000",
        "addr:street": "Alameda dos Cajueiros",
        "addr:suburb": "Floresta Nova",
        "building": "yes",
        "name": "Pousada Jomar",
        "phone": "+55 81 3619 1302",
        "tourism": "hotel",
        "id": "way/129221072"
      },
      "geometry": {
        "type": "Polygon",
        "coordinates": [
          [
            [
              -32.4133875,
              -3.8488375
            ],
            [
              -32.4133858,
              -3.8487273
            ],
            [
              -32.4134891,
              -3.8487257
            ],
            [
              -32.4134895,
              -3.8487503
            ],
            [
              -32.4135521,
              -3.8487493
            ],
            [
              -32.4135535,
              -3.8488349
            ],
            [
              -32.4133875,
              -3.8488375
            ]
          ]
        ]
      }
    },
    {
      "type": "Feature",
      "id": "way/129221958",
      "properties": {
        "timestamp": "2020-04-29T11:35:27Z",
        "version": 5,
        "changeset": 84335250,
        "addr:city": "Fernando de Noronha",
        "addr:country": "BR",
        "addr:housenumber": "101",
        "addr:postcode": "53990-000",
        "addr:street": "Rua São Miguel",
        "addr:suburb": "Vila Dos Remédios",
        "building": "yes",
        "internet_access": "wlan",
        "name": "Pousada Solar das Andorinhas",
        "phone": "+55 81 36191101",
        "tourism": "hotel",
        "website": "https://www.pousadadovale.com",
        "id": "way/129221958"
      },
      "geometry": {
        "type": "Polygon",
        "coordinates": [
          [
            [
              -32.4103672,
              -3.842058
            ],
            [
              -32.4102724,
              -3.8420379
            ],
            [
              -32.4102837,
              -3.8419853
            ],
            [
              -32.4102115,
              -3.84197
            ],
            [
              -32.410219,
              -3.8419348
            ],
            [
              -32.4101409,
              -3.8419182
            ],
            [
              -32.4101539,
              -3.8418573
            ],
            [
              -32.4103698,
              -3.8419032
            ],
            [
              -32.4103681,
              -3.841911
            ],
            [
              -32.410401,
              -3.841918
            ],
            [
              -32.410397,
              -3.8419369
            ],
            [
              -32.4104464,
              -3.8419474
            ],
            [
              -32.4104384,
              -3.8419849
            ],
            [
              -32.4103852,
              -3.8419736
            ],
            [
              -32.4103672,
              -3.842058
            ]
          ]
        ]
      }
    },
    {
      "type": "Feature",
      "id": "way/129221973",
      "properties": {
        "timestamp": "2020-04-29T11:35:27Z",
        "version": 3,
        "changeset": 84335250,
        "addr:city": "Fernando de Noronha",
        "addr:country": "BR",
        "addr:housenumber": "18",
        "addr:postcode": "53990-000",
        "addr:street": "Rua Pescador Sérgio Linho",
        "addr:suburb": "Vila Dos Remédios",
        "building": "yes",
        "email": "reservas@pousadadovale.com",
        "internet_access": "wlan",
        "name": "Pousada do Vale",
        "phone": "+55 81 3619-1293",
        "tourism": "hotel",
        "website": "https://www.pousadadovale.com",
        "id": "way/129221973"
      },
      "geometry": {
        "type": "Polygon",
        "coordinates": [
          [
            [
              -32.4090779,
              -3.8415394
            ],
            [
              -32.4090396,
              -3.841726
            ],
            [
              -32.4089152,
              -3.8417006
            ],
            [
              -32.4089534,
              -3.841514
            ],
            [
              -32.4090779,
              -3.8415394
            ]
          ]
        ]
      }
    },
    {
      "type": "Feature",
      "id": "way/129221998",
      "properties": {
        "timestamp": "2023-11-18T04:35:29Z",
        "version": 4,
        "changeset": 144161756,
        "addr:city": "Fernando de Noronha",
        "addr:country": "BR",
        "addr:housenumber": "6",
        "addr:postcode": "53990-000",
        "addr:street": "Estrada da Colina",
        "addr:suburb": "Vila do Trinta",
        "building": "yes",
        "email": "colina@noronha.com.br",
        "name": "Pousada Colina",
        "name_alt": "Pousada COLINA DOS VENTOS",
        "phone": "+55 81 3619 1257",
        "tourism": "hotel",
        "website": "https://pousadacolinanoronha.com.br/",
        "id": "way/129221998"
      },
      "geometry": {
        "type": "Polygon",
        "coordinates": [
          [
            [
              -32.4085463,
              -3.8439694
            ],
            [
              -32.408473,
              -3.8440961
            ],
            [
              -32.4083516,
              -3.8440262
            ],
            [
              -32.4084106,
              -3.8439243
            ],
            [
              -32.408386,
              -3.8439101
            ],
            [
              -32.4084003,
              -3.8438853
            ],
            [
              -32.4085463,
              -3.8439694
            ]
          ]
        ]
      }
    },
    {
      "type": "Feature",
      "id": "way/129222000",
      "properties": {
        "timestamp": "2015-09-20T19:05:31Z",
        "version": 5,
        "changeset": 34147255,
        "addr:city": "Fernando de Noronha",
        "addr:country": "BR",
        "addr:housenumber": "118",
        "addr:postcode": "53990-000",
        "addr:street": "Rua Consolação",
        "addr:suburb": "Vila Dos Remédios",
        "building": "yes",
        "name": "Pousada do Recanto",
        "phone": "+55 81 3619 1486",
        "tourism": "hotel",
        "id": "way/129222000"
      },
      "geometry": {
        "type": "Polygon",
        "coordinates": [
          [
            [
              -32.4117902,
              -3.842189
            ],
            [
              -32.4117978,
              -3.842211
            ],
            [
              -32.4117848,
              -3.8422155
            ],
            [
              -32.4118038,
              -3.8422702
            ],
            [
              -32.4117494,
              -3.842289
            ],
            [
              -32.4117595,
              -3.8423182
            ],
            [
              -32.4116263,
              -3.8423642
            ],
            [
              -32.4115895,
              -3.8422583
            ],
            [
              -32.4117902,
              -3.842189
            ]
          ]
        ]
      }
    },
    {
      "type": "Feature",
      "id": "way/130275702",
      "properties": {
        "timestamp": "2023-11-18T04:35:27Z",
        "version": 4,
        "changeset": 144161756,
        "addr:city": "Fernando de Noronha",
        "addr:country": "BR",
        "addr:housenumber": "9",
        "addr:postcode": "53990-000",
        "addr:street": "Alameda do Pau D'Arco",
        "addr:suburb": "Floresta Nova",
        "building": "yes",
        "name": "Pousada Fortaleza",
        "phone": "+55 81 3619 1198",
        "tourism": "hotel",
        "website": "https://www.pousadafortalezanoronha.com.br/",
        "id": "way/130275702"
      },
      "geometry": {
        "type": "Polygon",
        "coordinates": [
          [
            [
              -32.410864,
              -3.8472716
            ],
            [
              -32.4109636,
              -3.847273
            ],
            [
              -32.4109634,
              -3.8472892
            ],
            [
              -32.4110737,
              -3.8472906
            ],
            [
              -32.4110734,
              -3.8473102
            ],
            [
              -32.4110898,
              -3.8473105
            ],
            [
              -32.4110893,
              -3.847346
            ],
            [
              -32.411038,
              -3.8473453
            ],
            [
              -32.4110376,
              -3.8473745
            ],
            [
              -32.4108626,
              -3.8473721
            ],
            [
              -32.410864,
              -3.8472716
            ]
          ]
        ]
      }
    },
    {
      "type": "Feature",
      "id": "way/130275703",
      "properties": {
        "timestamp": "2018-06-30T01:37:47Z",
        "version": 2,
        "changeset": 60292260,
        "building": "yes",
        "name": "Pousada Maria Bonita",
        "tourism": "hotel",
        "id": "way/130275703"
      },
      "geometry": {
        "type": "Polygon",
        "coordinates": [
          [
            [
              -32.4123626,
              -3.8468286
            ],
            [
              -32.4123626,
              -3.8469365
            ],
            [
              -32.4121247,
              -3.8469365
            ],
            [
              -32.4121247,
              -3.8468511
            ],
            [
              -32.4121506,
              -3.8468511
            ],
            [
              -32.4121506,
              -3.8468286
            ],
            [
              -32.4122717,
              -3.8468286
            ],
            [
              -32.4122717,
              -3.8467553
            ],
            [
              -32.4123427,
              -3.8467553
            ],
            [
              -32.4123427,
              -3.8468286
            ],
            [
              -32.4123626,
              -3.8468286
            ]
          ]
        ]
      }
    },
    {
      "type": "Feature",
      "id": "way/130275706",
      "properties": {
        "timestamp": "2023-11-18T04:35:12Z",
        "version": 5,
        "changeset": 144161756,
        "addr:city": "Fernando de Noronha",
        "addr:country": "BR",
        "addr:postcode": "53990-000",
        "addr:street": "Alamedas das Flores",
        "addr:suburb": "Floresta Nova",
        "building": "yes",
        "email": "reservas@pousadamaraberto.com.br",
        "name": "Pousada Mar Aberto",
        "phone": "+55 81 3619 1178",
        "tourism": "hotel",
        "website": "https://pousadamaraberto.com.br/",
        "id": "way/130275706"
      },
      "geometry": {
        "type": "Polygon",
        "coordinates": [
          [
            [
              -32.4104653,
              -3.8479764
            ],
            [
              -32.4106805,
              -3.8479818
            ],
            [
              -32.4106781,
              -3.8480772
            ],
            [
              -32.4104629,
              -3.8480718
            ],
            [
              -32.4104653,
              -3.8479764
            ]
          ]
        ]
      }
    },
    {
      "type": "Feature",
      "id": "way/130275710",
      "properties": {
        "timestamp": "2015-09-20T09:52:24Z",
        "version": 3,
        "changeset": 34136748,
        "addr:city": "Fernando de Noronha",
        "addr:country": "BR",
        "addr:postcode": "53990-000",
        "addr:street": "Alameda das Acácias",
        "addr:suburb": "Floresta Nova",
        "building": "yes",
        "name": "Pousada Raio de Sol",
        "phone": "+55 81 3619 1613",
        "tourism": "hotel",
        "id": "way/130275710"
      },
      "geometry": {
        "type": "Polygon",
        "coordinates": [
          [
            [
              -32.4125927,
              -3.8470763
            ],
            [
              -32.412379,
              -3.8470763
            ],
            [
              -32.412379,
              -3.8469754
            ],
            [
              -32.4125927,
              -3.8469754
            ],
            [
              -32.4125927,
              -3.8470763
            ]
          ]
        ]
      }
    },
    {
      "type": "Feature",
      "id": "way/130275713",
      "properties": {
        "timestamp": "2015-09-20T11:19:55Z",
        "version": 2,
        "changeset": 34138631,
        "addr:city": "Fernando de Noronha",
        "addr:country": "BR",
        "addr:postcode": "53990-000",
        "addr:street": "Alamedas das Flores",
        "addr:suburb": "Floresta Nova",
        "building": "yes",
        "name": "Pousada Suzimar",
        "phone": "+55 81 3619 0410",
        "tourism": "hotel",
        "id": "way/130275713"
      },
      "geometry": {
        "type": "Polygon",
        "coordinates": [
          [
            [
              -32.4105123,
              -3.8476226
            ],
            [
              -32.4105111,
              -3.8476994
            ],
            [
              -32.4103824,
              -3.8476973
            ],
            [
              -32.4103836,
              -3.8476205
            ],
            [
              -32.4105123,
              -3.8476226
            ]
          ]
        ]
      }
    },
    {
      "type": "Feature",
      "id": "way/130275714",
      "properties": {
        "timestamp": "2015-09-20T09:52:23Z",
        "version": 3,
        "changeset": 34136748,
        "addr:city": "Fernando de Noronha",
        "addr:country": "BR",
        "addr:postcode": "53990-000",
        "addr:street": "Alameda das Acácias",
        "addr:suburb": "Floresta Nova",
        "building": "yes",
        "name": "Pousada Agulhão",
        "phone": "+55 81 3619 1368",
        "tourism": "hotel",
        "website": "http://www.pousadaagulhao.com.br",
        "id": "way/130275714"
      },
      "geometry": {
        "type": "Polygon",
        "coordinates": [
          [
            [
              -32.4125754,
              -3.8473914
            ],
            [
              -32.4125754,
              -3.8474949
            ],
            [
              -32.4123764,
              -3.8474949
            ],
            [
              -32.4123764,
              -3.8473914
            ],
            [
              -32.4125754,
              -3.8473914
            ]
          ]
        ]
      }
    },
    {
      "type": "Feature",
      "id": "way/130275721",
      "properties": {
        "timestamp": "2015-09-20T11:35:34Z",
        "version": 3,
        "changeset": 34138854,
        "addr:city": "Fernando de Noronha",
        "addr:country": "BR",
        "addr:postcode": "53990-000",
        "addr:street": "Alameda das Acácias",
        "addr:suburb": "Floresta Nova",
        "building": "yes",
        "name": "Pousada da Nega",
        "phone": "+55 81 3619-1239",
        "tourism": "hotel",
        "website": "http://www.pousadadanega.com/",
        "id": "way/130275721"
      },
      "geometry": {
        "type": "Polygon",
        "coordinates": [
          [
            [
              -32.4127899,
              -3.8472817
            ],
            [
              -32.4129248,
              -3.8472843
            ],
            [
              -32.4129233,
              -3.8473649
            ],
            [
              -32.4127883,
              -3.8473623
            ],
            [
              -32.4127899,
              -3.8472817
            ]
          ]
        ]
      }
    },
    {
      "type": "Feature",
      "id": "way/130275722",
      "properties": {
        "timestamp": "2015-09-20T09:52:23Z",
        "version": 2,
        "changeset": 34136748,
        "addr:city": "Fernando de Noronha",
        "addr:country": "BR",
        "addr:postcode": "53990-000",
        "addr:street": "Alameda das Acácias",
        "addr:suburb": "Floresta Nova",
        "building": "yes",
        "name": "Pousada Farol da Rate",
        "phone": "+55 81 3619 1436",
        "tourism": "hotel",
        "id": "way/130275722"
      },
      "geometry": {
        "type": "Polygon",
        "coordinates": [
          [
            [
              -32.4125999,
              -3.8482813
            ],
            [
              -32.4126033,
              -3.8483904
            ],
            [
              -32.4124977,
              -3.8483938
            ],
            [
              -32.4124942,
              -3.8482847
            ],
            [
              -32.4125999,
              -3.8482813
            ]
          ]
        ]
      }
    },
    {
      "type": "Feature",
      "id": "way/130275724",
      "properties": {
        "timestamp": "2015-09-19T20:21:55Z",
        "version": 2,
        "changeset": 34128696,
        "addr:city": "Fernando de Noronha",
        "addr:country": "BR",
        "addr:housenumber": "10",
        "addr:postcode": "53990-000",
        "addr:street": "Alameda das Amendoeiras",
        "addr:suburb": "Floresta Nova",
        "building": "yes",
        "email": "pousadadabel@hotmail.com",
        "name": "Pousada da Bel",
        "phone": "+55 81 3619 1102",
        "tourism": "hotel",
        "id": "way/130275724"
      },
      "geometry": {
        "type": "Polygon",
        "coordinates": [
          [
            [
              -32.4123418,
              -3.8473801
            ],
            [
              -32.4123418,
              -3.8475053
            ],
            [
              -32.4121316,
              -3.8475053
            ],
            [
              -32.4121316,
              -3.8473801
            ],
            [
              -32.4123418,
              -3.8473801
            ]
          ]
        ]
      }
    },
    {
      "type": "Feature",
      "id": "way/130275725",
      "properties": {
        "timestamp": "2015-09-20T09:24:12Z",
        "version": 3,
        "changeset": 34136199,
        "addr:city": "Fernando de Noronha",
        "addr:country": "BR",
        "addr:housenumber": "9",
        "addr:postcode": "53990-000",
        "addr:street": "Alameda das Amendoeiras",
        "addr:suburb": "Floresta Nova",
        "building": "yes",
        "name": "Pousada Floresta & Mar",
        "phone": "+55 81 3619 0018",
        "tourism": "hotel",
        "id": "way/130275725"
      },
      "geometry": {
        "type": "Polygon",
        "coordinates": [
          [
            [
              -32.4123167,
              -3.8472653
            ],
            [
              -32.4123167,
              -3.8473646
            ],
            [
              -32.4121368,
              -3.8473646
            ],
            [
              -32.4121368,
              -3.8472653
            ],
            [
              -32.4123167,
              -3.8472653
            ]
          ]
        ]
      }
    },
    {
      "type": "Feature",
      "id": "way/130275731",
      "properties": {
        "timestamp": "2015-09-20T09:52:23Z",
        "version": 2,
        "changeset": 34136748,
        "addr:city": "Fernando de Noronha",
        "addr:country": "BR",
        "addr:housenumber": "5",
        "addr:postcode": "53990-000",
        "addr:street": "Alameda das Acácias",
        "addr:suburb": "Floresta Nova",
        "building": "yes",
        "name": "Pousada Alquimista",
        "phone": "+55 81 3012 1380",
        "tourism": "hotel",
        "website": "http://alquimistanoronha.com.br/site/",
        "id": "way/130275731"
      },
      "geometry": {
        "type": "Polygon",
        "coordinates": [
          [
            [
              -32.4127734,
              -3.8484371
            ],
            [
              -32.4127723,
              -3.8483425
            ],
            [
              -32.4129965,
              -3.8483397
            ],
            [
              -32.4129977,
              -3.8484344
            ],
            [
              -32.4127734,
              -3.8484371
            ]
          ]
        ]
      }
    },
    {
      "type": "Feature",
      "id": "way/130275734",
      "properties": {
        "timestamp": "2023-11-18T04:35:28Z",
        "version": 4,
        "changeset": 144161756,
        "addr:city": "Fernando de Noronha",
        "addr:country": "BR",
        "addr:housenumber": "551",
        "addr:postcode": "53990-000",
        "addr:street": "Alameda das Acácias",
        "addr:suburb": "Floresta Nova",
        "building": "yes",
        "email": "pousadaalamoa@hotmail.com",
        "name": "Pousada Alamoa",
        "phone": "+55 81 3619 1839",
        "tourism": "hotel",
        "website": "https://www.pousadaalamoa.com/",
        "id": "way/130275734"
      },
      "geometry": {
        "type": "Polygon",
        "coordinates": [
          [
            [
              -32.4125883,
              -3.8473603
            ],
            [
              -32.412379,
              -3.8473603
            ],
            [
              -32.412379,
              -3.8472636
            ],
            [
              -32.4125883,
              -3.8472636
            ],
            [
              -32.4125883,
              -3.8473603
            ]
          ]
        ]
      }
    },
    {
      "type": "Feature",
      "id": "way/130275735",
      "properties": {
        "timestamp": "2015-09-20T09:31:28Z",
        "version": 2,
        "changeset": 34136322,
        "addr:city": "Fernando de Noronha",
        "addr:country": "BR",
        "addr:housenumber": "12",
        "addr:postcode": "53990-000",
        "addr:street": "Alameda da Harmonia",
        "addr:suburb": "Floresta Nova",
        "building": "yes",
        "email": "pousadadobita@outlook.com",
        "name": "Pousada do Bita",
        "phone": "+55 81 3619 1026",
        "tourism": "hotel",
        "website": "http://www.pousadadobita.com/",
        "id": "way/130275735"
      },
      "geometry": {
        "type": "Polygon",
        "coordinates": [
          [
            [
              -32.4115041,
              -3.8474044
            ],
            [
              -32.4116383,
              -3.8474058
            ],
            [
              -32.4116376,
              -3.8474743
            ],
            [
              -32.4115034,
              -3.8474729
            ],
            [
              -32.4115041,
              -3.8474044
            ]
          ]
        ]
      }
    },
    {
      "type": "Feature",
      "id": "way/130275742",
      "properties": {
        "timestamp": "2015-09-20T09:24:12Z",
        "version": 2,
        "changeset": 34136199,
        "addr:city": "Fernando de Noronha",
        "addr:country": "BR",
        "addr:housenumber": "541",
        "addr:postcode": "53990-000",
        "addr:street": "Alameda das Amendoeiras",
        "addr:suburb": "Floresta Nova",
        "building": "yes",
        "name": "Pousada Morada do Sol",
        "phone": "+55 81 3619 1749",
        "tourism": "hotel",
        "id": "way/130275742"
      },
      "geometry": {
        "type": "Polygon",
        "coordinates": [
          [
            [
              -32.4118037,
              -3.8472346
            ],
            [
              -32.4118029,
              -3.8471414
            ],
            [
              -32.4119643,
              -3.84714
            ],
            [
              -32.4119651,
              -3.8472332
            ],
            [
              -32.4118037,
              -3.8472346
            ]
          ]
        ]
      }
    },
    {
      "type": "Feature",
      "id": "way/130275746",
      "properties": {
        "timestamp": "2015-09-20T09:24:12Z",
        "version": 2,
        "changeset": 34136199,
        "addr:city": "Fernando de Noronha",
        "addr:country": "BR",
        "addr:housenumber": "8",
        "addr:postcode": "53990-000",
        "addr:street": "Alameda das Amendoeiras",
        "addr:suburb": "Floresta Nova",
        "building": "yes",
        "name": "Pousada da Carmô",
        "phone": "+55 81 3619 1951",
        "tourism": "hotel",
        "website": "http://www.pousadadacarmo.com.br/",
        "id": "way/130275746"
      },
      "geometry": {
        "type": "Polygon",
        "coordinates": [
          [
            [
              -32.4122864,
              -3.8472265
            ],
            [
              -32.4121264,
              -3.8472265
            ],
            [
              -32.4121264,
              -3.8471402
            ],
            [
              -32.4122865,
              -3.8471402
            ],
            [
              -32.4122864,
              -3.8472265
            ]
          ]
        ]
      }
    },
    {
      "type": "Feature",
      "id": "way/130275750",
      "properties": {
        "timestamp": "2015-09-20T09:31:28Z",
        "version": 3,
        "changeset": 34136322,
        "addr:city": "Fernando de Noronha",
        "addr:country": "BR",
        "addr:housenumber": "10",
        "addr:postcode": "53990-000",
        "addr:street": "Alameda da Harmonia",
        "addr:suburb": "Floresta Nova",
        "building": "yes",
        "name": "Pousada São Silmares",
        "tourism": "hotel",
        "website": "http://www.pousadasaosilmares.com.br/",
        "id": "way/130275750"
      },
      "geometry": {
        "type": "Polygon",
        "coordinates": [
          [
            [
              -32.4115131,
              -3.84712
            ],
            [
              -32.4116771,
              -3.8471227
            ],
            [
              -32.4116756,
              -3.8472135
            ],
            [
              -32.4115115,
              -3.8472107
            ],
            [
              -32.4115131,
              -3.84712
            ]
          ]
        ]
      }
    },
    {
      "type": "Feature",
      "id": "way/130275760",
      "properties": {
        "timestamp": "2015-09-20T12:01:22Z",
        "version": 2,
        "changeset": 34139253,
        "addr:city": "Fernando de Noronha",
        "addr:country": "BR",
        "addr:housenumber": "4",
        "addr:postcode": "53990-000",
        "addr:street": "Alameda da Harmonia",
        "addr:suburb": "Floresta Nova",
        "building": "yes",
        "email": "pousada@pousadadomano.com.br",
        "name": "Pousada do Mano",
        "tourism": "hotel",
        "website": "http://www.pousadadomano.com.br",
        "id": "way/130275760"
      },
      "geometry": {
        "type": "Polygon",
        "coordinates": [
          [
            [
              -32.4113255,
              -3.846983
            ],
            [
              -32.4113242,
              -3.8470842
            ],
            [
              -32.4111435,
              -3.8470817
            ],
            [
              -32.4111449,
              -3.8469806
            ],
            [
              -32.4113255,
              -3.846983
            ]
          ]
        ]
      }
    },
    {
      "type": "Feature",
      "id": "way/130275768",
      "properties": {
        "timestamp": "2017-09-16T19:13:05Z",
        "version": 2,
        "changeset": 52102949,
        "addr:city": "Fernando de Noronha",
        "addr:country": "BR",
        "addr:housenumber": "3",
        "addr:postcode": "53990-000",
        "addr:street": "Alameda da Harmonia",
        "addr:suburb": "Floresta Nova",
        "building": "yes",
        "email": "casadepraianoronha@outlook.com",
        "name": "Pousada Casa de Praia",
        "tourism": "hotel",
        "website": "http://www.pousadacasadepraianoronha.com/",
        "id": "way/130275768"
      },
      "geometry": {
        "type": "Polygon",
        "coordinates": [
          [
            [
              -32.4113276,
              -3.8471335
            ],
            [
              -32.4113263,
              -3.847231
            ],
            [
              -32.4111657,
              -3.8472288
            ],
            [
              -32.411167,
              -3.8471314
            ],
            [
              -32.4113276,
              -3.8471335
            ]
          ]
        ]
      }
    },
    {
      "type": "Feature",
      "id": "way/130275769",
      "properties": {
        "timestamp": "2015-10-09T20:53:33Z",
        "version": 2,
        "changeset": 34539030,
        "addr:city": "Fernando de Noronha",
        "addr:country": "BR",
        "addr:postcode": "53990-000",
        "addr:street": "Alameda do Pau D'Arco",
        "addr:suburb": "Floresta Nova",
        "building": "yes",
        "name": "Pousada Mar Atlântico",
        "phone": "+55 81 3619 1672",
        "tourism": "hotel",
        "website": "http://www.pousadamaratlantico.com.br",
        "id": "way/130275769"
      },
      "geometry": {
        "type": "Polygon",
        "coordinates": [
          [
            [
              -32.4108329,
              -3.848025
            ],
            [
              -32.410953,
              -3.848028
            ],
            [
              -32.4109486,
              -3.8482008
            ],
            [
              -32.4108286,
              -3.8481978
            ],
            [
              -32.4108329,
              -3.848025
            ]
          ]
        ]
      }
    },
    {
      "type": "Feature",
      "id": "way/130275770",
      "properties": {
        "timestamp": "2015-10-11T19:50:23Z",
        "version": 2,
        "changeset": 34577095,
        "addr:city": "Fernando de Noronha",
        "addr:country": "BR",
        "addr:postcode": "53990-000",
        "addr:street": "Alameda dos Cajueiros",
        "addr:suburb": "Floresta Nova",
        "building": "yes",
        "name": "Pousada Verdes Mares",
        "phone": "+55 81 3619 1222",
        "tourism": "hotel",
        "website": "http://www.verdesmaresnoronha.com.br",
        "id": "way/130275770"
      },
      "geometry": {
        "type": "Polygon",
        "coordinates": [
          [
            [
              -32.4131027,
              -3.8479258
            ],
            [
              -32.4132251,
              -3.8479252
            ],
            [
              -32.4132255,
              -3.8480027
            ],
            [
              -32.4131031,
              -3.8480033
            ],
            [
              -32.4131027,
              -3.8479258
            ]
          ]
        ]
      }
    },
    {
      "type": "Feature",
      "id": "way/130275775",
      "properties": {
        "timestamp": "2015-09-20T11:05:33Z",
        "version": 3,
        "changeset": 34138422,
        "addr:city": "Fernando de Noronha",
        "addr:country": "BR",
        "addr:postcode": "53990-000",
        "addr:street": "Alameda do Pau D'Arco",
        "addr:suburb": "Floresta Nova",
        "building": "yes",
        "name": "Pousada Arquipelago",
        "phone": "+55 81 3619 1410",
        "tourism": "hotel",
        "id": "way/130275775"
      },
      "geometry": {
        "type": "Polygon",
        "coordinates": [
          [
            [
              -32.4108792,
              -3.8469925
            ],
            [
              -32.4109701,
              -3.8469939
            ],
            [
              -32.4109697,
              -3.847018
            ],
            [
              -32.4110707,
              -3.8470196
            ],
            [
              -32.4110695,
              -3.847095
            ],
            [
              -32.4108776,
              -3.8470919
            ],
            [
              -32.4108792,
              -3.8469925
            ]
          ]
        ]
      }
    },
    {
      "type": "Feature",
      "id": "way/130275778",
      "properties": {
        "timestamp": "2015-09-20T09:52:24Z",
        "version": 3,
        "changeset": 34136748,
        "addr:city": "Fernando de Noronha",
        "addr:country": "BR",
        "addr:postcode": "53990-000",
        "addr:street": "Alameda das Acácias",
        "addr:suburb": "Floresta Nova",
        "building": "yes",
        "email": "pousadadamercianoronha@hotmail.com",
        "name": "Pousada da Mércia",
        "phone": "+55 81 3619 1521",
        "tourism": "hotel",
        "id": "way/130275778"
      },
      "geometry": {
        "type": "Polygon",
        "coordinates": [
          [
            [
              -32.4125831,
              -3.8472231
            ],
            [
              -32.4124378,
              -3.8472231
            ],
            [
              -32.4124378,
              -3.8471298
            ],
            [
              -32.4125209,
              -3.8471298
            ],
            [
              -32.4125209,
              -3.8471057
            ],
            [
              -32.4125831,
              -3.8471057
            ],
            [
              -32.4125831,
              -3.8472231
            ]
          ]
        ]
      }
    },
    {
      "type": "Feature",
      "id": "way/130275782",
      "properties": {
        "timestamp": "2015-09-20T11:05:32Z",
        "version": 2,
        "changeset": 34138422,
        "addr:city": "Fernando de Noronha",
        "addr:country": "BR",
        "addr:housenumber": "118",
        "addr:postcode": "53990-000",
        "addr:street": "Alamedas das Flores",
        "addr:suburb": "Floresta Nova",
        "building": "yes",
        "name": "Pousada Algas Marinhas",
        "phone": "+55 81 3619 1341",
        "tourism": "hotel",
        "website": "http://www.pousadaalgasmarinhas.com.br/",
        "id": "way/130275782"
      },
      "geometry": {
        "type": "Polygon",
        "coordinates": [
          [
            [
              -32.4100804,
              -3.8482645
            ],
            [
              -32.4100833,
              -3.848147
            ],
            [
              -32.4101801,
              -3.8481495
            ],
            [
              -32.4101796,
              -3.848169
            ],
            [
              -32.4102929,
              -3.8481718
            ],
            [
              -32.4102904,
              -3.8482698
            ],
            [
              -32.4100804,
              -3.8482645
            ]
          ]
        ]
      }
    },
    {
      "type": "Feature",
      "id": "way/130275783",
      "properties": {
        "timestamp": "2015-09-20T11:05:34Z",
        "version": 3,
        "changeset": 34138422,
        "addr:city": "Fernando de Noronha",
        "addr:country": "BR",
        "addr:housenumber": "527",
        "addr:postcode": "53990-000",
        "addr:street": "Alameda do Pau D'Arco",
        "addr:suburb": "Floresta Nova",
        "building": "yes",
        "email": "contato@pousadadamaga.com.br",
        "name": "Pousada da Maga",
        "phone": "+55 81 9774 3287",
        "tourism": "hotel",
        "website": "http://www.pousadadamaga.com.br/",
        "id": "way/130275783"
      },
      "geometry": {
        "type": "Polygon",
        "coordinates": [
          [
            [
              -32.4108759,
              -3.8468533
            ],
            [
              -32.4111473,
              -3.8468576
            ],
            [
              -32.4111464,
              -3.8469143
            ],
            [
              -32.4110217,
              -3.8469123
            ],
            [
              -32.4110208,
              -3.8469692
            ],
            [
              -32.4108741,
              -3.8469669
            ],
            [
              -32.4108759,
              -3.8468533
            ]
          ]
        ]
      }
    },
    {
      "type": "Feature",
      "id": "way/130275785",
      "properties": {
        "timestamp": "2017-09-16T19:13:06Z",
        "version": 4,
        "changeset": 52102949,
        "addr:city": "Fernando de Noronha",
        "addr:country": "BR",
        "addr:postcode": "53990-000",
        "addr:street": "Alameda do Pau D'Arco",
        "addr:suburb": "Floresta Nova",
        "building": "yes",
        "name": "Pousada do Biu",
        "phone": "+55 81 3619 1235",
        "tourism": "hotel",
        "website": "http://pousadaslunaeribeiro.weebly.com/",
        "id": "way/130275785"
      },
      "geometry": {
        "type": "Polygon",
        "coordinates": [
          [
            [
              -32.4108771,
              -3.8473993
            ],
            [
              -32.410983,
              -3.8474008
            ],
            [
              -32.4109827,
              -3.8474211
            ],
            [
              -32.4110498,
              -3.847422
            ],
            [
              -32.4110487,
              -3.8475001
            ],
            [
              -32.4108758,
              -3.8474978
            ],
            [
              -32.4108771,
              -3.8473993
            ]
          ]
        ]
      }
    },
    {
      "type": "Feature",
      "id": "way/130275789",
      "properties": {
        "timestamp": "2015-09-20T11:35:33Z",
        "version": 2,
        "changeset": 34138854,
        "addr:city": "Fernando de Noronha",
        "addr:country": "BR",
        "addr:housenumber": "540",
        "addr:postcode": "53990-000",
        "addr:street": "Alameda das Amendoeiras",
        "addr:suburb": "Floresta Nova",
        "building": "yes",
        "name": "Pousada Alvorada",
        "phone": "+55 81 3619 1167",
        "tourism": "hotel",
        "id": "way/130275789"
      },
      "geometry": {
        "type": "Polygon",
        "coordinates": [
          [
            [
              -32.4117677,
              -3.8473782
            ],
            [
              -32.4117667,
              -3.8472515
            ],
            [
              -32.4119276,
              -3.8472502
            ],
            [
              -32.4119278,
              -3.8472762
            ],
            [
              -32.4119742,
              -3.8472758
            ],
            [
              -32.411975,
              -3.8473765
            ],
            [
              -32.4117677,
              -3.8473782
            ]
          ]
        ]
      }
    },
    {
      "type": "Feature",
      "id": "way/130275790",
      "properties": {
        "timestamp": "2015-09-18T21:35:11Z",
        "version": 2,
        "changeset": 34111958,
        "addr:city": "Fernando de Noronha",
        "addr:country": "BR",
        "addr:housenumber": "561",
        "addr:postcode": "53990-000",
        "addr:street": "Alameda das Acácias",
        "addr:suburb": "Floresta Nova",
        "building": "yes",
        "name": "Pousada Atlântica",
        "tourism": "hotel",
        "id": "way/130275790"
      },
      "geometry": {
        "type": "Polygon",
        "coordinates": [
          [
            [
              -32.4129253,
              -3.8477617
            ],
            [
              -32.4127688,
              -3.8477652
            ],
            [
              -32.4127667,
              -3.8476705
            ],
            [
              -32.4128596,
              -3.8476684
            ],
            [
              -32.41286,
              -3.8476897
            ],
            [
              -32.4129237,
              -3.8476883
            ],
            [
              -32.4129253,
              -3.8477617
            ]
          ]
        ]
      }
    },
    {
      "type": "Feature",
      "id": "way/130275795",
      "properties": {
        "timestamp": "2017-09-16T19:13:06Z",
        "version": 5,
        "changeset": 52102949,
        "addr:city": "Fernando de Noronha",
        "addr:country": "BR",
        "addr:housenumber": "539",
        "addr:postcode": "53990-000",
        "addr:street": "Alameda da Harmonia",
        "addr:suburb": "Floresta Nova",
        "building": "yes",
        "name": "Pousada Noronha Sol e Mar",
        "phone": "+55 81 3619 1184",
        "tourism": "hotel",
        "id": "way/130275795"
      },
      "geometry": {
        "type": "Polygon",
        "coordinates": [
          [
            [
              -32.4117581,
              -3.8475273
            ],
            [
              -32.4117572,
              -3.847424
            ],
            [
              -32.4118025,
              -3.8474236
            ],
            [
              -32.4118023,
              -3.8474039
            ],
            [
              -32.4118314,
              -3.8474036
            ],
            [
              -32.4118316,
              -3.847424
            ],
            [
              -32.4119212,
              -3.8474232
            ],
            [
              -32.4119221,
              -3.847526
            ],
            [
              -32.4117581,
              -3.8475273
            ]
          ]
        ]
      }
    },
    {
      "type": "Feature",
      "id": "way/130275797",
      "properties": {
        "timestamp": "2015-09-20T11:05:33Z",
        "version": 3,
        "changeset": 34138422,
        "addr:city": "Fernando de Noronha",
        "addr:country": "BR",
        "addr:postcode": "53990-000",
        "addr:street": "Alameda do Pau D'Arco",
        "addr:suburb": "Floresta Nova",
        "building": "yes",
        "name": "Pousada da Lopes",
        "phone": "+55 81 3619 1278",
        "tourism": "hotel",
        "website": "http://www.pousadadolopes.com/",
        "id": "way/130275797"
      },
      "geometry": {
        "type": "Polygon",
        "coordinates": [
          [
            [
              -32.4108835,
              -3.847122
            ],
            [
              -32.4110896,
              -3.8471252
            ],
            [
              -32.4110879,
              -3.8472342
            ],
            [
              -32.4110165,
              -3.847233
            ],
            [
              -32.4110167,
              -3.8472175
            ],
            [
              -32.4109937,
              -3.8472172
            ],
            [
              -32.4109939,
              -3.8472066
            ],
            [
              -32.4108822,
              -3.8472048
            ],
            [
              -32.4108835,
              -3.847122
            ]
          ]
        ]
      }
    },
    {
      "type": "Feature",
      "id": "way/130277210",
      "properties": {
        "timestamp": "2015-10-09T20:33:46Z",
        "version": 2,
        "changeset": 34538665,
        "addr:city": "Fernando de Noronha",
        "addr:country": "BR",
        "addr:housenumber": "485",
        "addr:postcode": "53990-000",
        "addr:street": "Rua Amaro Preto",
        "addr:suburb": "Vila Floresta Velha",
        "building": "yes",
        "name": "Pousada do Romildo",
        "phone": "+55 81 3619 1618",
        "tourism": "hotel",
        "website": "http://www.pousadadoromildo.com.br",
        "id": "way/130277210"
      },
      "geometry": {
        "type": "Polygon",
        "coordinates": [
          [
            [
              -32.4131054,
              -3.8451973
            ],
            [
              -32.4133494,
              -3.8451047
            ],
            [
              -32.4133836,
              -3.8451945
            ],
            [
              -32.4131396,
              -3.845287
            ],
            [
              -32.4131054,
              -3.8451973
            ]
          ]
        ]
      }
    },
    {
      "type": "Feature",
      "id": "way/130277231",
      "properties": {
        "timestamp": "2015-09-05T14:03:00Z",
        "version": 2,
        "changeset": 33815322,
        "addr:city": "Fernando de Noronha",
        "addr:country": "BR",
        "addr:housenumber": "485",
        "addr:postcode": "53990-000",
        "addr:street": "Rua Amaro Preto",
        "addr:suburb": "Vila Floresta Velha",
        "building": "yes",
        "email": "pousadafen@hotmail.com",
        "name": "Pousada Ondas do Mar",
        "tourism": "hotel",
        "id": "way/130277231"
      },
      "geometry": {
        "type": "Polygon",
        "coordinates": [
          [
            [
              -32.4128083,
              -3.8454469
            ],
            [
              -32.412768,
              -3.8453546
            ],
            [
              -32.4129346,
              -3.8452821
            ],
            [
              -32.412975,
              -3.8453744
            ],
            [
              -32.4128083,
              -3.8454469
            ]
          ]
        ]
      }
    },
    {
      "type": "Feature",
      "id": "way/130433520",
      "properties": {
        "timestamp": "2015-09-05T14:03:01Z",
        "version": 2,
        "changeset": 33815322,
        "addr:city": "Fernando de Noronha",
        "addr:country": "BR",
        "addr:housenumber": "19",
        "addr:postcode": "53990-000",
        "addr:street": "Rua da Consolação",
        "addr:suburb": "Vila Floresta Velha",
        "building": "yes",
        "email": "pousadacantinhofeliz@gmail.com",
        "name": "Pousada do Francês",
        "phone": "+55 81 3619 1192",
        "tourism": "hotel",
        "website": "http://pousadacantinhofeliz.com.br/",
        "id": "way/130433520"
      },
      "geometry": {
        "type": "Polygon",
        "coordinates": [
          [
            [
              -32.4131621,
              -3.8445893
            ],
            [
              -32.4128648,
              -3.8447314
            ],
            [
              -32.4128238,
              -3.844646
            ],
            [
              -32.4131212,
              -3.8445039
            ],
            [
              -32.4131621,
              -3.8445893
            ]
          ]
        ]
      }
    },
    {
      "type": "Feature",
      "id": "way/130433533",
      "properties": {
        "timestamp": "2023-11-18T04:35:24Z",
        "version": 4,
        "changeset": 144161756,
        "addr:city": "Fernando de Noronha",
        "addr:country": "BR",
        "addr:housenumber": "133",
        "addr:postcode": "53990-000",
        "addr:street": "Rua Amaro Preto",
        "addr:suburb": "Vila Floresta Velha",
        "building": "yes",
        "email": "reservas@triboju.com.br",
        "name": "Pousada Triboju",
        "phone": "+55 81 3619 1313",
        "tourism": "hotel",
        "website": "https://www.pousadatriboju.com.br/",
        "id": "way/130433533"
      },
      "geometry": {
        "type": "Polygon",
        "coordinates": [
          [
            [
              -32.4136816,
              -3.8434381
            ],
            [
              -32.4134592,
              -3.8435363
            ],
            [
              -32.4134224,
              -3.8434533
            ],
            [
              -32.4136447,
              -3.8433551
            ],
            [
              -32.4136816,
              -3.8434381
            ]
          ]
        ]
      }
    },
    {
      "type": "Feature",
      "id": "way/130433540",
      "properties": {
        "timestamp": "2015-10-05T17:07:31Z",
        "version": 2,
        "changeset": 34452213,
        "addr:city": "Fernando de Noronha",
        "addr:country": "BR",
        "addr:place": "Vila Floresta Velha",
        "addr:postcode": "53990-000",
        "addr:street": "Rua Amaro Preto",
        "addr:suburb": "Vila Floresta Velha",
        "building": "yes",
        "name": "Pousada Lua Bela",
        "phone": "+55 81 3619 1902",
        "tourism": "hotel",
        "id": "way/130433540"
      },
      "geometry": {
        "type": "Polygon",
        "coordinates": [
          [
            [
              -32.413513,
              -3.8445029
            ],
            [
              -32.4135488,
              -3.8445913
            ],
            [
              -32.4134303,
              -3.8446391
            ],
            [
              -32.4133945,
              -3.8445506
            ],
            [
              -32.413513,
              -3.8445029
            ]
          ]
        ]
      }
    },
    {
      "type": "Feature",
      "id": "way/254160148",
      "properties": {
        "timestamp": "2016-07-04T21:54:57Z",
        "version": 5,
        "changeset": 40488125,
        "addr:city": "Fernando de Noronha",
        "addr:country": "BR",
        "addr:postcode": "53990-000",
        "addr:street": "Rua Mestre Gouveia",
        "addr:suburb": "Vila Dos Remédios",
        "building": "yes",
        "name": "Pousada Malibu",
        "phone": "+55 81 3619 1520",
        "tourism": "hotel",
        "id": "way/254160148"
      },
      "geometry": {
        "type": "Polygon",
        "coordinates": [
          [
            [
              -32.4112748,
              -3.8426758
            ],
            [
              -32.4111389,
              -3.8427506
            ],
            [
              -32.411075,
              -3.8426351
            ],
            [
              -32.411211,
              -3.8425603
            ],
            [
              -32.4112748,
              -3.8426758
            ]
          ]
        ]
      }
    },
    {
      "type": "Feature",
      "id": "way/254161841",
      "properties": {
        "timestamp": "2020-02-24T21:02:33Z",
        "version": 4,
        "changeset": 81423423,
        "addr:city": "Fernando de Noronha",
        "addr:country": "BR",
        "addr:housenumber": "169",
        "addr:postcode": "53990-000",
        "addr:street": "Rua São Miguel",
        "addr:suburb": "Vila Dos Remédios",
        "building": "yes",
        "name": "Pousada Soulymar",
        "tourism": "hotel",
        "id": "way/254161841"
      },
      "geometry": {
        "type": "Polygon",
        "coordinates": [
          [
            [
              -32.4103924,
              -3.8437852
            ],
            [
              -32.410398,
              -3.8439302
            ],
            [
              -32.4103049,
              -3.8439338
            ],
            [
              -32.4103062,
              -3.8439654
            ],
            [
              -32.4102453,
              -3.8439678
            ],
            [
              -32.410243,
              -3.8439076
            ],
            [
              -32.410296,
              -3.8439055
            ],
            [
              -32.4102928,
              -3.8438222
            ],
            [
              -32.4102132,
              -3.8438253
            ],
            [
              -32.4102112,
              -3.8437742
            ],
            [
              -32.410358,
              -3.8437685
            ],
            [
              -32.4103561,
              -3.8437202
            ],
            [
              -32.4104287,
              -3.8437174
            ],
            [
              -32.4104313,
              -3.8437837
            ],
            [
              -32.4103924,
              -3.8437852
            ]
          ]
        ]
      }
    },
    {
      "type": "Feature",
      "id": "way/254233662",
      "properties": {
        "timestamp": "2016-07-04T21:54:57Z",
        "version": 3,
        "changeset": 40488125,
        "addr:city": "Fernando de Noronha",
        "addr:country": "BR",
        "addr:housenumber": "116",
        "addr:postcode": "53990-000",
        "addr:street": "Rua São Miguel",
        "addr:suburb": "Vila Dos Remédios",
        "building": "yes",
        "email": "pousadahelenanoronha@gmail.com",
        "name": "Pousada da Helena",
        "phone": "+55 81 9516-3161",
        "tourism": "hotel",
        "id": "way/254233662"
      },
      "geometry": {
        "type": "Polygon",
        "coordinates": [
          [
            [
              -32.4109557,
              -3.8422736
            ],
            [
              -32.4109547,
              -3.842324
            ],
            [
              -32.4108231,
              -3.8423216
            ],
            [
              -32.410824,
              -3.8422712
            ],
            [
              -32.4109557,
              -3.8422736
            ]
          ]
        ]
      }
    },
    {
      "type": "Feature",
      "id": "way/275637992",
      "properties": {
        "timestamp": "2020-04-29T11:35:27Z",
        "version": 4,
        "changeset": 84335250,
        "addr:city": "Fernando de Noronha",
        "addr:country": "BR",
        "addr:housenumber": "38a",
        "addr:postcode": "53990-000",
        "addr:street": "Rua Nice Cordeiro",
        "addr:suburb": "Vila Floresta Velha",
        "building": "house",
        "email": "reservas@pousadasolardeloronha.com.br",
        "name": "Pousada Solar de Loronha",
        "phone": "+55 81 3031 3416",
        "tourism": "hotel",
        "website": "https://www.pousadasolardeloronha.com.br",
        "id": "way/275637992"
      },
      "geometry": {
        "type": "Polygon",
        "coordinates": [
          [
            [
              -32.4144491,
              -3.8459099
            ],
            [
              -32.4145544,
              -3.8459692
            ],
            [
              -32.4144785,
              -3.8461035
            ],
            [
              -32.4143732,
              -3.8460442
            ],
            [
              -32.4144491,
              -3.8459099
            ]
          ]
        ]
      }
    },
    {
      "type": "Feature",
      "id": "way/275637996",
      "properties": {
        "timestamp": "2023-11-18T04:35:31Z",
        "version": 4,
        "changeset": 144161756,
        "addr:city": "Fernando de Noronha",
        "addr:country": "BR",
        "addr:housenumber": "121",
        "addr:place": "Vila Floresta Velha",
        "addr:postcode": "53990-000",
        "addr:street": "Rua Amaro Preto",
        "addr:suburb": "Vila Floresta Velha",
        "building": "yes",
        "email": "reservas@pousadatiojoao.com.br",
        "name": "Pousada Tio João",
        "phone": "+55 81 3619 1424",
        "tourism": "hotel",
        "website": "https://www.pousadatiojoao.com.br/",
        "id": "way/275637996"
      },
      "geometry": {
        "type": "Polygon",
        "coordinates": [
          [
            [
              -32.4135176,
              -3.8441357
            ],
            [
              -32.413542,
              -3.8442057
            ],
            [
              -32.41359,
              -3.8441891
            ],
            [
              -32.4136034,
              -3.8442275
            ],
            [
              -32.4134514,
              -3.8442803
            ],
            [
              -32.4134136,
              -3.8441718
            ],
            [
              -32.4135176,
              -3.8441357
            ]
          ]
        ]
      }
    },
    {
      "type": "Feature",
      "id": "way/314985240",
      "properties": {
        "timestamp": "2023-12-29T16:33:23Z",
        "version": 3,
        "changeset": 145669115,
        "addr:city": "Fernando de Noronha",
        "addr:country": "BR",
        "addr:housenumber": "104",
        "addr:postcode": "53990-000",
        "addr:street": "Rua Major Costa",
        "addr:suburb": "Vila do Trinta",
        "brand": "Pousada Brisa Mar Noronha",
        "building": "yes",
        "internet_access": "yes",
        "internet_access:fee": "no",
        "name": "Pousada Brisa Mar Noronha",
        "phone": "+55 81 3619 1139",
        "tourism": "hotel",
        "website": "http://brisamarnoronha.com.br/",
        "id": "way/314985240"
      },
      "geometry": {
        "type": "Polygon",
        "coordinates": [
          [
            [
              -32.4070994,
              -3.8439716
            ],
            [
              -32.407075,
              -3.8440512
            ],
            [
              -32.4071499,
              -3.8440741
            ],
            [
              -32.4071312,
              -3.8441351
            ],
            [
              -32.4071883,
              -3.8441526
            ],
            [
              -32.4071709,
              -3.8442093
            ],
            [
              -32.4071109,
              -3.8441911
            ],
            [
              -32.4071259,
              -3.8441422
            ],
            [
              -32.406901,
              -3.8440736
            ],
            [
              -32.4069465,
              -3.8439249
            ],
            [
              -32.4070994,
              -3.8439716
            ]
          ]
        ]
      }
    },
    {
      "type": "Feature",
      "id": "way/315781983",
      "properties": {
        "timestamp": "2015-09-27T20:28:38Z",
        "version": 3,
        "changeset": 34291917,
        "addr:city": "Fernando de Noronha",
        "addr:country": "BR",
        "addr:housenumber": "312",
        "addr:postcode": "53990-000",
        "addr:street": "Rua Dom Juquinha I",
        "addr:suburb": "Vila do Trinta",
        "building": "yes",
        "name": "Pousada da Janda",
        "phone": "+55 81 3619 0200",
        "tourism": "hotel",
        "id": "way/315781983"
      },
      "geometry": {
        "type": "Polygon",
        "coordinates": [
          [
            [
              -32.4080274,
              -3.846355
            ],
            [
              -32.4079685,
              -3.8463944
            ],
            [
              -32.4078927,
              -3.8462816
            ],
            [
              -32.4079516,
              -3.8462422
            ],
            [
              -32.4080274,
              -3.846355
            ]
          ]
        ]
      }
    },
    {
      "type": "Feature",
      "id": "way/315781990",
      "properties": {
        "timestamp": "2015-09-27T20:28:36Z",
        "version": 3,
        "changeset": 34291917,
        "addr:city": "Fernando de Noronha",
        "addr:country": "BR",
        "addr:housenumber": "313",
        "addr:postcode": "53990-000",
        "addr:street": "Rua Dom Juquinha I",
        "addr:suburb": "Vila do Trinta",
        "building": "yes",
        "name": "Pousada Atalaia",
        "phone": "+55 81 3619 1300",
        "tourism": "hotel",
        "id": "way/315781990"
      },
      "geometry": {
        "type": "Polygon",
        "coordinates": [
          [
            [
              -32.4081085,
              -3.8463017
            ],
            [
              -32.4080496,
              -3.8463411
            ],
            [
              -32.4079738,
              -3.8462283
            ],
            [
              -32.4080327,
              -3.8461889
            ],
            [
              -32.4081085,
              -3.8463017
            ]
          ]
        ]
      }
    },
    {
      "type": "Feature",
      "id": "way/316130517",
      "properties": {
        "timestamp": "2024-07-19T17:54:41Z",
        "version": 5,
        "changeset": 154153190,
        "addr:city": "Fernando de Noronha",
        "addr:country": "BR",
        "addr:housenumber": "139",
        "addr:postcode": "53990-000",
        "addr:street": "Rua Dom Juquinha I",
        "addr:suburb": "Vila do Trinta",
        "building": "yes",
        "name": "Pousada Monsieur Rocha",
        "phone": "+55 81 3619 1227",
        "tourism": "hotel",
        "website": "https://www.pousadamrocha.com/",
        "id": "way/316130517"
      },
      "geometry": {
        "type": "Polygon",
        "coordinates": [
          [
            [
              -32.4085215,
              -3.8462265
            ],
            [
              -32.40872,
              -3.8464441
            ],
            [
              -32.4086041,
              -3.8465342
            ],
            [
              -32.4084104,
              -3.8463176
            ],
            [
              -32.4084681,
              -3.8462703
            ],
            [
              -32.4085215,
              -3.8462265
            ]
          ]
        ]
      }
    },
    {
      "type": "Feature",
      "id": "way/316137490",
      "properties": {
        "timestamp": "2017-10-02T21:14:20Z",
        "version": 2,
        "changeset": 52579133,
        "addr:city": "Fernando de Noronha",
        "addr:country": "BR",
        "addr:postcode": "53990-000",
        "addr:street": "Estrada da Alamoa",
        "addr:suburb": "Vila Dos Remédios",
        "building": "yes",
        "email": "reservas@pousadadapraianoronha.com.br",
        "name": "Pousada da Praia",
        "phone": "+55 81 98829 9749",
        "tourism": "hotel",
        "id": "way/316137490"
      },
      "geometry": {
        "type": "Polygon",
        "coordinates": [
          [
            [
              -32.4167641,
              -3.8423924
            ],
            [
              -32.4166847,
              -3.8425016
            ],
            [
              -32.4165428,
              -3.8423989
            ],
            [
              -32.4164903,
              -3.8424713
            ],
            [
              -32.4163979,
              -3.8424044
            ],
            [
              -32.4165299,
              -3.8422228
            ],
            [
              -32.4167641,
              -3.8423924
            ]
          ]
        ]
      }
    },
    {
      "type": "Feature",
      "id": "way/332691719",
      "properties": {
        "timestamp": "2015-09-20T19:05:30Z",
        "version": 3,
        "changeset": 34147255,
        "addr:city": "Fernando de Noronha",
        "addr:country": "BR",
        "addr:postcode": "53990-000",
        "addr:street": "Rua São Miguel",
        "addr:suburb": "Vila Dos Remédios",
        "building": "yes",
        "name": "Pousada Tubarão",
        "phone": "+55 81 3619 1391",
        "tourism": "hotel",
        "id": "way/332691719"
      },
      "geometry": {
        "type": "Polygon",
        "coordinates": [
          [
            [
              -32.4108894,
              -3.8429047
            ],
            [
              -32.4108274,
              -3.8429558
            ],
            [
              -32.4107391,
              -3.8428492
            ],
            [
              -32.4108011,
              -3.8427981
            ],
            [
              -32.4108894,
              -3.8429047
            ]
          ]
        ]
      }
    },
    {
      "type": "Feature",
      "id": "way/367812353",
      "properties": {
        "timestamp": "2023-11-18T04:35:32Z",
        "version": 5,
        "changeset": 144161756,
        "addr:city": "Fernando de Noronha",
        "addr:country": "BR",
        "addr:postcode": "53990-000",
        "addr:street": "Estrada da Alamoa",
        "name": "Teju-Açu Ecopousada",
        "phone": "+55 81 3619 1277",
        "tourism": "hotel",
        "website": "https://www.pousadateju.com.br/",
        "id": "way/367812353"
      },
      "geometry": {
        "type": "Polygon",
        "coordinates": [
          [
            [
              -32.4214792,
              -3.8494029
            ],
            [
              -32.421337,
              -3.8492182
            ],
            [
              -32.4215972,
              -3.8488463
            ],
            [
              -32.4218138,
              -3.8487442
            ],
            [
              -32.4218655,
              -3.8489326
            ],
            [
              -32.4218659,
              -3.8490957
            ],
            [
              -32.4218481,
              -3.8491783
            ],
            [
              -32.4214792,
              -3.8494029
            ]
          ]
        ]
      }
    },
    {
      "type": "Feature",
      "id": "way/368042838",
      "properties": {
        "timestamp": "2023-11-18T04:35:23Z",
        "version": 3,
        "changeset": 144161756,
        "addr:city": "Fernando de Noronha",
        "addr:country": "BR",
        "addr:postcode": "53990-000",
        "addr:street": "Rua Nice Cordeiro",
        "addr:suburb": "Vila Floresta Velha",
        "building": "yes",
        "email": "reservas@pousadabelavista.com.br",
        "name": "Pousada Bela Vista",
        "phone": "+55 81 3619 1109",
        "tourism": "hotel",
        "website": "https://pousadabelavista.com.br/",
        "id": "way/368042838"
      },
      "geometry": {
        "type": "Polygon",
        "coordinates": [
          [
            [
              -32.4132882,
              -3.8463996
            ],
            [
              -32.4132073,
              -3.846547
            ],
            [
              -32.4130828,
              -3.8464789
            ],
            [
              -32.4131638,
              -3.8463315
            ],
            [
              -32.4132882,
              -3.8463996
            ]
          ]
        ]
      }
    },
    {
      "type": "Feature",
      "id": "way/368042840",
      "properties": {
        "timestamp": "2015-10-05T16:40:14Z",
        "version": 2,
        "changeset": 34451660,
        "addr:city": "Fernando de Noronha",
        "addr:country": "BR",
        "addr:postcode": "53990-000",
        "addr:street": "Rua Nice Cordeiro",
        "addr:suburb": "Vila Floresta Velha",
        "building": "yes",
        "name": "Pousada da Rita",
        "phone": "+55 81 3619 1324",
        "tourism": "hotel",
        "id": "way/368042840"
      },
      "geometry": {
        "type": "Polygon",
        "coordinates": [
          [
            [
              -32.4127874,
              -3.8462875
            ],
            [
              -32.4128501,
              -3.8461754
            ],
            [
              -32.4128602,
              -3.846181
            ],
            [
              -32.4129135,
              -3.8462106
            ],
            [
              -32.4129665,
              -3.8462401
            ],
            [
              -32.4129419,
              -3.8462841
            ],
            [
              -32.4129029,
              -3.8462623
            ],
            [
              -32.4128648,
              -3.8463306
            ],
            [
              -32.4127874,
              -3.8462875
            ]
          ]
        ]
      }
    },
    {
      "type": "Feature",
      "id": "way/368042841",
      "properties": {
        "timestamp": "2015-08-28T19:59:25Z",
        "version": 1,
        "changeset": 33651841,
        "addr:city": "Fernando de Noronha",
        "addr:country": "BR",
        "addr:housenumber": "8",
        "addr:postcode": "53990-000",
        "addr:street": "Rua Nice Cordeiro",
        "addr:suburb": "Vila Floresta Velha",
        "building": "yes",
        "email": "reservas@pousadatiazete.com.br",
        "name": "Pousada Tia Zete",
        "phone": "+55 81 3619 1242",
        "tourism": "hotel",
        "website": "http://www.pousadatiazete.com.br/",
        "id": "way/368042841"
      },
      "geometry": {
        "type": "Polygon",
        "coordinates": [
          [
            [
              -32.4130575,
              -3.8464688
            ],
            [
              -32.4129473,
              -3.8464093
            ],
            [
              -32.4130372,
              -3.8462434
            ],
            [
              -32.4131029,
              -3.8462789
            ],
            [
              -32.4131474,
              -3.8463029
            ],
            [
              -32.4130575,
              -3.8464688
            ]
          ]
        ]
      }
    },
    {
      "type": "Feature",
      "id": "way/368303684",
      "properties": {
        "timestamp": "2023-11-18T04:35:16Z",
        "version": 4,
        "changeset": 144161756,
        "addr:city": "Fernando de Noronha",
        "addr:country": "BR",
        "addr:housenumber": "105",
        "addr:postcode": "53990-000",
        "addr:street": "Rua Major Costa",
        "addr:suburb": "Vila do Trinta",
        "building": "yes",
        "email": "reservas@pnascerdosol.com.br",
        "name": "Pousada Nascer do Sol",
        "phone": "+55 81 3619 1226",
        "tourism": "hotel",
        "website": "https://pnascerdosol.com.br/",
        "id": "way/368303684"
      },
      "geometry": {
        "type": "Polygon",
        "coordinates": [
          [
            [
              -32.4064998,
              -3.8439784
            ],
            [
              -32.4064713,
              -3.8440661
            ],
            [
              -32.4063576,
              -3.84403
            ],
            [
              -32.4063787,
              -3.8439566
            ],
            [
              -32.406385,
              -3.8439413
            ],
            [
              -32.4064998,
              -3.8439784
            ]
          ]
        ]
      }
    },
    {
      "type": "Feature",
      "id": "way/368303685",
      "properties": {
        "timestamp": "2015-09-26T17:12:14Z",
        "version": 4,
        "changeset": 34268328,
        "addr:city": "Fernando de Noronha",
        "addr:country": "BR",
        "addr:housenumber": "117",
        "addr:postcode": "53990-000",
        "addr:street": "Rua Major Costa",
        "addr:suburb": "Vila do Trinta",
        "building": "yes",
        "email": "reservas@pousadasecocharme.com.br",
        "name": "EcoCharme Pousada Paraíso do Atlantico",
        "phone": "+55 81 3619 1538",
        "tourism": "hotel",
        "website": "http://www.pousadasecocharme.com.br/",
        "id": "way/368303685"
      },
      "geometry": {
        "type": "Polygon",
        "coordinates": [
          [
            [
              -32.4063314,
              -3.8444819
            ],
            [
              -32.4063112,
              -3.8445466
            ],
            [
              -32.4061927,
              -3.8445097
            ],
            [
              -32.4062057,
              -3.844468
            ],
            [
              -32.4062098,
              -3.8444549
            ],
            [
              -32.4062129,
              -3.844445
            ],
            [
              -32.4063314,
              -3.8444819
            ]
          ]
        ]
      }
    },
    {
      "type": "Feature",
      "id": "way/368304897",
      "properties": {
        "timestamp": "2015-09-30T14:56:43Z",
        "version": 3,
        "changeset": 34349029,
        "addr:city": "Fernando de Noronha",
        "addr:country": "BR",
        "addr:housenumber": "124",
        "addr:postcode": "53990-000",
        "addr:street": "Rua Major Costa",
        "addr:suburb": "Vila do Trinta",
        "building": "yes",
        "name": "Pousada Mabuya",
        "phone": "+55 81 3619 1205",
        "tourism": "hotel",
        "website": "http://www.pousadamabuya.com.br",
        "id": "way/368304897"
      },
      "geometry": {
        "type": "Polygon",
        "coordinates": [
          [
            [
              -32.4067586,
              -3.8449198
            ],
            [
              -32.4066923,
              -3.8450624
            ],
            [
              -32.4064079,
              -3.8449309
            ],
            [
              -32.4064576,
              -3.8448238
            ],
            [
              -32.4065118,
              -3.8448489
            ],
            [
              -32.4064959,
              -3.8448831
            ],
            [
              -32.4065745,
              -3.8449194
            ],
            [
              -32.4065904,
              -3.8448853
            ],
            [
              -32.4066823,
              -3.8449278
            ],
            [
              -32.4066989,
              -3.8448921
            ],
            [
              -32.4067586,
              -3.8449198
            ]
          ]
        ]
      }
    },
    {
      "type": "Feature",
      "id": "way/368304899",
      "properties": {
        "timestamp": "2023-12-29T16:37:43Z",
        "version": 6,
        "changeset": 145669275,
        "addr:city": "Fernando de Noronha",
        "addr:country": "BR",
        "addr:housenumber": "6",
        "addr:postcode": "53990-000",
        "addr:street": "Rua Pinto Branco",
        "addr:suburb": "Vila do Trinta",
        "brand": "Pousada Ares de Noronha",
        "building": "house",
        "building:levels": "1",
        "internet_access": "yes",
        "internet_access:fee": "no",
        "name": "Pousada Ares de Noronha",
        "phone": "+55 81 986060433",
        "roof:levels": "0",
        "tourism": "hotel",
        "website": "https://ares-de-noronha.negocio.site/",
        "id": "way/368304899"
      },
      "geometry": {
        "type": "Polygon",
        "coordinates": [
          [
            [
              -32.4062898,
              -3.8454608
            ],
            [
              -32.4063309,
              -3.8455369
            ],
            [
              -32.4062146,
              -3.8455994
            ],
            [
              -32.4061735,
              -3.8455233
            ],
            [
              -32.4062898,
              -3.8454608
            ]
          ]
        ]
      }
    },
    {
      "type": "Feature",
      "id": "way/368304901",
      "properties": {
        "timestamp": "2020-04-29T11:35:27Z",
        "version": 3,
        "changeset": 84335250,
        "addr:city": "Fernando de Noronha",
        "addr:country": "BR",
        "addr:housenumber": "246",
        "addr:postcode": "53990-000",
        "addr:street": "Rua Pinto Branco",
        "addr:suburb": "Vila do Trinta",
        "building": "yes",
        "name": "Pousada do Jo",
        "phone": "+55 81 3619 1337",
        "tourism": "hotel",
        "website": "https://www.pousadadajo.com.br/",
        "id": "way/368304901"
      },
      "geometry": {
        "type": "Polygon",
        "coordinates": [
          [
            [
              -32.4074004,
              -3.8466651
            ],
            [
              -32.4074641,
              -3.8467457
            ],
            [
              -32.4072225,
              -3.8469357
            ],
            [
              -32.4071588,
              -3.8468551
            ],
            [
              -32.4074004,
              -3.8466651
            ]
          ]
        ]
      }
    },
    {
      "type": "Feature",
      "id": "way/368304904",
      "properties": {
        "timestamp": "2015-09-27T20:28:37Z",
        "version": 2,
        "changeset": 34291917,
        "addr:city": "Fernando de Noronha",
        "addr:country": "BR",
        "addr:housenumber": "206",
        "addr:postcode": "53990-000",
        "addr:street": "Rua Pinto Branco",
        "addr:suburb": "Vila do Trinta",
        "building": "yes",
        "name": "Pousada Da Vila",
        "phone": "+55 81 3224 4476",
        "tourism": "hotel",
        "website": "http://www.davillanoronha.com.br",
        "id": "way/368304904"
      },
      "geometry": {
        "type": "Polygon",
        "coordinates": [
          [
            [
              -32.4063619,
              -3.8455542
            ],
            [
              -32.4064167,
              -3.8456302
            ],
            [
              -32.4062932,
              -3.8457188
            ],
            [
              -32.4062384,
              -3.8456428
            ],
            [
              -32.4063619,
              -3.8455542
            ]
          ]
        ]
      }
    },
    {
      "type": "Feature",
      "id": "way/368304911",
      "properties": {
        "timestamp": "2015-09-20T20:21:52Z",
        "version": 2,
        "changeset": 34148952,
        "addr:city": "Fernando de Noronha",
        "addr:country": "BR",
        "addr:postcode": "53990-000",
        "addr:street": "Rua Pinto Branco",
        "addr:suburb": "Vila do Trinta",
        "building": "yes",
        "name": "Pousada Solar do Trinta",
        "phone": "+55 81 3619 1429",
        "tourism": "hotel",
        "id": "way/368304911"
      },
      "geometry": {
        "type": "Polygon",
        "coordinates": [
          [
            [
              -32.407201,
              -3.8466509
            ],
            [
              -32.4072576,
              -3.8467342
            ],
            [
              -32.4071326,
              -3.8468188
            ],
            [
              -32.407076,
              -3.8467355
            ],
            [
              -32.407201,
              -3.8466509
            ]
          ]
        ]
      }
    },
    {
      "type": "Feature",
      "id": "way/368304914",
      "properties": {
        "timestamp": "2015-09-20T20:21:52Z",
        "version": 2,
        "changeset": 34148952,
        "addr:city": "Fernando de Noronha",
        "addr:country": "BR",
        "addr:postcode": "53990-000",
        "addr:street": "Rua Pinto Branco",
        "addr:suburb": "Vila do Trinta",
        "building": "yes",
        "name": "Pousada Da Mana",
        "phone": "+55 81 3619 1240",
        "tourism": "hotel",
        "id": "way/368304914"
      },
      "geometry": {
        "type": "Polygon",
        "coordinates": [
          [
            [
              -32.4065275,
              -3.8457777
            ],
            [
              -32.4065818,
              -3.8458503
            ],
            [
              -32.4064813,
              -3.8459251
            ],
            [
              -32.406427,
              -3.8458525
            ],
            [
              -32.4065275,
              -3.8457777
            ]
          ]
        ]
      }
    },
    {
      "type": "Feature",
      "id": "way/368304916",
      "properties": {
        "timestamp": "2015-09-28T22:47:06Z",
        "version": 3,
        "changeset": 34314873,
        "addr:city": "Fernando de Noronha",
        "addr:country": "BR",
        "addr:housenumber": "132",
        "addr:postcode": "53990-000",
        "addr:street": "Rua Major Costa",
        "addr:suburb": "Vila do Trinta",
        "building": "yes",
        "email": "contato@pousadaoceanatlantic.com.br",
        "name": "Pousada Ocean Atlantic",
        "phone": "+55 81 3619 1151",
        "phone_alt": "+55 84 3217 0022",
        "tourism": "hotel",
        "website": "http://www.pousadaoceanatlantic.com.br/",
        "id": "way/368304916"
      },
      "geometry": {
        "type": "Polygon",
        "coordinates": [
          [
            [
              -32.4064858,
              -3.8451263
            ],
            [
              -32.4064365,
              -3.845233
            ],
            [
              -32.4062612,
              -3.8451522
            ],
            [
              -32.4063105,
              -3.8450455
            ],
            [
              -32.4064858,
              -3.8451263
            ]
          ]
        ]
      }
    },
    {
      "type": "Feature",
      "id": "way/368304919",
      "properties": {
        "timestamp": "2015-09-27T20:28:38Z",
        "version": 3,
        "changeset": 34291917,
        "addr:city": "Fernando de Noronha",
        "addr:country": "BR",
        "addr:postcode": "53990-000",
        "addr:street": "Rua Dom Juquinha I",
        "addr:suburb": "Vila do Trinta",
        "building": "yes",
        "name": "Pousada das Flores",
        "phone": "+55 81 3619 1224",
        "tourism": "hotel",
        "id": "way/368304919"
      },
      "geometry": {
        "type": "Polygon",
        "coordinates": [
          [
            [
              -32.4077203,
              -3.8468029
            ],
            [
              -32.4078982,
              -3.8470672
            ],
            [
              -32.4078139,
              -3.8471237
            ],
            [
              -32.4076941,
              -3.8469457
            ],
            [
              -32.4076359,
              -3.8468593
            ],
            [
              -32.4077203,
              -3.8468029
            ]
          ]
        ]
      }
    },
    {
      "type": "Feature",
      "id": "way/368304920",
      "properties": {
        "timestamp": "2015-09-28T14:37:42Z",
        "version": 2,
        "changeset": 34305582,
        "addr:city": "Fernando de Noronha",
        "addr:country": "BR",
        "addr:postcode": "53990-000",
        "addr:street": "Rua Pinto Branco",
        "addr:suburb": "Vila do Trinta",
        "building": "yes",
        "name": "Pousada Lun Mar",
        "phone": "+55 81 3224 1121",
        "tourism": "hotel",
        "id": "way/368304920"
      },
      "geometry": {
        "type": "Polygon",
        "coordinates": [
          [
            [
              -32.40645,
              -3.8456642
            ],
            [
              -32.4064923,
              -3.8457281
            ],
            [
              -32.4063631,
              -3.8458132
            ],
            [
              -32.4063369,
              -3.8457736
            ],
            [
              -32.4063565,
              -3.8457607
            ],
            [
              -32.4063404,
              -3.8457364
            ],
            [
              -32.40645,
              -3.8456642
            ]
          ]
        ]
      }
    },
    {
      "type": "Feature",
      "id": "way/368304921",
      "properties": {
        "timestamp": "2015-09-20T19:10:27Z",
        "version": 3,
        "changeset": 34147375,
        "addr:city": "Fernando de Noronha",
        "addr:country": "BR",
        "addr:housenumber": "6",
        "addr:postcode": "53990-000",
        "addr:street": "Rua Pinto Branco",
        "addr:suburb": "Vila do Trinta",
        "building": "yes",
        "email": "pousadagauchafn@hotmail.com",
        "name": "Pousada Gaucha",
        "phone": "+55 81 3619 1330",
        "tourism": "hotel",
        "website": "https://pousadagaucha.wordpress.com/",
        "id": "way/368304921"
      },
      "geometry": {
        "type": "Polygon",
        "coordinates": [
          [
            [
              -32.4067403,
              -3.8463106
            ],
            [
              -32.4067978,
              -3.8462667
            ],
            [
              -32.4068132,
              -3.8462866
            ],
            [
              -32.4068752,
              -3.8462392
            ],
            [
              -32.4069159,
              -3.8462922
            ],
            [
              -32.4067964,
              -3.8463836
            ],
            [
              -32.4067403,
              -3.8463106
            ]
          ]
        ]
      }
    },
    {
      "type": "Feature",
      "id": "way/368304922",
      "properties": {
        "timestamp": "2015-09-20T19:56:49Z",
        "version": 2,
        "changeset": 34148477,
        "addr:city": "Fernando de Noronha",
        "addr:country": "BR",
        "addr:postcode": "53990-000",
        "addr:street": "Rua Pinto Branco",
        "addr:suburb": "Vila do Trinta",
        "building": "yes",
        "name": "Pousada do Martins",
        "phone": "+55 81 3619 1329",
        "tourism": "hotel",
        "id": "way/368304922"
      },
      "geometry": {
        "type": "Polygon",
        "coordinates": [
          [
            [
              -32.4069319,
              -3.8464329
            ],
            [
              -32.4069025,
              -3.8463933
            ],
            [
              -32.4069675,
              -3.8463451
            ],
            [
              -32.407033,
              -3.8464332
            ],
            [
              -32.4069194,
              -3.8465173
            ],
            [
              -32.4068834,
              -3.8464689
            ],
            [
              -32.4069319,
              -3.8464329
            ]
          ]
        ]
      }
    },
    {
      "type": "Feature",
      "id": "way/368304924",
      "properties": {
        "timestamp": "2015-09-26T17:12:15Z",
        "version": 2,
        "changeset": 34268328,
        "addr:city": "Fernando de Noronha",
        "addr:country": "BR",
        "addr:housenumber": "128",
        "addr:postcode": "53990-000",
        "addr:street": "Rua Major Costa",
        "addr:suburb": "Vila do Trinta",
        "building": "yes",
        "email": "contato@pousadabarcelar.com.br",
        "name": "Pousada Barcelar",
        "phone": "+55 81 3619 1249",
        "tourism": "hotel",
        "website": "http://www.pousadabarcelar.com.br",
        "id": "way/368304924"
      },
      "geometry": {
        "type": "Polygon",
        "coordinates": [
          [
            [
              -32.4063906,
              -3.8449526
            ],
            [
              -32.4064411,
              -3.8449769
            ],
            [
              -32.4064326,
              -3.8449946
            ],
            [
              -32.4065156,
              -3.8450346
            ],
            [
              -32.4064778,
              -3.8451127
            ],
            [
              -32.4063443,
              -3.8450484
            ],
            [
              -32.4063906,
              -3.8449526
            ]
          ]
        ]
      }
    },
    {
      "type": "Feature",
      "id": "way/368331520",
      "properties": {
        "timestamp": "2023-11-18T04:35:20Z",
        "version": 3,
        "changeset": 144161756,
        "addr:city": "Fernando de Noronha",
        "addr:country": "BR",
        "addr:housenumber": "145",
        "addr:postcode": "53990-000",
        "addr:street": "Rua do Sol",
        "addr:suburb": "Vila Dos Remédios",
        "building": "yes",
        "internet_access": "wlan",
        "name": "Pousada Simpatia Da Ilha",
        "phone": "+55 81 3426 8398",
        "tourism": "hotel",
        "website": "https://pousadadelmares.com.br/",
        "id": "way/368331520"
      },
      "geometry": {
        "type": "Polygon",
        "coordinates": [
          [
            [
              -32.4099184,
              -3.8428523
            ],
            [
              -32.4099178,
              -3.8429665
            ],
            [
              -32.4097467,
              -3.8429655
            ],
            [
              -32.4097474,
              -3.8428514
            ],
            [
              -32.4099184,
              -3.8428523
            ]
          ]
        ]
      }
    },
    {
      "type": "Feature",
      "id": "way/368331528",
      "properties": {
        "timestamp": "2023-11-18T04:35:14Z",
        "version": 3,
        "changeset": 144161756,
        "addr:city": "Fernando de Noronha",
        "addr:country": "BR",
        "addr:housenumber": "141",
        "addr:postcode": "53990-000",
        "addr:street": "Rua do Sol",
        "addr:suburb": "Vila Dos Remédios",
        "building": "yes",
        "internet_access": "wlan",
        "name": "Pousada del Mares",
        "phone": "+55 81 3619 1243",
        "tourism": "hotel",
        "website": "https://pousadadelmares.com.br/",
        "id": "way/368331528"
      },
      "geometry": {
        "type": "Polygon",
        "coordinates": [
          [
            [
              -32.4101638,
              -3.8427787
            ],
            [
              -32.4101591,
              -3.8428462
            ],
            [
              -32.4100462,
              -3.8428384
            ],
            [
              -32.4100509,
              -3.8427709
            ],
            [
              -32.4101638,
              -3.8427787
            ]
          ]
        ]
      }
    },
    {
      "type": "Feature",
      "id": "way/368355985",
      "properties": {
        "timestamp": "2015-09-04T21:07:56Z",
        "version": 3,
        "changeset": 33804444,
        "addr:city": "Fernando de Noronha",
        "addr:country": "BR",
        "addr:postcode": "53990-000",
        "addr:street": "Rua São Miguel",
        "addr:suburb": "Vila Dos Remédios",
        "building": "yes",
        "email": "pousadadoguilherme@gmail.com",
        "email2": "pousadadoguilherme@hotmail.com",
        "name": "Pousada do Guelherme",
        "phone": "+55 81 8839 7039",
        "tourism": "hotel",
        "website": "http://www.pousadadoguilherme.com",
        "id": "way/368355985"
      },
      "geometry": {
        "type": "Polygon",
        "coordinates": [
          [
            [
              -32.4108245,
              -3.8434789
            ],
            [
              -32.4108299,
              -3.843573
            ],
            [
              -32.4107223,
              -3.843579
            ],
            [
              -32.4107169,
              -3.8434849
            ],
            [
              -32.4108245,
              -3.8434789
            ]
          ]
        ]
      }
    },
    {
      "type": "Feature",
      "id": "way/368667929",
      "properties": {
        "timestamp": "2015-09-30T15:42:05Z",
        "version": 2,
        "changeset": 34349918,
        "addr:city": "Fernando de Noronha",
        "addr:country": "BR",
        "addr:postcode": "53990-000",
        "addr:street": "Rua João Soares",
        "addr:suburb": "Vila do Trinta",
        "building": "yes",
        "email": "reservas@pousadanetuno.com.br",
        "name": "Pousada Netuno",
        "phone": "+55 81 3619 1131",
        "tourism": "hotel",
        "website": "http://www.pousadanetuno.com.br/",
        "id": "way/368667929"
      },
      "geometry": {
        "type": "Polygon",
        "coordinates": [
          [
            [
              -32.4051208,
              -3.8472496
            ],
            [
              -32.4049508,
              -3.847367
            ],
            [
              -32.4048984,
              -3.8472915
            ],
            [
              -32.4050684,
              -3.8471741
            ],
            [
              -32.4051208,
              -3.8472496
            ]
          ]
        ]
      }
    },
    {
      "type": "Feature",
      "id": "way/368667932",
      "properties": {
        "timestamp": "2015-09-28T22:36:39Z",
        "version": 2,
        "changeset": 34314793,
        "addr:city": "Fernando de Noronha",
        "addr:country": "BR",
        "addr:housenumber": "249",
        "addr:postcode": "53990-000",
        "addr:street": "Rua Major Costa",
        "addr:suburb": "Vila do Trinta",
        "building": "yes",
        "name": "Pousada da Adriana",
        "phone": "+55 81 3619 1284",
        "tourism": "hotel",
        "id": "way/368667932"
      },
      "geometry": {
        "type": "Polygon",
        "coordinates": [
          [
            [
              -32.4054523,
              -3.8463027
            ],
            [
              -32.4053501,
              -3.8463942
            ],
            [
              -32.4052565,
              -3.8462826
            ],
            [
              -32.405319,
              -3.8462095
            ],
            [
              -32.4054523,
              -3.8463027
            ]
          ]
        ]
      }
    },
    {
      "type": "Feature",
      "id": "way/368667935",
      "properties": {
        "timestamp": "2020-04-29T11:35:27Z",
        "version": 3,
        "changeset": 84335250,
        "addr:city": "Fernando de Noronha",
        "addr:country": "BR",
        "addr:housenumber": "131",
        "addr:postcode": "53990-000",
        "addr:street": "Rua Dom Juquinha I",
        "addr:suburb": "Vila do Trinta",
        "building": "yes",
        "name": "Pousada Dois Irmãos",
        "phone": "+55 81 3619 1147",
        "tourism": "hotel",
        "website": "https://www.pousadadoisirmaosnoronha.com.br",
        "id": "way/368667935"
      },
      "geometry": {
        "type": "Polygon",
        "coordinates": [
          [
            [
              -32.4083316,
              -3.8463213
            ],
            [
              -32.4084681,
              -3.8464644
            ],
            [
              -32.4083791,
              -3.8465489
            ],
            [
              -32.4082426,
              -3.8464058
            ],
            [
              -32.4083316,
              -3.8463213
            ]
          ]
        ]
      }
    },
    {
      "type": "Feature",
      "id": "way/368667947",
      "properties": {
        "timestamp": "2015-09-28T22:31:16Z",
        "version": 2,
        "changeset": 34314749,
        "addr:city": "Fernando de Noronha",
        "addr:country": "BR",
        "addr:postcode": "53990-000",
        "addr:street": "Rua Major Costa",
        "addr:suburb": "Vila do Trinta",
        "building": "yes",
        "email": "contato@noronhabrasil.com.br",
        "name": "Pousada do Dandão",
        "phone": "+55 81 3619 1154",
        "phone_alt": "+55 84 3217 0022",
        "tourism": "hotel",
        "website": "http://pousadadandao.com.br/",
        "id": "way/368667947"
      },
      "geometry": {
        "type": "Polygon",
        "coordinates": [
          [
            [
              -32.4055264,
              -3.8462235
            ],
            [
              -32.4054647,
              -3.8463114
            ],
            [
              -32.4054523,
              -3.8463027
            ],
            [
              -32.405319,
              -3.8462095
            ],
            [
              -32.4053808,
              -3.8461217
            ],
            [
              -32.4055264,
              -3.8462235
            ]
          ]
        ]
      }
    },
    {
      "type": "Feature",
      "id": "way/368680063",
      "properties": {
        "timestamp": "2015-09-20T19:05:30Z",
        "version": 6,
        "changeset": 34147255,
        "addr:city": "Fernando de Noronha",
        "addr:country": "BR",
        "addr:postcode": "53990-000",
        "addr:street": "Rua Mestre Gouvela",
        "addr:suburb": "Vila dos Remédios",
        "building": "yes",
        "email": "reservas@pousadadagermana.com",
        "name": "Pousada da Germana",
        "phone": "+55 81 3619 0197",
        "tourism": "hotel",
        "website": "http://www.pousadadagermana.com/",
        "id": "way/368680063"
      },
      "geometry": {
        "type": "Polygon",
        "coordinates": [
          [
            [
              -32.4109823,
              -3.8428271
            ],
            [
              -32.4109049,
              -3.8428741
            ],
            [
              -32.4108384,
              -3.8427652
            ],
            [
              -32.4109159,
              -3.8427182
            ],
            [
              -32.4109823,
              -3.8428271
            ]
          ]
        ]
      }
    },
    {
      "type": "Feature",
      "id": "way/369171888",
      "properties": {
        "timestamp": "2015-10-02T18:31:29Z",
        "version": 3,
        "changeset": 34395167,
        "addr:city": "Fernando de Noronha",
        "addr:country": "BR",
        "addr:housenumber": "144",
        "addr:postcode": "53990-000",
        "addr:street": "Rua São Miguel",
        "addr:suburb": "Vila Dos Remédios",
        "building": "yes",
        "name": "Pousada do Golfinho",
        "phone": "+55 81 3619 1837",
        "tourism": "hotel",
        "id": "way/369171888"
      },
      "geometry": {
        "type": "Polygon",
        "coordinates": [
          [
            [
              -32.4108256,
              -3.8431696
            ],
            [
              -32.4108317,
              -3.8432527
            ],
            [
              -32.4106931,
              -3.8432628
            ],
            [
              -32.4106871,
              -3.8431797
            ],
            [
              -32.4108256,
              -3.8431696
            ]
          ]
        ]
      }
    },
    {
      "type": "Feature",
      "id": "way/369251337",
      "properties": {
        "timestamp": "2023-04-18T21:41:38Z",
        "version": 5,
        "changeset": 135078206,
        "addr:city": "Fernando de Noronha",
        "addr:country": "BR",
        "addr:housenumber": "38a",
        "addr:postcode": "53990-000",
        "addr:street": "Rua Nice Cordeiro",
        "addr:suburb": "Vila Floresta Velha",
        "building": "house",
        "building:levels": "1",
        "name": "Pousada Nativa",
        "phone": "+55 81 3031 1250",
        "roof:levels": "0",
        "roof:shape": "gabled",
        "tourism": "hotel",
        "id": "way/369251337"
      },
      "geometry": {
        "type": "Polygon",
        "coordinates": [
          [
            [
              -32.4135373,
              -3.8452221
            ],
            [
              -32.4135587,
              -3.8452906
            ],
            [
              -32.4134369,
              -3.8453286
            ],
            [
              -32.4134155,
              -3.8452601
            ],
            [
              -32.4135373,
              -3.8452221
            ]
          ]
        ]
      }
    },
    {
      "type": "Feature",
      "id": "way/369270649",
      "properties": {
        "timestamp": "2017-03-10T22:09:43Z",
        "version": 2,
        "changeset": 46751065,
        "addr:city": "Fernando de Noronha",
        "addr:country": "BR",
        "addr:housenumber": "190",
        "addr:postcode": "53990-000",
        "addr:street": "Rua Alameda Boloro",
        "addr:suburb": "Vila do Boldró",
        "building": "yes",
        "name": "Pousada Canto do Boldró",
        "tourism": "hotel",
        "id": "way/369270649"
      },
      "geometry": {
        "type": "Polygon",
        "coordinates": [
          [
            [
              -32.4281042,
              -3.8464873
            ],
            [
              -32.428059,
              -3.8465732
            ],
            [
              -32.4280048,
              -3.8465447
            ],
            [
              -32.4279907,
              -3.8465716
            ],
            [
              -32.4279015,
              -3.8465249
            ],
            [
              -32.4279608,
              -3.8464122
            ],
            [
              -32.4281042,
              -3.8464873
            ]
          ]
        ]
      }
    },
    {
      "type": "Feature",
      "id": "way/370952497",
      "properties": {
        "timestamp": "2023-11-18T04:35:18Z",
        "version": 3,
        "changeset": 144161756,
        "addr:city": "Fernando de Noronha",
        "addr:country": "BR",
        "addr:housenumber": "575",
        "addr:postcode": "53990-000",
        "addr:street": "Alameda da Bela Vista",
        "addr:suburb": "Floresta Nova",
        "building": "yes",
        "email": "pousada@becodenoronha.com.br",
        "name": "Pousada Pedras Secas",
        "phone": "+55 81 3619 1662",
        "tourism": "hotel",
        "website": "https://www.pousadapedrassecas.com.br/",
        "id": "way/370952497"
      },
      "geometry": {
        "type": "Polygon",
        "coordinates": [
          [
            [
              -32.4114454,
              -3.8478783
            ],
            [
              -32.4115045,
              -3.8479406
            ],
            [
              -32.4114568,
              -3.8479857
            ],
            [
              -32.4113977,
              -3.8479234
            ],
            [
              -32.4114454,
              -3.8478783
            ]
          ]
        ]
      }
    },
    {
      "type": "Feature",
      "id": "way/370952516",
      "properties": {
        "timestamp": "2023-11-18T04:35:30Z",
        "version": 6,
        "changeset": 144161756,
        "addr:city": "Fernando de Noronha",
        "addr:country": "BR",
        "addr:housenumber": "3",
        "addr:postcode": "53990-000",
        "addr:street": "Alameda das Acácias",
        "addr:suburb": "Floresta Nova",
        "building": "yes",
        "email": "pousada@becodenoronha.com.br",
        "name": "Pousada Beco de Noronha",
        "phone": "+55 81 4042.0214",
        "tourism": "hotel",
        "website": "https://becodenoronha.com.br/",
        "id": "way/370952516"
      },
      "geometry": {
        "type": "Polygon",
        "coordinates": [
          [
            [
              -32.4123805,
              -3.8485322
            ],
            [
              -32.4124172,
              -3.8486112
            ],
            [
              -32.4122936,
              -3.8487114
            ],
            [
              -32.4122492,
              -3.8486382
            ],
            [
              -32.4122743,
              -3.8486093
            ],
            [
              -32.4121951,
              -3.8486131
            ],
            [
              -32.4121854,
              -3.848538
            ],
            [
              -32.4123805,
              -3.8485322
            ]
          ]
        ]
      }
    },
    {
      "type": "Feature",
      "id": "way/370952520",
      "properties": {
        "timestamp": "2016-07-04T21:54:58Z",
        "version": 3,
        "changeset": 40488125,
        "addr:city": "Fernando de Noronha",
        "addr:country": "BR",
        "addr:postcode": "53990-000",
        "addr:street": "Alameda da Harmonia",
        "addr:suburb": "Floresta Nova",
        "building": "yes",
        "name": "Pousada",
        "tourism": "hotel",
        "id": "way/370952520"
      },
      "geometry": {
        "type": "Polygon",
        "coordinates": [
          [
            [
              -32.4118281,
              -3.8476494
            ],
            [
              -32.4118333,
              -3.8477525
            ],
            [
              -32.4117598,
              -3.8477562
            ],
            [
              -32.4117587,
              -3.8477348
            ],
            [
              -32.41171,
              -3.8477373
            ],
            [
              -32.4117121,
              -3.8477784
            ],
            [
              -32.4116695,
              -3.8477805
            ],
            [
              -32.4116633,
              -3.8476577
            ],
            [
              -32.4118281,
              -3.8476494
            ]
          ]
        ]
      }
    },
    {
      "type": "Feature",
      "id": "way/371579736",
      "properties": {
        "timestamp": "2017-03-10T22:09:43Z",
        "version": 2,
        "changeset": 46751065,
        "addr:city": "Fernando de Noronha",
        "addr:country": "BR",
        "addr:postcode": "53990-000",
        "addr:street": "Alameda do Pau D'Arco",
        "addr:suburb": "Floresta Nova",
        "building": "yes",
        "name": "Pousada Estrela Lunar",
        "phone": "+55 81 3619 1323",
        "tourism": "hotel",
        "id": "way/371579736"
      },
      "geometry": {
        "type": "Polygon",
        "coordinates": [
          [
            [
              -32.4109149,
              -3.8477747
            ],
            [
              -32.4109146,
              -3.8478822
            ],
            [
              -32.4107693,
              -3.8478818
            ],
            [
              -32.4107696,
              -3.8477743
            ],
            [
              -32.4109149,
              -3.8477747
            ]
          ]
        ]
      }
    },
    {
      "type": "Feature",
      "id": "way/371580780",
      "properties": {
        "timestamp": "2017-12-10T22:07:29Z",
        "version": 3,
        "changeset": 54523860,
        "addr:city": "Fernando de Noronha",
        "addr:country": "BR",
        "addr:postcode": "53990-000",
        "addr:street": "Alameda da Bela Vista",
        "addr:suburb": "Floresta Nova",
        "email": "pousadaestreladomarfn@gmail.com",
        "name": "Pousada Estrela do Mar",
        "phone": "+55 81 3619 1366",
        "tourism": "hotel",
        "website": "http://www.pousadaestreladomarfn.com.br/",
        "id": "way/371580780"
      },
      "geometry": {
        "type": "Polygon",
        "coordinates": [
          [
            [
              -32.4115414,
              -3.8487929
            ],
            [
              -32.4118047,
              -3.8491219
            ],
            [
              -32.4115389,
              -3.8493357
            ],
            [
              -32.4112716,
              -3.8490066
            ],
            [
              -32.4115414,
              -3.8487929
            ]
          ]
        ]
      }
    },
    {
      "type": "Feature",
      "id": "way/372466556",
      "properties": {
        "timestamp": "2015-09-26T17:12:13Z",
        "version": 2,
        "changeset": 34268328,
        "addr:city": "Fernando de Noronha",
        "addr:country": "BR",
        "addr:housenumber": "2",
        "addr:postcode": "53990-000",
        "addr:street": "Rua Major Costa",
        "addr:suburb": "Vila do Trinta",
        "building": "yes",
        "email": "reservas@pousadasecocharme.com.br",
        "name": "EcoCharme Pousada Miragem",
        "phone": "+55 81 3619 1433",
        "tourism": "hotel",
        "website": "http://www.pousadasecocharme.com.br/",
        "id": "way/372466556"
      },
      "geometry": {
        "type": "Polygon",
        "coordinates": [
          [
            [
              -32.4072482,
              -3.8434514
            ],
            [
              -32.4072188,
              -3.8435779
            ],
            [
              -32.4071707,
              -3.8435668
            ],
            [
              -32.4071746,
              -3.8435501
            ],
            [
              -32.4070767,
              -3.8435275
            ],
            [
              -32.4071022,
              -3.8434176
            ],
            [
              -32.4072482,
              -3.8434514
            ]
          ]
        ]
      }
    },
    {
      "type": "Feature",
      "id": "way/373474672",
      "properties": {
        "timestamp": "2020-04-29T11:35:27Z",
        "version": 2,
        "changeset": 84335250,
        "addr:city": "Fernando de Noronha",
        "addr:country": "BR",
        "addr:postcode": "53990-000",
        "addr:street": "Estrada da Colina",
        "addr:suburb": "Vila do Trinta",
        "building": "yes",
        "email": "colina@noronha.com.br",
        "name": "Pousada Alto Mar",
        "phone": "+55 81 3619 1464",
        "tourism": "hotel",
        "website": "https://www.pousadaaltomar.com/",
        "id": "way/373474672"
      },
      "geometry": {
        "type": "Polygon",
        "coordinates": [
          [
            [
              -32.4075648,
              -3.8439621
            ],
            [
              -32.4075373,
              -3.8440676
            ],
            [
              -32.4074467,
              -3.8440441
            ],
            [
              -32.4074741,
              -3.8439386
            ],
            [
              -32.4075648,
              -3.8439621
            ]
          ]
        ]
      }
    },
    {
      "type": "Feature",
      "id": "way/374864587",
      "properties": {
        "timestamp": "2023-11-18T04:35:13Z",
        "version": 2,
        "changeset": 144161756,
        "addr:city": "Fernando de Noronha",
        "addr:country": "BR",
        "addr:housenumber": "7",
        "addr:postcode": "53990-000",
        "addr:street": "Alameda das Amendoeiras",
        "addr:suburb": "Floresta Nova",
        "building": "yes",
        "email": "reservas@pousadacorais.com.br",
        "name": "Pousada dos Corais",
        "phone": "+55 81 3619 1531",
        "tourism": "hotel",
        "website": "https://www.pousadacorais.com.br/",
        "id": "way/374864587"
      },
      "geometry": {
        "type": "Polygon",
        "coordinates": [
          [
            [
              -32.4122491,
              -3.8469935
            ],
            [
              -32.4122491,
              -3.8470755
            ],
            [
              -32.412128,
              -3.8470755
            ],
            [
              -32.412128,
              -3.8469935
            ],
            [
              -32.4122491,
              -3.8469935
            ]
          ]
        ]
      }
    },
    {
      "type": "Feature",
      "id": "way/525220991",
      "properties": {
        "timestamp": "2017-09-16T19:13:04Z",
        "version": 1,
        "changeset": 52102949,
        "addr:city": "Fernando de Noronha",
        "addr:country": "BR",
        "addr:housenumber": "8",
        "addr:postcode": "53990-000",
        "addr:street": "Alameda da Harmonia",
        "addr:suburb": "Floresta Nova",
        "building": "yes",
        "name": "Pousada Luna",
        "tourism": "hotel",
        "website": "http://pousadaslunaeribeiro.weebly.com/",
        "id": "way/525220991"
      },
      "geometry": {
        "type": "Polygon",
        "coordinates": [
          [
            [
              -32.4113161,
              -3.8466243
            ],
            [
              -32.4113154,
              -3.8467192
            ],
            [
              -32.4112072,
              -3.8467183
            ],
            [
              -32.411208,
              -3.8466234
            ],
            [
              -32.4113161,
              -3.8466243
            ]
          ]
        ]
      }
    },
    {
      "type": "Feature",
      "id": "way/1240395473",
      "properties": {
        "timestamp": "2024-01-17T09:50:00Z",
        "version": 1,
        "changeset": 146355689,
        "name": "Pousada de Dodo",
        "name_alt": "Pousada Sitio Dodó",
        "phone": "+55 81 3619-1353",
        "tourism": "hotel",
        "id": "way/1240395473"
      },
      "geometry": {
        "type": "Polygon",
        "coordinates": [
          [
            [
              -32.4108129,
              -3.8444665
            ],
            [
              -32.4106444,
              -3.8445471
            ],
            [
              -32.4104976,
              -3.8442415
            ],
            [
              -32.410666,
              -3.8441609
            ],
            [
              -32.4108129,
              -3.8444665
            ]
          ]
        ]
      }
    },
    {
      "type": "Feature",
      "id": "node/8015434543",
      "properties": {
        "timestamp": "2024-06-30T12:08:07Z",
        "version": 2,
        "changeset": 153366201,
        "addr:city": "Fernando de Noronha",
        "addr:country": "BR",
        "addr:housenumber": "689",
        "addr:postcode": "53990-000",
        "addr:street": "Rua Antonio Alves Cordeiro",
        "addr:suburb": "Vila Floresta Velha",
        "description": "Pousada Morro do Pico",
        "internet_access": "wlan",
        "internet_access:fee": "customers",
        "name": "Pousada Morro do Pico",
        "phone": "+558136190088",
        "rooms": "5",
        "tourism": "hotel",
        "website": "www.pousadamorrodopico.com.br",
        "id": "node/8015434543"
      },
      "geometry": {
        "type": "Point",
        "coordinates": [
          -32.4140884,
          -3.8464452
        ]
      }
    },
    {
      "type": "Feature",
      "id": "node/9887710022",
      "properties": {
        "timestamp": "2022-07-14T16:27:24Z",
        "version": 1,
        "changeset": 123617114,
        "name": "Morro do Farol",
        "tourism": "hotel",
        "id": "node/9887710022"
      },
      "geometry": {
        "type": "Point",
        "coordinates": [
          -32.423988,
          -3.8496884
        ]
      }
    },
    {
      "type": "Feature",
      "id": "node/11138979805",
      "properties": {
        "timestamp": "2024-06-30T12:08:07Z",
        "version": 4,
        "changeset": 153366201,
        "addr:city": "Fernando de Noronha",
        "addr:country": "BR",
        "addr:housenumber": "488",
        "addr:postcode": "53990-000",
        "addr:street": "Rua Amaro Preto",
        "name": "Vila Sal Noronha",
        "tourism": "hotel",
        "website": "https://www.vilasalnoronha.com/",
        "id": "node/11138979805"
      },
      "geometry": {
        "type": "Point",
        "coordinates": [
          -32.4130926,
          -3.8457234
        ]
      }
    }
  ]
}
