{
  "type": "FeatureCollection",
  "features": [
    {
      "type": "Feature",
      "id": "node/3982192317",
      "properties": {
        "timestamp": "2022-10-18T02:06:36Z",
        "version": 3,
        "changeset": 127699729,
        "addr:city": "Açucena",
        "addr:housenumber": "69",
        "addr:postcode": "35147-000",
        "addr:street": "Rua Manoel Pedro da Silva",
        "addr:suburb": "Felicina",
        "amenity": "school",
        "name": "Escola Estadual Cristiano Machado",
        "operator": "Estado de Minas Gerais",
        "operator:type": "public",
        "id": "node/3982192317"
      },
      "geometry": {
        "type": "Point",
        "coordinates": [
          -42.3814892,
          -19.0757761
        ]
      }
    },
    {
      "type": "Feature",
      "id": "node/10092226769",
      "properties": {
        "timestamp": "2022-10-18T12:17:50Z",
        "version": 2,
        "changeset": 127724406,
        "addr:city": "Açucena",
        "addr:housenumber": "252",
        "addr:postcode": "35147-000",
        "addr:street": "Rua Odilon de Almeida",
        "addr:suburb": "Centro",
        "amenity": "school",
        "name": "Escola Estadual Antonio Alticiano",
        "operator": "Secretaria de Educação do Estado de Minas Gerais",
        "operator:type": "public",
        "id": "node/10092226769"
      },
      "geometry": {
        "type": "Point",
        "coordinates": [
          -42.5471033,
          -19.0729722
        ]
      }
    },
    {
      "type": "Feature",
      "id": "node/10102265700",
      "properties": {
        "timestamp": "2022-10-14T22:52:32Z",
        "version": 1,
        "changeset": 127547892,
        "addr:city": "Açucena",
        "addr:hamlet": "Pompeu",
        "addr:postcode": "35147-000",
        "addr:state": "Minas Gerais",
        "amenity": "school",
        "name": "Escola Municipal Padre Felix",
        "operator": "Secretaria Municipal de Educação",
        "id": "node/10102265700"
      },
      "geometry": {
        "type": "Point",
        "coordinates": [
          -42.5633901,
          -18.9846275
        ]
      }
    },
    {
      "type": "Feature",
      "id": "node/10104606458",
      "properties": {
        "timestamp": "2022-10-16T12:22:52Z",
        "version": 2,
        "changeset": 127613726,
        "addr:city": "Açucena",
        "addr:postcode": "35150-000",
        "addr:street": "Rua São José",
        "addr:suburb": "Ruinha",
        "amenity": "school",
        "name": "Escola Municipal Said Farah",
        "operator": "Município de Açucena",
        "operator:type": "public",
        "id": "node/10104606458"
      },
      "geometry": {
        "type": "Point",
        "coordinates": [
          -42.540349,
          -19.1158087
        ]
      }
    },
    {
      "type": "Feature",
      "id": "node/10104663899",
      "properties": {
        "timestamp": "2022-10-16T12:22:52Z",
        "version": 2,
        "changeset": 127613726,
        "addr:city": "Açucena",
        "addr:housenumber": "77",
        "addr:postcode": "35150-000",
        "addr:street": "Rua Padre Felix",
        "addr:suburb": "Aramirim",
        "amenity": "school",
        "name": "Escola Estadual Odete Valadares",
        "operator": "Secretaria de Educação do Estado de Minas Gerais",
        "operator:type": "public",
        "id": "node/10104663899"
      },
      "geometry": {
        "type": "Point",
        "coordinates": [
          -42.4791079,
          -18.9950676
        ]
      }
    },
    {
      "type": "Feature",
      "id": "node/10106338083",
      "properties": {
        "timestamp": "2022-10-16T12:22:52Z",
        "version": 1,
        "changeset": 127613726,
        "addr:city": "Açucena",
        "addr:postcode": "35150-000",
        "addr:street": "Rua José Joaquim",
        "addr:suburb": "Penha do Aramirim",
        "amenity": "school",
        "name": "Em De Penha De Aramirim",
        "operator": "Secretaria Municipal de Educação",
        "operator:type": "public",
        "id": "node/10106338083"
      },
      "geometry": {
        "type": "Point",
        "coordinates": [
          -42.449723,
          -18.9421056
        ]
      }
    },
    {
      "type": "Feature",
      "id": "node/10106338095",
      "properties": {
        "timestamp": "2022-10-18T02:06:36Z",
        "version": 2,
        "changeset": 127699729,
        "addr:city": "Açucena",
        "addr:housenumber": "113",
        "addr:postcode": "35147-000",
        "addr:street": "Rua Sebastião Lino",
        "addr:suburb": "São Francisco",
        "amenity": "school",
        "name": "Escola Municipal de São Francisco",
        "operator": "Município de Açucena",
        "operator:type": "public",
        "id": "node/10106338095"
      },
      "geometry": {
        "type": "Point",
        "coordinates": [
          -42.4793405,
          -19.0616678
        ]
      }
    },
    {
      "type": "Feature",
      "id": "node/10106355342",
      "properties": {
        "timestamp": "2022-10-16T12:42:40Z",
        "version": 1,
        "changeset": 127614531,
        "addr:city": "Açucena",
        "addr:postcode": "35150-000",
        "addr:street": "Rua Principal",
        "addr:suburb": "Coqueiros",
        "amenity": "school",
        "name": "Escola Municipal de Coqueiros",
        "operator": "Município de Açucena",
        "operator:type": "public",
        "id": "node/10106355342"
      },
      "geometry": {
        "type": "Point",
        "coordinates": [
          -42.608898,
          -19.1270512
        ]
      }
    },
    {
      "type": "Feature",
      "id": "node/10107501638",
      "properties": {
        "timestamp": "2022-10-18T02:06:36Z",
        "version": 5,
        "changeset": 127699729,
        "addr:city": "Açucena",
        "addr:housenumber": "335",
        "addr:postcode": "35147-000",
        "addr:street": "Rua São Geraldo",
        "addr:suburb": "Naque-Nanuque",
        "amenity": "school",
        "name": "Escola Estadual Terezinha Barbosa dos Santos",
        "operator": "Estado de Minas Gerais",
        "operator:type": "public",
        "id": "node/10107501638"
      },
      "geometry": {
        "type": "Point",
        "coordinates": [
          -42.4231299,
          -19.186607
        ]
      }
    },
    {
      "type": "Feature",
      "id": "node/10107501639",
      "properties": {
        "timestamp": "2022-10-17T02:34:30Z",
        "version": 1,
        "changeset": 127644327,
        "amenity": "school",
        "id": "node/10107501639"
      },
      "geometry": {
        "type": "Point",
        "coordinates": [
          -42.4300981,
          -19.1824972
        ]
      }
    },
    {
      "type": "Feature",
      "id": "node/10108880416",
      "properties": {
        "timestamp": "2022-10-18T02:06:36Z",
        "version": 2,
        "changeset": 127699729,
        "addr:city": "Açucena",
        "addr:hamlet": "Gama",
        "addr:postcode": "35147-000",
        "addr:street": "Rua Wenceslau Pereira",
        "addr:suburb": "Gama",
        "amenity": "school",
        "name": "Escola Estadual Dom Serafim Gomes Jardim",
        "operator": "Estado de Minas Gerais",
        "operator:type": "public",
        "id": "node/10108880416"
      },
      "geometry": {
        "type": "Point",
        "coordinates": [
          -42.3929653,
          -19.1196712
        ]
      }
    },
    {
      "type": "Feature",
      "id": "node/10110185452",
      "properties": {
        "timestamp": "2022-10-18T02:06:36Z",
        "version": 2,
        "changeset": 127699729,
        "addr:city": "Açucena",
        "addr:postcode": "35147-000",
        "addr:street": "Rua São José",
        "addr:suburb": "São Pedro",
        "amenity": "school",
        "name": "Escola Municipal de São Pedro",
        "operator": "Município de Açucena",
        "operator:type": "public",
        "id": "node/10110185452"
      },
      "geometry": {
        "type": "Point",
        "coordinates": [
          -42.3744862,
          -18.9982008
        ]
      }
    },
    {
      "type": "Feature",
      "id": "node/10111093595",
      "properties": {
        "timestamp": "2022-10-18T10:54:54Z",
        "version": 1,
        "changeset": 127719732,
        "addr:city": "Açucena",
        "addr:postcode": "35147-000",
        "addr:suburb": "Fazenda Boa Vista",
        "amenity": "school",
        "name": "Escola Municipal São Joaquim",
        "operator": "Município de Açucena",
        "operator:type": "public",
        "id": "node/10111093595"
      },
      "geometry": {
        "type": "Point",
        "coordinates": [
          -42.356127,
          -19.0411374
        ]
      }
    },
    {
      "type": "Feature",
      "id": "node/10111093610",
      "properties": {
        "timestamp": "2022-10-18T10:54:54Z",
        "version": 1,
        "changeset": 127719732,
        "addr:city": "Açucena",
        "addr:postcode": "35147-000",
        "addr:suburb": "Belo Monte",
        "amenity": "school",
        "name": "Escola Municipal Vitor de Amorim",
        "id": "node/10111093610"
      },
      "geometry": {
        "type": "Point",
        "coordinates": [
          -42.5942259,
          -19.0648724
        ]
      }
    },
    {
      "type": "Feature",
      "id": "node/10111239185",
      "properties": {
        "timestamp": "2022-10-18T12:17:50Z",
        "version": 1,
        "changeset": 127724406,
        "addr:city": "Açucena",
        "addr:housenumber": "50",
        "addr:postcode": "35147-000",
        "addr:street": "Rua Demerval Pimenta",
        "addr:suburb": "Centro",
        "amenity": "school",
        "name": "Escola Municipal Geraldo Luiz do Nascimento",
        "operator": "Município de Açucena",
        "operator:type": "public",
        "id": "node/10111239185"
      },
      "geometry": {
        "type": "Point",
        "coordinates": [
          -42.5476267,
          -19.0715375
        ]
      }
    }
  ]
}
