{
  "type": "FeatureCollection",
  "features": [
    {
      "type": "Feature",
      "id": "node/5411290723",
      "properties": {
        "timestamp": "2021-12-01T17:29:04Z",
        "version": 3,
        "changeset": 114451930,
        "addr:city": "Campo Grande",
        "addr:housenumber": "6999",
        "addr:postcode": "790097-452",
        "addr:street": "Avenida Gunter Hans",
        "addr:suburb": "Jardim Taruma",
        "name": "Bicicletaria",
        "opening_hours": "Mo-Sa 08:00-18:00",
        "operator": "Bicicletaria - Conserto de bicicleta",
        "service:bicycle:loja": "yes",
        "service:bicycle:oficina": "yes",
        "shop": "bicycle",
        "id": "node/5411290723"
      },
      "geometry": {
        "type": "Point",
        "coordinates": [
          -54.6663237,
          -20.5472431
        ]
      }
    },
    {
      "type": "Feature",
      "id": "node/9296565581",
      "properties": {
        "timestamp": "2023-08-19T07:30:11Z",
        "version": 4,
        "changeset": 140083690,
        "addr:city": "Campo Grande",
        "addr:housenumber": "2201",
        "addr:postcode": "790034-000",
        "addr:street": "Avenida Nosso Senhor do Bonfim",
        "addr:suburb": "Parque dos Novos Estados",
        "name": "Ciclo Bike Plus",
        "opening_hours": "8:00 - 18:00",
        "payment:cash": "yes",
        "phone": "+556733552302",
        "service:bicycle:pump": "yes",
        "service:bicycle:repair": "yes",
        "service:bicycle:retail": "yes",
        "service:bicycle:sales": "yes",
        "service:bicycle:service": "yes",
        "shop": "bicycle",
        "id": "node/9296565581"
      },
      "geometry": {
        "type": "Point",
        "coordinates": [
          -54.5565648,
          -20.4222086
        ]
      }
    },
    {
      "type": "Feature",
      "id": "node/9296616943",
      "properties": {
        "timestamp": "2023-08-19T07:30:15Z",
        "version": 4,
        "changeset": 140083690,
        "addr:city": "Campo Grande",
        "addr:housenumber": "830",
        "addr:postcode": "79036030",
        "addr:street": "Rua Acrópole",
        "addr:suburb": "Vila Danúbio Azul",
        "name": "Gino Bike",
        "opening_hours": "Seg-Sex 07:00-17:00 (sab 12:00)",
        "operator": "Gino",
        "payment:cash": "yes",
        "phone": "+5567992901038",
        "service:bicycle:diy": "yes",
        "service:bicycle:pump": "yes",
        "service:bicycle:repair": "yes",
        "service:bicycle:second_hand": "yes",
        "shop": "bicycle",
        "id": "node/9296616943"
      },
      "geometry": {
        "type": "Point",
        "coordinates": [
          -54.5512311,
          -20.4292149
        ]
      }
    },
    {
      "type": "Feature",
      "id": "node/9297268708",
      "properties": {
        "timestamp": "2023-08-19T07:30:16Z",
        "version": 3,
        "changeset": 140083690,
        "addr:city": "Campo Grande",
        "addr:housenumber": "673",
        "addr:postcode": "79033-281",
        "addr:street": "Rua Olímpio Klafke",
        "addr:suburb": "Mata do Jacinto",
        "description": "Loja e oficina de Bicicleta",
        "name": "Bike Norte MS",
        "opening_hours": "Mo-Sa 08:00-18:00",
        "operator": "Bike Norte MS",
        "phone": "67 9 9283 5394",
        "shop": "bicycle",
        "id": "node/9297268708"
      },
      "geometry": {
        "type": "Point",
        "coordinates": [
          -54.5663967,
          -20.4237436
        ]
      }
    },
    {
      "type": "Feature",
      "id": "node/9300336587",
      "properties": {
        "timestamp": "2023-04-10T12:29:33Z",
        "version": 3,
        "changeset": 134727626,
        "addr:city": "Campo Grande",
        "addr:housenumber": "561",
        "addr:postcode": "79021-280",
        "addr:street": "Rua Nortelândia",
        "addr:suburb": "Santa Fé",
        "name": "Concept Bike Shop",
        "opening_hours": "Mo-Fr 09:00-19:00",
        "operator": "Concept Bike Shop",
        "phone": "+55 67 3321-0429",
        "service:bicycle:repair": "yes",
        "service:bicycle:retail": "yes",
        "shop": "bicycle",
        "website": "http://www.conceptbikeshop.com.br/",
        "id": "node/9300336587"
      },
      "geometry": {
        "type": "Point",
        "coordinates": [
          -54.5883351,
          -20.4539249
        ]
      }
    },
    {
      "type": "Feature",
      "id": "node/9300343710",
      "properties": {
        "timestamp": "2023-04-10T12:29:33Z",
        "version": 4,
        "changeset": 134727626,
        "addr:city": "Campo Grande",
        "addr:housenumber": "466",
        "addr:postcode": "79011-290",
        "addr:street": "Rua Santo Angelo",
        "addr:suburb": "Coronel Antonino",
        "name": "Ciclo Estrela",
        "opening_hours": "Mo-Fr 08:00-17:00",
        "operator": "Ciclo Estrela",
        "phone": "+55 67 3351-6378",
        "service:bicycle:repair": "yes",
        "service:bicycle:retail": "yes",
        "shop": "bicycle",
        "website": "https://cicloestrela.com.br/",
        "id": "node/9300343710"
      },
      "geometry": {
        "type": "Point",
        "coordinates": [
          -54.5951072,
          -20.4293686
        ]
      }
    },
    {
      "type": "Feature",
      "id": "node/9300522191",
      "properties": {
        "timestamp": "2023-08-19T07:30:17Z",
        "version": 4,
        "changeset": 140083690,
        "addr:city": "Campo Grande",
        "addr:housenumber": "641",
        "addr:postcode": "79033-210",
        "addr:street": "Rua Doutor Hugo Pereira do Vale",
        "addr:suburb": "Mata do Jacinto",
        "name": "Ciclo Eli",
        "opening_hours": "Mo-Sa 07:00-18:00",
        "operator": "Ciclo Eli",
        "phone": "+55 67 99934-8689",
        "service:bicycle:loja": "yes",
        "service:bicycle:oficina": "yes",
        "shop": "bicycle",
        "id": "node/9300522191"
      },
      "geometry": {
        "type": "Point",
        "coordinates": [
          -54.5693678,
          -20.4233363
        ]
      }
    },
    {
      "type": "Feature",
      "id": "node/9300679395",
      "properties": {
        "timestamp": "2023-08-19T07:30:19Z",
        "version": 3,
        "changeset": 140083690,
        "addr:city": "Campo Grande",
        "addr:housenumber": "3545",
        "addr:postcode": "79020-210",
        "addr:street": "Rua Antônio Maria Coelho",
        "addr:suburb": "Jardim dos Estados",
        "name": "Gilmar Bicicletas Loja 2",
        "opening_hours": "Mo-Fr 09:00-19:00",
        "operator": "Gilmar Bicicletas",
        "phone": "+556733841118",
        "service:bicycle:loja": "yes",
        "service:bicycle:oficina": "yes",
        "shop": "bicycle",
        "website": "https://www.gilmarbicicletas.com.br/",
        "id": "node/9300679395"
      },
      "geometry": {
        "type": "Point",
        "coordinates": [
          -54.5963751,
          -20.4535672
        ]
      }
    },
    {
      "type": "Feature",
      "id": "node/9300839756",
      "properties": {
        "timestamp": "2023-08-19T07:30:23Z",
        "version": 2,
        "changeset": 140083690,
        "addr:city": "Campo Grande",
        "addr:housenumber": "493",
        "addr:postcode": "79005-620",
        "addr:street": "Avenida das Bandeiras",
        "addr:suburb": "Vila Carvalho",
        "name": "Ciclo Ribeiro (Matriz)",
        "opening_hours": "Mo-Sa 08:00-18:00",
        "operator": "Ciclo Ribeiro",
        "service:bicycle:loja": "yes",
        "service:bicycle:oficina": "yes",
        "shop": "bicycle",
        "website": "https://cicloribeiro.com.br/",
        "id": "node/9300839756"
      },
      "geometry": {
        "type": "Point",
        "coordinates": [
          -54.6198054,
          -20.4774662
        ]
      }
    },
    {
      "type": "Feature",
      "id": "node/9300848143",
      "properties": {
        "timestamp": "2023-08-19T07:30:25Z",
        "version": 3,
        "changeset": 140083690,
        "addr:city": "Campo Grande",
        "addr:housenumber": "6304",
        "addr:postcode": "79017-141",
        "addr:street": "Avenida Fábio Zahran",
        "addr:suburb": "Vila Carvalho",
        "name": "Ciclo Toni Loja 3",
        "opening_hours": "Mo-Sa 08:00-18:00",
        "operator": "Ciclo Toni",
        "phone": "+55 (67) 3324-1696",
        "service:bicycle:loja": "yes",
        "service:bicycle:oficina": "yes",
        "shop": "bicycle",
        "website": "https://bicicletaria-ciclo-toni-pecas-e-servicos-loja-03-bicycle-store.negocio.site/",
        "id": "node/9300848143"
      },
      "geometry": {
        "type": "Point",
        "coordinates": [
          -54.622952,
          -20.4738705
        ]
      }
    },
    {
      "type": "Feature",
      "id": "node/9300859447",
      "properties": {
        "timestamp": "2023-08-19T07:30:26Z",
        "version": 4,
        "changeset": 140083690,
        "addr:city": "Campo Grande",
        "addr:housenumber": "6520",
        "addr:postcode": "79005-571",
        "addr:street": "Avenida Fábio Zahran",
        "addr:suburb": "Vila Carvalho",
        "name": "Gilmar Bicicletas",
        "opening_hours": "Mo-Fr 09:00-19:00",
        "operator": "Gilmar Bicicletas",
        "phone": "+55 (67) 3324-8300",
        "service:bicycle:loja": "yes",
        "service:bicycle:oficina": "yes",
        "shop": "bicycle",
        "website": "https://www.gilmarbicicletas.com.br/",
        "id": "node/9300859447"
      },
      "geometry": {
        "type": "Point",
        "coordinates": [
          -54.6241058,
          -20.4757173
        ]
      }
    },
    {
      "type": "Feature",
      "id": "node/9300859728",
      "properties": {
        "timestamp": "2023-08-19T07:30:31Z",
        "version": 3,
        "changeset": 140083690,
        "addr:city": "Campo Grande",
        "addr:housenumber": "1887",
        "addr:postcode": "79002-004",
        "addr:street": "Avenida Calógeras",
        "addr:suburb": "Centro",
        "name": "Ciclo Reis",
        "opening_hours": "Mo-Sa 08:00-18:00",
        "operator": "Ciclo Reis - Loja 2",
        "phone": "+55 67 3325-2554",
        "service:bicycle:loja": "yes",
        "shop": "bicycle",
        "id": "node/9300859728"
      },
      "geometry": {
        "type": "Point",
        "coordinates": [
          -54.6190024,
          -20.4656165
        ]
      }
    },
    {
      "type": "Feature",
      "id": "node/9300862993",
      "properties": {
        "timestamp": "2023-08-19T07:30:32Z",
        "version": 3,
        "changeset": 140083690,
        "addr:city": "Campo Grande",
        "addr:housenumber": "79",
        "addr:postcode": "79005-620",
        "addr:street": "Avenida das Bandeiras",
        "addr:suburb": "Vila Carvalho",
        "name": "Ciclo Reis - Bandeiras",
        "opening_hours": "Mo-Sa 08:00-18:00",
        "operator": "Ciclo reis",
        "phone": "+55 (67) 3325-2554",
        "service:bicycle:loja": "yes",
        "service:bicycle:oficina": "yes",
        "shop": "bicycle",
        "id": "node/9300862993"
      },
      "geometry": {
        "type": "Point",
        "coordinates": [
          -54.6177278,
          -20.4741738
        ]
      }
    },
    {
      "type": "Feature",
      "id": "node/9300877515",
      "properties": {
        "timestamp": "2023-08-19T07:30:35Z",
        "version": 3,
        "changeset": 140083690,
        "addr:city": "Campo Grande",
        "addr:housenumber": "2285",
        "addr:postcode": "79002-360",
        "addr:street": "Rua Rui Barbosa",
        "addr:suburb": "Centro",
        "name": "Ciclo Ribeiro - Loja 7",
        "opening_hours": "Mo-Sa 08:00-18:00",
        "operator": "Ciclo Ribeiro",
        "phone": "+55 (67) 3317-2864",
        "shop": "bicycle",
        "website": "https://cicloribeiro.com.br/",
        "id": "node/9300877515"
      },
      "geometry": {
        "type": "Point",
        "coordinates": [
          -54.6138216,
          -20.4657709
        ]
      }
    },
    {
      "type": "Feature",
      "id": "node/9300880685",
      "properties": {
        "timestamp": "2023-08-19T07:30:36Z",
        "version": 3,
        "changeset": 140083690,
        "addr:city": "Campo Grande",
        "addr:housenumber": "280",
        "addr:postcode": "79002-231",
        "addr:street": "Avenida Mato Grosso",
        "addr:suburb": "Centro",
        "name": "ColMick Bike",
        "opening_hours": "Mo-Fr 09:00-18:00",
        "operator": "ColMick Bike",
        "phone": "+55 (67) 3029-8169",
        "service:bicycle:loja": "yes",
        "service:bicycle:oficina": "yes",
        "shop": "bicycle",
        "id": "node/9300880685"
      },
      "geometry": {
        "type": "Point",
        "coordinates": [
          -54.6173091,
          -20.4561106
        ]
      }
    },
    {
      "type": "Feature",
      "id": "node/9300911518",
      "properties": {
        "timestamp": "2023-08-19T07:30:37Z",
        "version": 2,
        "changeset": 140083690,
        "addr:city": "Campo Grande",
        "addr:housenumber": "606",
        "addr:postcode": "79022-000",
        "addr:street": "Avenida Coronel Antônino",
        "addr:suburb": "Coronel Antonino",
        "name": "Ciclo Ribeiro - Loja 4",
        "opening_hours": "Mo-Sa 08:00-18:00",
        "operator": "Ciclo Ribeiro",
        "phone": "+556733172890",
        "service:bicycle:loja": "yes",
        "service:bicycle:oficina": "yes",
        "shop": "bicycle",
        "website": "https://cicloribeiro.com.br/",
        "id": "node/9300911518"
      },
      "geometry": {
        "type": "Point",
        "coordinates": [
          -54.6009388,
          -20.4414887
        ]
      }
    },
    {
      "type": "Feature",
      "id": "node/9300914278",
      "properties": {
        "timestamp": "2024-01-03T14:50:38Z",
        "version": 3,
        "changeset": 145843010,
        "addr:city": "Campo Grande",
        "addr:housenumber": "2435",
        "addr:postcode": "79100-005",
        "addr:street": "Avenida Júlio de Castilho",
        "addr:suburb": "Santo Antônio",
        "name": "Santana Bike Shop",
        "opening_hours": "Mo-Sa 07:00-18:00",
        "operator": "Santana Bike Shop",
        "phone": "+556730268643",
        "service:bicycle:loja": "yes",
        "service:bicycle:oficina": "yes",
        "shop": "bicycle",
        "id": "node/9300914278"
      },
      "geometry": {
        "type": "Point",
        "coordinates": [
          -54.6519918,
          -20.4504109
        ]
      }
    },
    {
      "type": "Feature",
      "id": "node/9301088151",
      "properties": {
        "timestamp": "2024-01-03T14:50:38Z",
        "version": 4,
        "changeset": 145843010,
        "addr:city": "Campo Grande",
        "addr:housenumber": "2699",
        "addr:postcode": "79100-005",
        "addr:street": "Avenida Júlio de Castilho",
        "addr:suburb": "Santo Antônio",
        "name": "Tribus Bike Shop",
        "opening_hours": "Mo-Sa 08:00-18:00",
        "operator": "Ciclo Silva Caloi",
        "phone": "+55 (67) 3042-4533",
        "service:bicycle:Bicycle_Sales_and_Service": "yes",
        "service:bicycle:repair": "yes",
        "service:bicycle:service": "yes",
        "shop": "bicycle",
        "website": "http://ciclosilvacaloi.vitrinevirtual.net/",
        "id": "node/9301088151"
      },
      "geometry": {
        "type": "Point",
        "coordinates": [
          -54.6545608,
          -20.4493902
        ]
      }
    },
    {
      "type": "Feature",
      "id": "node/9301091964",
      "properties": {
        "timestamp": "2023-08-19T07:30:41Z",
        "version": 3,
        "changeset": 140083690,
        "addr:city": "Campo Grande",
        "addr:housenumber": "47",
        "addr:postcode": "79008-281",
        "addr:street": "Praça Cuiabá",
        "addr:suburb": "Amambai",
        "name": "Smart Bike Shop",
        "opening_hours": "Mo-Fr 09:00-19:00",
        "operator": "Smart Bike Shop",
        "phone": "+55 (67) 3253-9379",
        "service:bicycle:Bicycle_Sales_and_Service": "yes",
        "service:bicycle:repair": "yes",
        "shop": "bicycle",
        "id": "node/9301091964"
      },
      "geometry": {
        "type": "Point",
        "coordinates": [
          -54.6312677,
          -20.4628358
        ]
      }
    },
    {
      "type": "Feature",
      "id": "node/9301111768",
      "properties": {
        "timestamp": "2023-08-19T07:30:46Z",
        "version": 2,
        "changeset": 140083690,
        "addr:city": "Campo Grande",
        "addr:housenumber": "834",
        "addr:postcode": "79021-270",
        "addr:street": "Rua Hemelita de Oliveira Gomes",
        "addr:suburb": "Santa Fé",
        "name": "Bicicletaria - Consertos e Soldas",
        "opening_hours": "Mo-Sa 07:00-18:00",
        "operator": "Bicicletaria - Consertos e Soldas",
        "service:bicycle:repair": "yes",
        "service:bicycle:service": "yes",
        "shop": "bicycle",
        "id": "node/9301111768"
      },
      "geometry": {
        "type": "Point",
        "coordinates": [
          -54.5903897,
          -20.4504265
        ]
      }
    },
    {
      "type": "Feature",
      "id": "node/9301130654",
      "properties": {
        "timestamp": "2023-08-19T07:30:47Z",
        "version": 3,
        "changeset": 140083690,
        "addr:city": "Campo Grande",
        "addr:housenumber": "1869",
        "addr:postcode": "79100-005",
        "addr:street": "Avenida Júlio de Castilho",
        "addr:suburb": "Vila Sobrinho",
        "name": "Ciclo Ribeiro - Loja 6",
        "opening_hours": "Mo-Sa 08:00-18:00",
        "operator": "Ciclo Ribeiro",
        "phone": "+55 (67) 3317-7845",
        "service:bicycle:repair": "yes",
        "service:bicycle:service": "yes",
        "shop": "bicycle",
        "website": "https://cicloribeiro.com.br/",
        "id": "node/9301130654"
      },
      "geometry": {
        "type": "Point",
        "coordinates": [
          -54.6472828,
          -20.4532191
        ]
      }
    },
    {
      "type": "Feature",
      "id": "node/9301142693",
      "properties": {
        "timestamp": "2023-08-19T07:30:49Z",
        "version": 3,
        "changeset": 140083690,
        "addr:city": "Campo Grande",
        "addr:housenumber": "886",
        "addr:postcode": "79004-430",
        "addr:street": "Rua Rui Barbosa",
        "addr:suburb": "Centro",
        "name": "World Bike Shop",
        "opening_hours": "Mo-Sa 08:00-18:00",
        "operator": "World Bike Shop",
        "phone": "+55 (67) 3324-1795",
        "service:bicycle:Bicycle_Sales_and_Service": "yes",
        "service:bicycle:repair": "yes",
        "shop": "bicycle",
        "id": "node/9301142693"
      },
      "geometry": {
        "type": "Point",
        "coordinates": [
          -54.6111441,
          -20.4782749
        ]
      }
    },
    {
      "type": "Feature",
      "id": "node/9301150850",
      "properties": {
        "timestamp": "2023-08-19T07:30:54Z",
        "version": 3,
        "changeset": 140083690,
        "addr:city": "Campo Grande",
        "addr:housenumber": "185",
        "addr:postcode": "79008-220",
        "addr:street": "Rua Eça de Queiroz",
        "addr:suburb": "Cabreúva",
        "name": "BTT Bike acessórios",
        "opening_hours": "Mo-Sa 08:00-18:00",
        "operator": "BTT Bike acessórios",
        "phone": "+55 (67) 98413-4390",
        "service:bicycle:bicycle": "yes",
        "service:bicycle:repair": "yes",
        "service:bicycle:service": "yes",
        "shop": "bicycle",
        "website": "https://btt-bike.negocio.site/?utm_source=gmb&utm_medium=referral",
        "id": "node/9301150850"
      },
      "geometry": {
        "type": "Point",
        "coordinates": [
          -54.6207416,
          -20.4458326
        ]
      }
    },
    {
      "type": "Feature",
      "id": "node/9301153936",
      "properties": {
        "timestamp": "2023-08-19T07:30:55Z",
        "version": 4,
        "changeset": 140083690,
        "addr:city": "Campo Grande",
        "addr:housenumber": "500",
        "addr:postcode": "79050-261",
        "addr:street": "Rua Spipe Calarge",
        "addr:suburb": "Jardim TV Morena",
        "name": "67 Bikeshop",
        "opening_hours": "Mo-Fr 09:00-19:00",
        "operator": "67 Bikeshop",
        "phone": "+55 (67) 99237-0102",
        "service:bicycle:Bicycle_Sales_and_Service": "yes",
        "service:bicycle:repair": "yes",
        "shop": "bicycle",
        "website": "https://www.67bikeshop.com.br/",
        "id": "node/9301153936"
      },
      "geometry": {
        "type": "Point",
        "coordinates": [
          -54.6013573,
          -20.4839031
        ]
      }
    },
    {
      "type": "Feature",
      "id": "node/9303727671",
      "properties": {
        "timestamp": "2023-08-19T07:30:56Z",
        "version": 3,
        "changeset": 140083690,
        "addr:city": "Campo Grande",
        "addr:housenumber": "5203",
        "addr:postcode": "79103-011",
        "addr:street": "Avenida Duque de Caxias",
        "addr:suburb": "Vila Elaine",
        "name": "Fort Bike",
        "opening_hours": "Mo-Sa 07:30-17:30",
        "operator": "Fort Bike",
        "phone": "+55 (67) 98402-7559",
        "service:bicycle:Bicycle_Sales_and_Service": "yes",
        "service:bicycle:repair": "yes",
        "shop": "bicycle",
        "id": "node/9303727671"
      },
      "geometry": {
        "type": "Point",
        "coordinates": [
          -54.6798443,
          -20.4556464
        ]
      }
    },
    {
      "type": "Feature",
      "id": "node/9304240185",
      "properties": {
        "timestamp": "2023-08-19T07:30:58Z",
        "version": 2,
        "changeset": 140083690,
        "addr:city": "Campo Grande",
        "addr:housenumber": "17",
        "addr:postcode": "79103-531",
        "addr:street": "Rua Nova Andradina",
        "addr:suburb": "Jardim Aeroporto",
        "name": "Rud Bikes",
        "opening_hours": "Mo-Sa 08:00-17:30",
        "operator": "Rud Bikes",
        "phone": "+556733914242",
        "service:bicycle:Bicycle_Sales_and_Service": "yes",
        "service:bicycle:repair": "yes",
        "shop": "bicycle",
        "website": "http://www.rudbikes.com.br/",
        "id": "node/9304240185"
      },
      "geometry": {
        "type": "Point",
        "coordinates": [
          -54.6831414,
          -20.4481749
        ]
      }
    },
    {
      "type": "Feature",
      "id": "node/9304931829",
      "properties": {
        "timestamp": "2023-08-19T07:30:59Z",
        "version": 3,
        "changeset": 140083690,
        "addr:city": "Campo Grande",
        "addr:housenumber": "1930",
        "addr:postcode": "79023-000",
        "addr:street": "Avenida Coronel Antônino",
        "addr:suburb": "Coronel Antônino",
        "name": "Ciclo Reis Loja Cel. Antonino",
        "opening_hours": "Mo-Sa 08:00-18:00",
        "operator": "Ciclo Reis",
        "phone": "+55 (67) 3014-3474",
        "service:bicycle:Bicycle_Sales_and_Service": "yes",
        "service:bicycle:repair": "yes",
        "shop": "bicycle",
        "id": "node/9304931829"
      },
      "geometry": {
        "type": "Point",
        "coordinates": [
          -54.5924169,
          -20.4320819
        ]
      }
    },
    {
      "type": "Feature",
      "id": "node/9305365321",
      "properties": {
        "timestamp": "2023-08-19T07:31:00Z",
        "version": 3,
        "changeset": 140083690,
        "addr:city": "Campo Grande",
        "addr:housenumber": "919",
        "addr:postcode": "79011-346",
        "addr:street": "Rua Santa Maria",
        "addr:suburb": "Monte Castelo",
        "name": "Ideal Bike",
        "opening_hours": "Mo-Sa 07:00-18:00",
        "operator": "Ideal Bike",
        "phone": "+55 (67) 99239-1937",
        "service:bicycle:Bicycle_Sales_and_Service": "yes",
        "service:bicycle:repair": "yes",
        "shop": "bicycle",
        "id": "node/9305365321"
      },
      "geometry": {
        "type": "Point",
        "coordinates": [
          -54.6040623,
          -20.4332689
        ]
      }
    },
    {
      "type": "Feature",
      "id": "node/9305662061",
      "properties": {
        "timestamp": "2022-03-12T15:44:01Z",
        "version": 2,
        "changeset": 118402717,
        "addr:city": "Campo Grande",
        "addr:housenumber": "200",
        "addr:postcode": "79032-016",
        "addr:street": "Rua Olavo Pereira da Silva",
        "addr:suburb": "Carandá Bosque",
        "name": "Aestevao Bikes - Studio",
        "operator": "Aestevao Bikes - Studio",
        "phone": "+55 (67) 98466-3910",
        "shop": "bicycle",
        "website": "https://aestevaobikes.negocio.site/",
        "id": "node/9305662061"
      },
      "geometry": {
        "type": "Point",
        "coordinates": [
          -54.5660571,
          -20.4301739
        ]
      }
    },
    {
      "type": "Feature",
      "id": "node/9306433276",
      "properties": {
        "timestamp": "2023-08-19T07:31:01Z",
        "version": 4,
        "changeset": 140083690,
        "addr:city": "Campo Grande",
        "addr:housenumber": "1945",
        "addr:postcode": "79042-010",
        "addr:street": "Rua José Nogueira Vieira",
        "addr:suburb": "Dalva de Oliveira",
        "name": "ARCANJO'S BIKE SHOP",
        "opening_hours": "Mo-Sa 07:00-19:00",
        "operator": "ARCANJO'S BIKE SHOP",
        "payment:cash": "yes",
        "phone": "+55 (67) 99286-9245",
        "service:bicycle:Bicycle_Sales_and_Service": "yes",
        "service:bicycle:repair": "yes",
        "shop": "bicycle",
        "id": "node/9306433276"
      },
      "geometry": {
        "type": "Point",
        "coordinates": [
          -54.5671658,
          -20.4716388
        ]
      }
    },
    {
      "type": "Feature",
      "id": "node/9306439540",
      "properties": {
        "timestamp": "2023-08-19T07:31:02Z",
        "version": 2,
        "changeset": 140083690,
        "addr:city": "Campo Grande",
        "addr:housenumber": "568",
        "addr:postcode": "79041-150",
        "addr:street": "Avenida Rouxinol",
        "addr:suburb": "Tiradentes",
        "name": "Ciclo Souza",
        "opening_hours": "Mo-Sa 07:00-19:00",
        "operator": "Ciclo Souza",
        "phone": "+556730562198",
        "shop": "bicycle",
        "id": "node/9306439540"
      },
      "geometry": {
        "type": "Point",
        "coordinates": [
          -54.5779144,
          -20.4733287
        ]
      }
    },
    {
      "type": "Feature",
      "id": "node/9306465782",
      "properties": {
        "timestamp": "2023-08-19T07:31:04Z",
        "version": 3,
        "changeset": 140083690,
        "addr:city": "Campo Grande",
        "addr:housenumber": "1253",
        "addr:postcode": "79005-250",
        "addr:street": "Rua Brilhante",
        "addr:suburb": "Amambaí",
        "name": "Pedal Max Bike Shop",
        "opening_hours": "Mo-Sa 08:00-18:00",
        "operator": "Pedal Max Bike Shop",
        "phone": "+55 (67) 98181-3212",
        "service:bicycle:Bicycle_Sales_and_Service": "yes",
        "service:bicycle:repair": "yes",
        "shop": "bicycle",
        "id": "node/9306465782"
      },
      "geometry": {
        "type": "Point",
        "coordinates": [
          -54.6304831,
          -20.4717576
        ]
      }
    },
    {
      "type": "Feature",
      "id": "node/9306465783",
      "properties": {
        "timestamp": "2023-08-19T07:31:05Z",
        "version": 3,
        "changeset": 140083690,
        "addr:city": "Campo Grande",
        "addr:housenumber": "1789",
        "addr:postcode": "79006-001",
        "addr:street": "Avenida Bandeirantes",
        "addr:suburb": "Guanandi",
        "name": "Ciclo Ribeiro - Loja 5",
        "opening_hours": "Mo-Sa 08:00-18:00",
        "operator": "Ciclo Ribeiro",
        "phone": "+556733172860",
        "service:bicycle:Bicycle_Sales_and_Service": "yes",
        "service:bicycle:repair": "yes",
        "shop": "bicycle",
        "website": "https://cicloribeiro.com.br/",
        "id": "node/9306465783"
      },
      "geometry": {
        "type": "Point",
        "coordinates": [
          -54.6366651,
          -20.4793833
        ]
      }
    },
    {
      "type": "Feature",
      "id": "node/9306471172",
      "properties": {
        "timestamp": "2023-08-19T07:31:06Z",
        "version": 2,
        "changeset": 140083690,
        "addr:city": "Campo Grande",
        "addr:housenumber": "17",
        "addr:postcode": "79006-661",
        "addr:street": "Rua Jaciro de Souza e Silva",
        "addr:suburb": "Vila Taquarussu",
        "name": "Ciclo Alarico",
        "opening_hours": "Mo-Sa 07:00-18:00",
        "operator": "Ciclo Alarico",
        "phone": "+5567992882683",
        "service:bicycle:Bicycle_Sales_and_Service": "yes",
        "service:bicycle:repair": "yes",
        "shop": "bicycle",
        "id": "node/9306471172"
      },
      "geometry": {
        "type": "Point",
        "coordinates": [
          -54.6339617,
          -20.4875579
        ]
      }
    },
    {
      "type": "Feature",
      "id": "node/9306507826",
      "properties": {
        "timestamp": "2023-08-19T07:31:07Z",
        "version": 3,
        "changeset": 140083690,
        "addr:city": "Campo Grande",
        "addr:housenumber": "463",
        "addr:postcode": "79042-300",
        "addr:street": "Avenida Oceania",
        "addr:suburb": "Tiradentes",
        "name": "Nossa Bicicletaria",
        "opening_hours": "Mo-Sa 08:00-18:00",
        "operator": "Nossa Bicicletaria",
        "payment:cash": "yes",
        "service:bicycle:Bicycle_Sales_and_Service": "yes",
        "service:bicycle:pump": "yes",
        "service:bicycle:repair": "yes",
        "service:bicycle:second_hand": "yes",
        "shop": "bicycle",
        "id": "node/9306507826"
      },
      "geometry": {
        "type": "Point",
        "coordinates": [
          -54.5718297,
          -20.4797982
        ]
      }
    },
    {
      "type": "Feature",
      "id": "node/9306528223",
      "properties": {
        "timestamp": "2023-08-19T07:31:08Z",
        "version": 3,
        "changeset": 140083690,
        "addr:city": "Campo Grande",
        "addr:housenumber": "1430",
        "addr:postcode": "79051-560",
        "addr:street": "Rua Spipe Calarge",
        "addr:suburb": "Vila Carlota",
        "name": "Ciclo Ribeiro - Loja 8",
        "opening_hours": "Mo-Sa 08:00-18:00",
        "operator": "Ciclo Ribeiro",
        "phone": "+556733177846",
        "service:bicycle:Bicycle_Sales_and_Service": "yes",
        "service:bicycle:repair": "yes",
        "shop": "bicycle",
        "website": "https://cicloribeiro.com.br/",
        "id": "node/9306528223"
      },
      "geometry": {
        "type": "Point",
        "coordinates": [
          -54.5985251,
          -20.4933162
        ]
      }
    },
    {
      "type": "Feature",
      "id": "node/9306531146",
      "properties": {
        "timestamp": "2023-08-19T07:31:09Z",
        "version": 2,
        "changeset": 140083690,
        "addr:city": "Campo Grande",
        "addr:housenumber": "1908",
        "addr:postcode": "79017-121",
        "addr:street": "Rua Jeronimo de Albuquerque",
        "addr:suburb": "Nova Lima",
        "name": "Ciclo Marques",
        "opening_hours": "Mo-Sa 07:00-20:00",
        "operator": "Ciclo Marques",
        "phone": "+556733545286",
        "shop": "bicycle",
        "website": "https://business.google.com/website/ciclo-marques",
        "id": "node/9306531146"
      },
      "geometry": {
        "type": "Point",
        "coordinates": [
          -54.5650584,
          -20.389687
        ]
      }
    },
    {
      "type": "Feature",
      "id": "node/9306534963",
      "properties": {
        "timestamp": "2023-08-19T07:31:10Z",
        "version": 2,
        "changeset": 140083690,
        "addr:city": "Campo Grande",
        "addr:housenumber": "929",
        "addr:postcode": "79086-130",
        "addr:street": "Rua Caramuru",
        "addr:suburb": "Guanandi",
        "name": "Ciclo Toni - loja 2",
        "opening_hours": "Mo-Sa 07:30-18:00",
        "operator": "Ciclo Toni",
        "phone": "+556733855550",
        "service:bicycle:Bicycle_Sales_and_Service": "yes",
        "service:bicycle:repair": "yes",
        "shop": "bicycle",
        "website": "https://ciclo-toni-loja-2-bicicletaria-pecas-e.negocio.site/?utm_source=gmb&utm_medium=referral",
        "id": "node/9306534963"
      },
      "geometry": {
        "type": "Point",
        "coordinates": [
          -54.6495664,
          -20.4965056
        ]
      }
    },
    {
      "type": "Feature",
      "id": "node/9306564145",
      "properties": {
        "timestamp": "2023-08-19T07:31:11Z",
        "version": 2,
        "changeset": 140083690,
        "addr:city": "Campo Grande",
        "addr:housenumber": "443",
        "addr:postcode": "79118-690",
        "addr:street": "Avenida Mascarenhas de Moraes",
        "addr:suburb": "São Francisco",
        "name": "Ciclo Sport",
        "opening_hours": "Mo-Sa 08:00-18:00",
        "operator": "Ciclo Sport",
        "service:bicycle:Bicycle_Sales_and_Service": "yes",
        "service:bicycle:repair": "yes",
        "shop": "bicycle",
        "id": "node/9306564145"
      },
      "geometry": {
        "type": "Point",
        "coordinates": [
          -54.62362,
          -20.4354705
        ]
      }
    },
    {
      "type": "Feature",
      "id": "node/9306566576",
      "properties": {
        "timestamp": "2021-12-02T15:00:25Z",
        "version": 1,
        "changeset": 114486830,
        "addr:city": "Campo Grande",
        "addr:housenumber": "52",
        "addr:postcode": "79092-250",
        "addr:street": "Avenida Manoel Joaquim de Moraes",
        "addr:suburb": "Jardim Leblon",
        "name": "Lagoa Bike Shop",
        "opening_hours": "Mo-Sa 08:00-18:00",
        "operator": "Lagoa Bike Shop",
        "phone": "+5567981728136",
        "service:bicycle:Bicycle_Sales_and_Service": "yes",
        "service:bicycle:repair": "yes",
        "shop": "bicycle",
        "id": "node/9306566576"
      },
      "geometry": {
        "type": "Point",
        "coordinates": [
          -54.6544588,
          -20.4911744
        ]
      }
    },
    {
      "type": "Feature",
      "id": "node/9306591835",
      "properties": {
        "timestamp": "2023-08-19T07:31:12Z",
        "version": 2,
        "changeset": 140083690,
        "addr:city": "Campo Grande",
        "addr:housenumber": "964",
        "addr:postcode": "79117-190",
        "addr:street": "Rua Cotegipe",
        "addr:suburb": "Coophasul",
        "name": "Stillus Bike",
        "opening_hours": "Mo-Sa 08:00-18:00",
        "operator": "Stillus Bike",
        "phone": "+5567992599420",
        "service:bicycle:Bicycle_Sales_and_Service": "yes",
        "service:bicycle:repair": "yes",
        "shop": "bicycle",
        "id": "node/9306591835"
      },
      "geometry": {
        "type": "Point",
        "coordinates": [
          -54.6353866,
          -20.4216736
        ]
      }
    },
    {
      "type": "Feature",
      "id": "node/9306601595",
      "properties": {
        "timestamp": "2021-12-02T15:31:35Z",
        "version": 1,
        "changeset": 114487943,
        "addr:city": "Campo Grande",
        "addr:housenumber": "1391",
        "addr:postcode": "79033-480",
        "addr:street": "Rua Jamil Basmage",
        "addr:suburb": "Mata do Jacinto",
        "name": "Bicicletaria Vaz",
        "operator": "Bicicletaria Vaz",
        "shop": "bicycle",
        "id": "node/9306601595"
      },
      "geometry": {
        "type": "Point",
        "coordinates": [
          -54.5717981,
          -20.4175561
        ]
      }
    },
    {
      "type": "Feature",
      "id": "node/9306610815",
      "properties": {
        "timestamp": "2023-08-19T07:31:14Z",
        "version": 2,
        "changeset": 140083690,
        "addr:city": "Campo Grande",
        "addr:housenumber": "543",
        "addr:postcode": "79009-790",
        "addr:street": "Avenida Tamandaré",
        "addr:suburb": "Vila Planalto",
        "name": "Ciclo Tamandaré e Peças",
        "opening_hours": "Mo-Sa 08:00-18:00",
        "operator": "Ciclo Tamandaré e Peças",
        "phone": "+556732132760",
        "service:bicycle:Bicycle_Sales_and_Service": "yes",
        "service:bicycle:repair": "yes",
        "shop": "bicycle",
        "id": "node/9306610815"
      },
      "geometry": {
        "type": "Point",
        "coordinates": [
          -54.6338225,
          -20.4557768
        ]
      }
    },
    {
      "type": "Feature",
      "id": "node/9306696437",
      "properties": {
        "timestamp": "2021-12-02T16:19:45Z",
        "version": 1,
        "changeset": 114489748,
        "addr:city": "Campo  Grande",
        "addr:postcode": "79023-300",
        "addr:street": "Rua Abdalla Roder",
        "addr:suburb": "Vila Margarida",
        "name": "Bicicletaria Victor",
        "operator": "Bicicletaria Victor",
        "shop": "bicycle",
        "id": "node/9306696437"
      },
      "geometry": {
        "type": "Point",
        "coordinates": [
          -54.5863473,
          -20.4317674
        ]
      }
    },
    {
      "type": "Feature",
      "id": "node/9306707375",
      "properties": {
        "timestamp": "2021-12-02T16:27:55Z",
        "version": 1,
        "changeset": 114489988,
        "addr:city": "Campo Grande",
        "addr:housenumber": "95",
        "addr:postcode": "79013-220",
        "addr:street": "Rua das Balsas",
        "addr:suburb": "Estrela do Sul",
        "name": "BICICLETARIA-CICLO CENTER PARK",
        "operator": "BICICLETARIA-CICLO CENTER PARK",
        "shop": "bicycle",
        "id": "node/9306707375"
      },
      "geometry": {
        "type": "Point",
        "coordinates": [
          -54.5976862,
          -20.4239982
        ]
      }
    },
    {
      "type": "Feature",
      "id": "node/9306713773",
      "properties": {
        "timestamp": "2023-08-19T07:31:17Z",
        "version": 3,
        "changeset": 140083690,
        "addr:city": "Campo Grande",
        "addr:housenumber": "422",
        "addr:postcode": "79011-290",
        "addr:street": "Rua Santo Angelo",
        "addr:suburb": "Coronel Antonino",
        "name": "Martinelli Bicicletas",
        "opening_hours": "Mo-Fr 07:00-17:30",
        "operator": "Martinelli Bicicletas",
        "phone": "+55 (67) 98193-6931",
        "shop": "bicycle",
        "id": "node/9306713773"
      },
      "geometry": {
        "type": "Point",
        "coordinates": [
          -54.5949141,
          -20.4300013
        ]
      }
    },
    {
      "type": "Feature",
      "id": "node/9306979901",
      "properties": {
        "timestamp": "2023-08-19T07:31:18Z",
        "version": 2,
        "changeset": 140083690,
        "addr:city": "Campo Grande",
        "addr:housenumber": "921",
        "addr:postcode": "79063-060",
        "addr:street": "Rua Elvira Pacheco Sampaio",
        "addr:suburb": "Universitário",
        "name": "Leandro Bike",
        "opening_hours": "Mo-Sa 08:00-18:00",
        "operator": "Leandro Bike",
        "phone": "+5567981003941",
        "service:bicycle:Bicycle_Sales_and_Service": "yes",
        "service:bicycle:repair": "yes",
        "shop": "bicycle",
        "website": "https://leandro-bike.negocio.site/",
        "id": "node/9306979901"
      },
      "geometry": {
        "type": "Point",
        "coordinates": [
          -54.598858,
          -20.522204
        ]
      }
    },
    {
      "type": "Feature",
      "id": "node/9306979902",
      "properties": {
        "timestamp": "2022-03-12T15:44:01Z",
        "version": 3,
        "changeset": 118402717,
        "addr:city": "Campo Grande",
        "addr:housenumber": "4159",
        "addr:postcode": "79062-310",
        "addr:street": "Avenida Guaicurus",
        "addr:suburb": "Alves Pereira",
        "name": "Ciclo Toni",
        "opening_hours": "Mo-Sa 08:00-18:00",
        "operator": "Ciclo Toni",
        "phone": "+55 (67) 3387-2903",
        "service:bicycle:Bicycle_Sales_and_Service": "yes",
        "service:bicycle:repair": "yes",
        "shop": "bicycle",
        "website": "https://ciclotoni.com.br/",
        "id": "node/9306979902"
      },
      "geometry": {
        "type": "Point",
        "coordinates": [
          -54.6034613,
          -20.5268399
        ]
      }
    },
    {
      "type": "Feature",
      "id": "node/9306979903",
      "properties": {
        "timestamp": "2021-12-02T18:26:54Z",
        "version": 1,
        "changeset": 114493824,
        "addr:city": "Campo Grande",
        "addr:housenumber": "204",
        "addr:postcode": "79072-263",
        "addr:street": "Rua Jabuti",
        "addr:suburb": "Centro Oeste",
        "name": "Ciclo Willyan",
        "operator": "Ciclo Willyan",
        "shop": "bicycle",
        "id": "node/9306979903"
      },
      "geometry": {
        "type": "Point",
        "coordinates": [
          -54.6106699,
          -20.5397756
        ]
      }
    },
    {
      "type": "Feature",
      "id": "node/9306979904",
      "properties": {
        "timestamp": "2021-12-02T18:26:54Z",
        "version": 1,
        "changeset": 114493824,
        "addr:city": "Campo Grande",
        "addr:postcode": "79071-290",
        "addr:street": "Avenida Pedro Paulo Soares de Oliveira",
        "addr:suburb": "Universitarias",
        "name": "Ciclo Vianna",
        "operator": "Ciclo Vianna",
        "shop": "bicycle",
        "id": "node/9306979904"
      },
      "geometry": {
        "type": "Point",
        "coordinates": [
          -54.6217602,
          -20.5355824
        ]
      }
    },
    {
      "type": "Feature",
      "id": "node/9306979905",
      "properties": {
        "timestamp": "2023-08-19T07:31:19Z",
        "version": 3,
        "changeset": 140083690,
        "addr:city": "Campo Grande",
        "addr:housenumber": "1731",
        "addr:postcode": "79070-140",
        "addr:street": "Rua Ana Luiza de Souza",
        "addr:suburb": "Pioneiros",
        "name": "Ciclo Reis Pioneiros",
        "opening_hours": "Mo-Sa 08:00-18:00",
        "operator": "Ciclo Reis Pioneiros",
        "phone": "+55 (67) 3022-0074",
        "service:bicycle:Bicycle_Sales_and_Service": "yes",
        "service:bicycle:repair": "yes",
        "shop": "bicycle",
        "id": "node/9306979905"
      },
      "geometry": {
        "type": "Point",
        "coordinates": [
          -54.6192211,
          -20.5205008
        ]
      }
    },
    {
      "type": "Feature",
      "id": "node/9307015032",
      "properties": {
        "timestamp": "2021-12-02T18:45:28Z",
        "version": 1,
        "changeset": 114494355,
        "addr:city": "Campo Grande",
        "addr:housenumber": "946",
        "addr:postcode": "79084-200",
        "addr:street": "Avenida Arquiteto Vila Nova Artigas",
        "addr:suburb": "Aero Rancho",
        "name": "Bicicletaria Do Ceará",
        "operator": "Bicicletaria Do Ceará",
        "shop": "bicycle",
        "id": "node/9307015032"
      },
      "geometry": {
        "type": "Point",
        "coordinates": [
          -54.644692,
          -20.518393
        ]
      }
    },
    {
      "type": "Feature",
      "id": "node/9307015033",
      "properties": {
        "timestamp": "2021-12-02T18:45:28Z",
        "version": 1,
        "changeset": 114494355,
        "addr:city": "Campo Grande",
        "addr:housenumber": "882",
        "addr:postcode": "79075-120",
        "addr:street": "Rua Durando Pereira da Silva",
        "addr:suburb": "Parque do Lageado",
        "name": "Bicicletaria Trimania",
        "operator": "Bicicletaria Trimania",
        "shop": "bicycle",
        "id": "node/9307015033"
      },
      "geometry": {
        "type": "Point",
        "coordinates": [
          -54.6517812,
          -20.5582635
        ]
      }
    },
    {
      "type": "Feature",
      "id": "node/9307015034",
      "properties": {
        "timestamp": "2021-12-02T18:45:28Z",
        "version": 1,
        "changeset": 114494355,
        "addr:city": "Campo Grande",
        "addr:street": "Rua Nelson Chita Nicolau",
        "addr:suburb": "Parque do Lageado",
        "name": "Ciclo Peças Pantanal",
        "operator": "Ciclo Peças Pantanal",
        "shop": "bicycle",
        "id": "node/9307015034"
      },
      "geometry": {
        "type": "Point",
        "coordinates": [
          -54.6508502,
          -20.5608101
        ]
      }
    },
    {
      "type": "Feature",
      "id": "node/9307015037",
      "properties": {
        "timestamp": "2021-12-02T18:45:28Z",
        "version": 1,
        "changeset": 114494355,
        "addr:city": "Campo Grande",
        "addr:housenumber": "794",
        "addr:postcode": "79073-030",
        "addr:street": "Rua do Patrocínio",
        "addr:suburb": "Jardim Centro-Oeste",
        "name": "LN BIKE",
        "operator": "LN BIKE",
        "shop": "bicycle",
        "id": "node/9307015037"
      },
      "geometry": {
        "type": "Point",
        "coordinates": [
          -54.6164407,
          -20.5524519
        ]
      }
    },
    {
      "type": "Feature",
      "id": "node/9307015038",
      "properties": {
        "timestamp": "2021-12-02T18:45:28Z",
        "version": 1,
        "changeset": 114494355,
        "addr:city": "Campo Grande",
        "addr:postcode": "79073-130",
        "addr:street": "Rua Ana Jacinta de Oliveira",
        "addr:suburb": "Jardim Centro-Oeste",
        "name": "Ciclo Chicão",
        "operator": "Ciclo Chicão",
        "shop": "bicycle",
        "id": "node/9307015038"
      },
      "geometry": {
        "type": "Point",
        "coordinates": [
          -54.6068736,
          -20.5530822
        ]
      }
    },
    {
      "type": "Feature",
      "id": "node/9307015039",
      "properties": {
        "timestamp": "2021-12-02T18:45:28Z",
        "version": 1,
        "changeset": 114494355,
        "addr:city": "Campo Grande",
        "addr:postcode": "79072-472",
        "addr:street": "Rua Paschoal Carille",
        "addr:suburb": "Jardim Centro-Oeste",
        "name": "Ciclo Hora",
        "operator": "Ciclo Hora",
        "shop": "bicycle",
        "id": "node/9307015039"
      },
      "geometry": {
        "type": "Point",
        "coordinates": [
          -54.6043205,
          -20.5535695
        ]
      }
    },
    {
      "type": "Feature",
      "id": "node/9307015040",
      "properties": {
        "timestamp": "2021-12-02T18:45:28Z",
        "version": 1,
        "changeset": 114494355,
        "addr:city": "Campo Grande",
        "addr:housenumber": "854",
        "addr:postcode": "79064-370",
        "addr:street": "Rua Minas Novas",
        "addr:suburb": "Moreninha",
        "name": "Ciclo Morena",
        "operator": "Ciclo Morena",
        "shop": "bicycle",
        "id": "node/9307015040"
      },
      "geometry": {
        "type": "Point",
        "coordinates": [
          -54.587013,
          -20.5531275
        ]
      }
    },
    {
      "type": "Feature",
      "id": "node/9307015041",
      "properties": {
        "timestamp": "2021-12-02T18:45:28Z",
        "version": 1,
        "changeset": 114494355,
        "addr:city": "Campo Grande",
        "addr:housenumber": "138",
        "addr:postcode": "79065-100",
        "addr:street": "Rua Abélia",
        "addr:suburb": "Moreninha",
        "name": "Ciclo Miner",
        "operator": "Ciclo Miner",
        "shop": "bicycle",
        "id": "node/9307015041"
      },
      "geometry": {
        "type": "Point",
        "coordinates": [
          -54.5795888,
          -20.5582865
        ]
      }
    },
    {
      "type": "Feature",
      "id": "node/9307015042",
      "properties": {
        "timestamp": "2021-12-02T18:45:28Z",
        "version": 1,
        "changeset": 114494355,
        "addr:city": "Campo Grande",
        "addr:housenumber": "196",
        "addr:postcode": "79065-420",
        "addr:street": "Rua Ingá Doce",
        "addr:suburb": "Morenhinha II",
        "name": "Bike Center",
        "operator": "Bike Center",
        "shop": "bicycle",
        "id": "node/9307015042"
      },
      "geometry": {
        "type": "Point",
        "coordinates": [
          -54.5759716,
          -20.55642
        ]
      }
    },
    {
      "type": "Feature",
      "id": "node/9307015043",
      "properties": {
        "timestamp": "2021-12-02T18:45:28Z",
        "version": 1,
        "changeset": 114494355,
        "addr:city": "Campo Grande",
        "addr:housenumber": "447",
        "addr:postcode": "79065-070",
        "addr:street": "Rua Anacá",
        "addr:suburb": "Morenhinha II",
        "name": "Ciclo Éder",
        "operator": "Ciclo Éder",
        "shop": "bicycle",
        "id": "node/9307015043"
      },
      "geometry": {
        "type": "Point",
        "coordinates": [
          -54.5765601,
          -20.5550959
        ]
      }
    },
    {
      "type": "Feature",
      "id": "node/9307082859",
      "properties": {
        "timestamp": "2022-01-28T15:32:05Z",
        "version": 2,
        "changeset": 116712226,
        "addr:city": "Campo Grande",
        "addr:housenumber": "4362",
        "addr:postcode": "79071-000",
        "addr:street": "Avenida Guaicurus",
        "addr:suburb": "Jardim Colibri",
        "name": "Ciclo Vitor",
        "opening_hours": "Mo-Sa 07:00-18:00",
        "operator": "Ciclo Vitor",
        "phone": "+55 (67) 99228-0456",
        "shop": "bicycle",
        "id": "node/9307082859"
      },
      "geometry": {
        "type": "Point",
        "coordinates": [
          -54.605796,
          -20.527636
        ]
      }
    },
    {
      "type": "Feature",
      "id": "node/9307082860",
      "properties": {
        "timestamp": "2021-12-02T18:58:50Z",
        "version": 1,
        "changeset": 114494777,
        "addr:city": "Campo Grande",
        "addr:housenumber": "366",
        "addr:postcode": "79062-302",
        "addr:street": "Rua Acaiá",
        "addr:suburb": "Jardim Taruma",
        "name": "Nilto Bike Moto",
        "opening_hours": "Mo-Sa 07:00-18:00",
        "operator": "Nilto Bike Moto",
        "phone": "+5567991669425",
        "shop": "bicycle",
        "id": "node/9307082860"
      },
      "geometry": {
        "type": "Point",
        "coordinates": [
          -54.668936,
          -20.5435199
        ]
      }
    },
    {
      "type": "Feature",
      "id": "node/9307082861",
      "properties": {
        "timestamp": "2023-08-19T07:31:20Z",
        "version": 2,
        "changeset": 140083690,
        "addr:city": "Campo Grande",
        "addr:housenumber": "835",
        "addr:postcode": "79097-210",
        "addr:street": "Avenida Marinha",
        "addr:suburb": "Coophavila II",
        "name": "Ciclo Peças Rezende",
        "opening_hours": "Mo-Sa 08:00-18:00",
        "operator": "Ciclo Peças Rezende",
        "phone": "+5567996829463",
        "shop": "bicycle",
        "id": "node/9307082861"
      },
      "geometry": {
        "type": "Point",
        "coordinates": [
          -54.6688531,
          -20.5375691
        ]
      }
    },
    {
      "type": "Feature",
      "id": "node/9307082862",
      "properties": {
        "timestamp": "2021-12-02T18:58:50Z",
        "version": 1,
        "changeset": 114494777,
        "addr:city": "Campo Grande",
        "addr:housenumber": "754",
        "addr:postcode": "79097-020",
        "addr:street": "Rua Maracaibo",
        "addr:suburb": "Coophavila II",
        "name": "Bicicletaria Van Bike",
        "opening_hours": "Mo-Fr 09:00-18:00",
        "operator": "Bicicletaria Van Bike",
        "phone": "+5567992793620",
        "shop": "bicycle",
        "id": "node/9307082862"
      },
      "geometry": {
        "type": "Point",
        "coordinates": [
          -54.6700289,
          -20.5334645
        ]
      }
    },
    {
      "type": "Feature",
      "id": "node/9307082863",
      "properties": {
        "timestamp": "2021-12-13T19:48:06Z",
        "version": 2,
        "changeset": 114895872,
        "addr:city": "Campo Grande",
        "addr:street": "Rua Souto Maior",
        "addr:suburb": "Vila São Jorge da Lagoa",
        "name": "Ciclo Alemão",
        "opening_hours": "Mo-Fr 09:00-18:00",
        "operator": "Ciclo Alemão",
        "phone": "+5567992713781",
        "service:bicycle:pump": "yes",
        "service:bicycle:repair": "yes",
        "service:bicycle:retail": "yes",
        "service:bicycle:second_hand": "yes",
        "shop": "bicycle",
        "id": "node/9307082863"
      },
      "geometry": {
        "type": "Point",
        "coordinates": [
          -54.665856,
          -20.5209045
        ]
      }
    },
    {
      "type": "Feature",
      "id": "node/9307082864",
      "properties": {
        "timestamp": "2021-12-02T18:58:50Z",
        "version": 1,
        "changeset": 114494777,
        "addr:city": "Campo Grande",
        "addr:housenumber": "1063",
        "addr:postcode": "79094-170",
        "addr:street": "Rua Aicás",
        "addr:suburb": "Tijuca",
        "name": "Bicicletaria do Balbino",
        "opening_hours": "Mo-Su 07:00-17:00",
        "operator": "Bicicletaria do Balbino",
        "phone": "+5567992800535",
        "shop": "bicycle",
        "id": "node/9307082864"
      },
      "geometry": {
        "type": "Point",
        "coordinates": [
          -54.6682101,
          -20.5188439
        ]
      }
    },
    {
      "type": "Feature",
      "id": "node/9308781459",
      "properties": {
        "timestamp": "2023-08-19T07:31:21Z",
        "version": 3,
        "changeset": 140083690,
        "addr:city": "Campo Grande",
        "addr:housenumber": "190",
        "addr:postcode": "79013-760",
        "addr:street": "Rua Jacutinga",
        "addr:suburb": "Morada Verde",
        "name": "Bicicletaria Lanconi",
        "opening_hours": "Mo-Sa 07:30-18:00",
        "operator": "Bicicletaria Lanconi",
        "phone": "+55 (67) 3351-8493",
        "service:bicycle:bicycle": "yes",
        "service:bicycle:repair": "yes",
        "service:bicycle:sales": "yes",
        "shop": "bicycle",
        "id": "node/9308781459"
      },
      "geometry": {
        "type": "Point",
        "coordinates": [
          -54.5865163,
          -20.414946
        ]
      }
    },
    {
      "type": "Feature",
      "id": "node/9308804636",
      "properties": {
        "timestamp": "2022-03-12T17:47:05Z",
        "version": 2,
        "changeset": 118407120,
        "addr:city": "Campo Grande",
        "addr:housenumber": "130",
        "addr:postcode": "79104-260",
        "addr:street": "Avenida 9",
        "addr:suburb": "Vila Nova Campo Grande",
        "name": "Josué Bicicletas",
        "opening_hours": "Mo-Sa 08:00-18:00",
        "operator": "Josué Bicicletas",
        "phone": "+55 (67) 3363-2932",
        "shop": "bicycle",
        "website": "http://ciclonovacampogrande.vitrinevirtual.net/",
        "id": "node/9308804636"
      },
      "geometry": {
        "type": "Point",
        "coordinates": [
          -54.6864092,
          -20.4589437
        ]
      }
    },
    {
      "type": "Feature",
      "id": "node/9308858890",
      "properties": {
        "timestamp": "2022-03-12T15:44:01Z",
        "version": 2,
        "changeset": 118402717,
        "addr:city": "Campo Grande",
        "addr:housenumber": "173",
        "addr:street": "Rua Padre Burnier",
        "addr:suburb": "Jardim Samambaia",
        "name": "Bicicletaria Dominator Peças e Serviços",
        "opening_hours": "Mo-Fr 07:00-17:00",
        "operator": "Bicicletaria Dominator Peças e Serviços",
        "phone": "+55 (67) 99244-3636",
        "shop": "bicycle",
        "website": "https://bicicletaria-dominator-pecas-e-servicos.negocio.site/",
        "id": "node/9308858890"
      },
      "geometry": {
        "type": "Point",
        "coordinates": [
          -54.5492474,
          -20.4768002
        ]
      }
    },
    {
      "type": "Feature",
      "id": "node/9308858891",
      "properties": {
        "timestamp": "2021-12-03T16:12:16Z",
        "version": 1,
        "changeset": 114528646,
        "addr:city": "Campo Grande",
        "addr:housenumber": "43",
        "addr:postcode": "79041-014",
        "addr:street": "Rua Terena",
        "addr:suburb": "Tiradentes",
        "name": "Bicicletaria Águia",
        "operator": "Bicicletaria Águia",
        "shop": "bicycle",
        "id": "node/9308858891"
      },
      "geometry": {
        "type": "Point",
        "coordinates": [
          -54.5700457,
          -20.4689947
        ]
      }
    },
    {
      "type": "Feature",
      "id": "node/9308874185",
      "properties": {
        "timestamp": "2022-03-12T15:44:01Z",
        "version": 2,
        "changeset": 118402717,
        "addr:city": "Campo Grande",
        "addr:housenumber": "524",
        "addr:postcode": "79060-570",
        "addr:street": "Rua Fernandes da Fonseca",
        "addr:suburb": "Vila Santo Eugenio",
        "name": "Rabugento Bike",
        "opening_hours": "Mo-Sa 08:00-18:00",
        "operator": "Rabugento Bike",
        "phone": "+55 (67) 99261-3663",
        "shop": "bicycle",
        "id": "node/9308874185"
      },
      "geometry": {
        "type": "Point",
        "coordinates": [
          -54.5903254,
          -20.5196861
        ]
      }
    },
    {
      "type": "Feature",
      "id": "node/9308874186",
      "properties": {
        "timestamp": "2021-12-03T16:24:31Z",
        "version": 1,
        "changeset": 114528976,
        "addr:city": "Campo Grande",
        "addr:postcode": "79080-430",
        "addr:street": "Rua Frei Henrique Coimbra",
        "addr:suburb": "Vila Progresso",
        "name": "Bicicletaria",
        "opening_hours": "Mo-Sa 07:00-18:00",
        "operator": "Bicicletaria",
        "shop": "bicycle",
        "id": "node/9308874186"
      },
      "geometry": {
        "type": "Point",
        "coordinates": [
          -54.6086992,
          -20.4921916
        ]
      }
    },
    {
      "type": "Feature",
      "id": "node/9308874187",
      "properties": {
        "timestamp": "2021-12-03T16:24:31Z",
        "version": 1,
        "changeset": 114528976,
        "addr:city": "Campo Grande",
        "addr:housenumber": "2398",
        "addr:postcode": "79081-310",
        "addr:street": "Avenida das Bandeiras",
        "addr:suburb": "Vila Piratininga",
        "name": "Ciclo Meira",
        "operator": "Ciclo Meira",
        "shop": "bicycle",
        "id": "node/9308874187"
      },
      "geometry": {
        "type": "Point",
        "coordinates": [
          -54.629338,
          -20.4923843
        ]
      }
    },
    {
      "type": "Feature",
      "id": "node/9308874188",
      "properties": {
        "timestamp": "2021-12-03T16:24:31Z",
        "version": 1,
        "changeset": 114528976,
        "addr:city": "Campo Grande",
        "addr:housenumber": "810",
        "addr:postcode": "79092-250",
        "addr:street": "Avenida Manoel Joaquim de Moraes",
        "addr:suburb": "Jardim Leblon",
        "name": "Ciclo Mountain Bike",
        "opening_hours": "Mo-Sa 07:00-18:00",
        "operator": "Ciclo Mountain Bike",
        "shop": "bicycle",
        "id": "node/9308874188"
      },
      "geometry": {
        "type": "Point",
        "coordinates": [
          -54.6565125,
          -20.4979691
        ]
      }
    },
    {
      "type": "Feature",
      "id": "node/9308874189",
      "properties": {
        "timestamp": "2022-03-12T15:44:01Z",
        "version": 2,
        "changeset": 118402717,
        "addr:city": "Campo Grande",
        "addr:housenumber": "531",
        "addr:postcode": "79091-844",
        "addr:street": "Rua dos Pássaros",
        "addr:suburb": "Buriti",
        "name": "Onbike",
        "opening_hours": "Mo-Sa 08:00-18:00",
        "operator": "Onbike",
        "phone": "+55 (67) 98448-2198",
        "shop": "bicycle",
        "id": "node/9308874189"
      },
      "geometry": {
        "type": "Point",
        "coordinates": [
          -54.6675114,
          -20.4907013
        ]
      }
    },
    {
      "type": "Feature",
      "id": "node/9308920963",
      "properties": {
        "timestamp": "2022-03-12T15:44:01Z",
        "version": 2,
        "changeset": 118402717,
        "addr:city": "Campo Grande",
        "addr:postcode": "79092-250",
        "addr:street": "Avenida Manoel Joaquim de Morais",
        "addr:suburb": "Tijuca",
        "name": "Ciclo Trevo",
        "opening_hours": "Mo-Sa 08:00-18:00",
        "operator": "Ciclo Trevo",
        "phone": "+55 (67) 99221-9325",
        "shop": "bicycle",
        "id": "node/9308920963"
      },
      "geometry": {
        "type": "Point",
        "coordinates": [
          -54.6583093,
          -20.505509
        ]
      }
    },
    {
      "type": "Feature",
      "id": "node/9308920964",
      "properties": {
        "timestamp": "2021-12-03T16:33:41Z",
        "version": 1,
        "changeset": 114529218,
        "addr:city": "Campo Grande",
        "addr:housenumber": "955",
        "addr:postcode": "79094050",
        "addr:street": "Avenida Conde de Boa Vista",
        "addr:suburb": "Tijuca",
        "name": "Gentil bike",
        "operator": "Gentil bike",
        "shop": "bicycle",
        "id": "node/9308920964"
      },
      "geometry": {
        "type": "Point",
        "coordinates": [
          -54.6642294,
          -20.5096676
        ]
      }
    },
    {
      "type": "Feature",
      "id": "node/9308920965",
      "properties": {
        "timestamp": "2021-12-03T16:33:41Z",
        "version": 1,
        "changeset": 114529218,
        "addr:city": "Campo Grande",
        "addr:housenumber": "951",
        "addr:postcode": "79094050",
        "addr:street": "Avenida Conde de Boa Vista",
        "addr:suburb": "Tijuca",
        "name": "Navarro's Ciclo Bike",
        "operator": "Navarro's Ciclo Bike",
        "shop": "bicycle",
        "id": "node/9308920965"
      },
      "geometry": {
        "type": "Point",
        "coordinates": [
          -54.6645912,
          -20.5099189
        ]
      }
    },
    {
      "type": "Feature",
      "id": "node/9308920966",
      "properties": {
        "timestamp": "2022-03-12T15:44:01Z",
        "version": 2,
        "changeset": 118402717,
        "addr:city": "Campo Grande",
        "addr:housenumber": "2387",
        "addr:postcode": "79093-290",
        "addr:street": "Avenida General Alberto Carlos de Mendonça Lima",
        "addr:suburb": "Jardim São Conrado",
        "name": "Bicicletaria ciclo sport",
        "opening_hours": "Mo-Sa 07:00-18:00",
        "operator": "Bicicletaria ciclo sport",
        "phone": "+55 (67) 3385-1763",
        "shop": "bicycle",
        "id": "node/9308920966"
      },
      "geometry": {
        "type": "Point",
        "coordinates": [
          -54.6759293,
          -20.500572
        ]
      }
    },
    {
      "type": "Feature",
      "id": "node/9308920967",
      "properties": {
        "timestamp": "2022-02-14T21:07:55Z",
        "version": 2,
        "changeset": 117410894,
        "addr:city": "Campo Grande",
        "addr:housenumber": "889",
        "addr:postcode": "79096-711",
        "addr:street": "Rua Velia Berti de Souza",
        "addr:suburb": "Portal Caiobá",
        "name": "BICICLETARIA DO TECO",
        "operator": "BICICLETARIA DO TECO",
        "phone": "+55 67 9 9338 7960",
        "shop": "bicycle",
        "id": "node/9308920967"
      },
      "geometry": {
        "type": "Point",
        "coordinates": [
          -54.6943087,
          -20.5139831
        ]
      }
    },
    {
      "type": "Feature",
      "id": "node/9308920968",
      "properties": {
        "timestamp": "2021-12-03T16:33:41Z",
        "version": 1,
        "changeset": 114529218,
        "addr:city": "Campo Grande",
        "addr:housenumber": "194",
        "addr:postcode": "79096-826",
        "addr:street": "Rua Pedro Canci Filho",
        "addr:suburb": "Portal Caiobá",
        "name": "Guito Bike",
        "operator": "Guito Bike",
        "shop": "bicycle",
        "id": "node/9308920968"
      },
      "geometry": {
        "type": "Point",
        "coordinates": [
          -54.6865401,
          -20.5153482
        ]
      }
    },
    {
      "type": "Feature",
      "id": "node/9308963291",
      "properties": {
        "timestamp": "2021-12-03T17:00:32Z",
        "version": 1,
        "changeset": 114530040,
        "addr:city": "Campo Grande",
        "addr:housenumber": "953",
        "addr:postcode": "79084-050",
        "addr:street": "Avenida Presidente Tancredo Neves",
        "addr:suburb": "Aero Rancho",
        "name": "Ciclomar",
        "opening_hours": "Mo-Sa 07:00-18:00",
        "operator": "Ciclomar",
        "shop": "bicycle",
        "id": "node/9308963291"
      },
      "geometry": {
        "type": "Point",
        "coordinates": [
          -54.6456292,
          -20.5170953
        ]
      }
    },
    {
      "type": "Feature",
      "id": "node/9308963292",
      "properties": {
        "timestamp": "2023-12-31T02:16:44Z",
        "version": 3,
        "changeset": 145718595,
        "addr:city": "Campo Grande",
        "addr:housenumber": "1134",
        "addr:postcode": "79083-180",
        "addr:street": "Avenida Raquel de Queiroz",
        "addr:suburb": "Aero Rancho",
        "mobile": "+55 67 99132 8954",
        "name": "Ciclo J.I.",
        "opening_hours": "Mo-Sa 07:00-18:00; PH off",
        "shop": "bicycle",
        "id": "node/9308963292"
      },
      "geometry": {
        "type": "Point",
        "coordinates": [
          -54.6480379,
          -20.5228026
        ]
      }
    },
    {
      "type": "Feature",
      "id": "node/9308963293",
      "properties": {
        "timestamp": "2022-03-12T15:44:01Z",
        "version": 2,
        "changeset": 118402717,
        "addr:city": "Campo Grande",
        "addr:housenumber": "86",
        "addr:postcode": "79074-095",
        "addr:street": "Rua Bom Jesus",
        "addr:suburb": "Vila Nogueira",
        "name": "Bicicletária ciclo baike",
        "opening_hours": "Mo-Sa 07:00-15:00",
        "operator": "Bicicletária ciclo baike",
        "phone": "+55 (67) 99126-2878",
        "shop": "bicycle",
        "website": "https://bicicletaria-ciclo-baike.negocio.site/?utm_source=gmb&utm_medium=referral",
        "id": "node/9308963293"
      },
      "geometry": {
        "type": "Point",
        "coordinates": [
          -54.6397962,
          -20.5287258
        ]
      }
    },
    {
      "type": "Feature",
      "id": "node/9308963294",
      "properties": {
        "timestamp": "2022-03-12T15:44:01Z",
        "version": 2,
        "changeset": 118402717,
        "addr:city": "Campo Grande",
        "addr:housenumber": "597",
        "addr:postcode": "79074-120",
        "addr:street": "Rua Araçatuba",
        "addr:suburb": "Vila Aimoré",
        "name": "Ciclo Edy",
        "opening_hours": "Mo-Sa 08:00-17:00",
        "operator": "Ciclo Edy",
        "phone": "+55 (67) 99196-8353",
        "shop": "bicycle",
        "id": "node/9308963294"
      },
      "geometry": {
        "type": "Point",
        "coordinates": [
          -54.6405465,
          -20.5347844
        ]
      }
    },
    {
      "type": "Feature",
      "id": "node/9308963296",
      "properties": {
        "timestamp": "2022-03-12T15:44:01Z",
        "version": 3,
        "changeset": 118402717,
        "addr:city": "Campo Grande",
        "addr:housenumber": "787",
        "addr:postcode": "79081-040",
        "addr:street": "Avenida Manoel da Costa Lima",
        "addr:suburb": "Vila Ipiranga",
        "name": "Bicicletaria Souza",
        "opening_hours": "Mo-Sa 07:00-18:00",
        "operator": "Bicicletaria Souza",
        "phone": "+55 (67) 99187-8642",
        "service:bicycle:pump": "yes",
        "service:bicycle:retail": "yes",
        "shop": "bicycle",
        "id": "node/9308963296"
      },
      "geometry": {
        "type": "Point",
        "coordinates": [
          -54.6236299,
          -20.4966812
        ]
      }
    },
    {
      "type": "Feature",
      "id": "node/9308963297",
      "properties": {
        "timestamp": "2022-03-12T15:44:01Z",
        "version": 2,
        "changeset": 118402717,
        "addr:city": "Campo Grande",
        "addr:housenumber": "463",
        "addr:postcode": "79070-140",
        "addr:street": "Rua Ana Luiza de Souza",
        "addr:suburb": "Universitário",
        "name": "Bicicletaria Nascimento",
        "opening_hours": "Mo-Sa 07:00-18:00",
        "operator": "Bicicletaria Nascimento",
        "phone": "+55 (67) 3387-4397",
        "shop": "bicycle",
        "id": "node/9308963297"
      },
      "geometry": {
        "type": "Point",
        "coordinates": [
          -54.6078144,
          -20.51405
        ]
      }
    },
    {
      "type": "Feature",
      "id": "node/9308963298",
      "properties": {
        "timestamp": "2021-12-03T17:00:32Z",
        "version": 1,
        "changeset": 114530040,
        "addr:city": "Campo Grande",
        "addr:housenumber": "841",
        "addr:postcode": "79072-269",
        "addr:street": "Rua Catiguá",
        "addr:suburb": "Jardim Canguru",
        "name": "Ciclo MS",
        "operator": "Ciclo MS",
        "shop": "bicycle",
        "id": "node/9308963298"
      },
      "geometry": {
        "type": "Point",
        "coordinates": [
          -54.6074334,
          -20.542331
        ]
      }
    },
    {
      "type": "Feature",
      "id": "node/9308963300",
      "properties": {
        "timestamp": "2022-03-12T15:44:01Z",
        "version": 2,
        "changeset": 118402717,
        "addr:city": "Campo Grande",
        "addr:postcode": "79060-000",
        "addr:street": "Rua Anacá",
        "addr:suburb": "Morenhinha II",
        "name": "Ciclo Rafa",
        "operator": "Ciclo Rafa",
        "phone": "+55 (67) 99342-2909",
        "shop": "bicycle",
        "id": "node/9308963300"
      },
      "geometry": {
        "type": "Point",
        "coordinates": [
          -54.5751169,
          -20.5555493
        ]
      }
    },
    {
      "type": "Feature",
      "id": "node/9308963301",
      "properties": {
        "timestamp": "2021-12-03T17:00:32Z",
        "version": 1,
        "changeset": 114530040,
        "addr:city": "Campo Grande",
        "addr:housenumber": "336",
        "addr:postcode": "79065-050",
        "addr:street": "Rua Peruíbe",
        "addr:suburb": "Moreninha II",
        "name": "Ciclo Pedal de Ouro",
        "operator": "Ciclo Pedal de Ouro",
        "shop": "bicycle",
        "id": "node/9308963301"
      },
      "geometry": {
        "type": "Point",
        "coordinates": [
          -54.5751331,
          -20.5510773
        ]
      }
    },
    {
      "type": "Feature",
      "id": "node/9309007436",
      "properties": {
        "timestamp": "2021-12-03T17:18:30Z",
        "version": 1,
        "changeset": 114530578,
        "addr:city": "Campo Grande",
        "addr:housenumber": "1861",
        "addr:postcode": "79003-020",
        "addr:street": "Rua Joaquim Murtinho",
        "addr:suburb": "Itanhangá Park",
        "name": "Paraná Bikes - Loja 1",
        "opening_hours": "Mo-Fr 09:00-18:00",
        "operator": "Paraná Bikes",
        "phone": "+5567998224546",
        "shop": "bicycle",
        "id": "node/9309007436"
      },
      "geometry": {
        "type": "Point",
        "coordinates": [
          -54.5957179,
          -20.4676319
        ]
      }
    },
    {
      "type": "Feature",
      "id": "node/9309024541",
      "properties": {
        "timestamp": "2021-12-03T17:27:07Z",
        "version": 1,
        "changeset": 114530864,
        "addr:city": "Campo Grande",
        "addr:housenumber": "30",
        "addr:postcode": "79081-180",
        "addr:street": "Rua Anchieta",
        "addr:suburb": "Vila Piratininga",
        "name": "Bicicletaria",
        "operator": "Bicicletaria",
        "shop": "bicycle",
        "id": "node/9309024541"
      },
      "geometry": {
        "type": "Point",
        "coordinates": [
          -54.6342495,
          -20.4984722
        ]
      }
    },
    {
      "type": "Feature",
      "id": "node/9324975249",
      "properties": {
        "timestamp": "2023-08-19T07:31:25Z",
        "version": 3,
        "changeset": 140083690,
        "addr:city": "Campo Grande",
        "addr:housenumber": "562",
        "addr:postcode": "79034-630",
        "addr:street": "Rua do Panda",
        "addr:suburb": "Estrela Dalva",
        "name": "Bicicletária Nogueira",
        "opening_hours": "7:00 - 18:00",
        "payment:cash": "yes",
        "service:bicycle:pump": "yes",
        "service:bicycle:repair": "yes",
        "service:bicycle:second_hand": "yes",
        "shop": "bicycle",
        "id": "node/9324975249"
      },
      "geometry": {
        "type": "Point",
        "coordinates": [
          -54.5539321,
          -20.427429
        ]
      }
    },
    {
      "type": "Feature",
      "id": "node/9325080178",
      "properties": {
        "timestamp": "2022-03-12T15:44:01Z",
        "version": 2,
        "changeset": 118402717,
        "addr:city": "Campo Grande",
        "addr:housenumber": "446",
        "addr:postcode": "79065-080",
        "addr:street": "Rua Pariris",
        "addr:suburb": "Moreninha II",
        "name": "Barto Bike",
        "operator": "Barto Bike",
        "phone": "+55 67 98422-1908",
        "shop": "bicycle",
        "id": "node/9325080178"
      },
      "geometry": {
        "type": "Point",
        "coordinates": [
          -54.5788765,
          -20.5554389
        ]
      }
    },
    {
      "type": "Feature",
      "id": "node/9335551944",
      "properties": {
        "timestamp": "2023-08-19T07:31:27Z",
        "version": 3,
        "changeset": 140083690,
        "addr:city": "Campo Grande",
        "addr:housenumber": "606",
        "addr:postcode": "79036270",
        "addr:street": "Rua São Crispim",
        "addr:suburb": "Estrela Dalva",
        "name": "Tiris Bike e Moto",
        "opening_hours": "Seg-Sex 07:30-17:30 (sab 13:30)",
        "operator": "Nelson",
        "payment:cash": "yes",
        "phone": "+55 (67) 9 9627-0033",
        "service:bicycle:pump": "yes",
        "service:bicycle:repair": "yes",
        "service:bicycle:second_hand": "yes",
        "shop": "bicycle",
        "id": "node/9335551944"
      },
      "geometry": {
        "type": "Point",
        "coordinates": [
          -54.5576666,
          -20.4296328
        ]
      }
    },
    {
      "type": "Feature",
      "id": "node/9337497502",
      "properties": {
        "timestamp": "2021-12-14T13:06:33Z",
        "version": 1,
        "changeset": 114924100,
        "addr:city": "Campo Grande",
        "addr:housenumber": "781",
        "addr:postcode": "79094-560",
        "addr:street": "Avenida Souto Maior",
        "addr:suburb": "Tijuca",
        "name": "Ciclo Lima",
        "operator": "Ciclo Lima",
        "shop": "bicycle",
        "id": "node/9337497502"
      },
      "geometry": {
        "type": "Point",
        "coordinates": [
          -54.662807,
          -20.5108181
        ]
      }
    },
    {
      "type": "Feature",
      "id": "node/9341687601",
      "properties": {
        "timestamp": "2021-12-15T19:07:56Z",
        "version": 1,
        "changeset": 114976389,
        "addr:city": "Campo Grande",
        "addr:housenumber": "910",
        "addr:postcode": "79117-190",
        "addr:street": "Rua Alfredo Nobel",
        "addr:suburb": "Coophasul",
        "name": "Tião Bike",
        "operator": "Tião Bike",
        "shop": "bicycle",
        "id": "node/9341687601"
      },
      "geometry": {
        "type": "Point",
        "coordinates": [
          -54.6335011,
          -20.4207111
        ]
      }
    },
    {
      "type": "Feature",
      "id": "node/11482824539",
      "properties": {
        "timestamp": "2024-01-03T14:50:38Z",
        "version": 1,
        "changeset": 145843010,
        "addr:city": "Campo Grande MS",
        "addr:housenumber": "585",
        "addr:postcode": "79112-230",
        "addr:street": "Rua Flamengo",
        "addr:suburb": "Jardim Panama",
        "name": "Studio Mateus Bike",
        "shop": "bicycle",
        "id": "node/11482824539"
      },
      "geometry": {
        "type": "Point",
        "coordinates": [
          -54.6605906,
          -20.4414908
        ]
      }
    },
    {
      "type": "Feature",
      "id": "node/11482857965",
      "properties": {
        "timestamp": "2024-01-03T14:53:34Z",
        "version": 1,
        "changeset": 145843135,
        "addr:city": "Campo Grande",
        "addr:housenumber": "1762",
        "addr:postcode": "79115-500",
        "addr:street": "Rua Terlita Garcia",
        "addr:suburb": "Vila Manoel Teixeira",
        "name": "Bicicletaria Do Adão",
        "shop": "bicycle",
        "id": "node/11482857965"
      },
      "geometry": {
        "type": "Point",
        "coordinates": [
          -54.6506027,
          -20.4276798
        ]
      }
    },
    {
      "type": "Feature",
      "id": "node/11482906112",
      "properties": {
        "timestamp": "2024-01-03T14:57:14Z",
        "version": 1,
        "changeset": 145843302,
        "addr:city": "Campo Grande",
        "addr:housenumber": "971",
        "addr:postcode": "79016-270",
        "addr:street": "Rua Luiz Bento",
        "addr:suburb": "Vila Popular",
        "name": "Bicicletaria Maritaca",
        "shop": "bicycle",
        "id": "node/11482906112"
      },
      "geometry": {
        "type": "Point",
        "coordinates": [
          -54.7060049,
          -20.449883
        ]
      }
    },
    {
      "type": "Feature",
      "id": "node/11482917707",
      "properties": {
        "timestamp": "2024-01-03T15:01:28Z",
        "version": 1,
        "changeset": 145843488,
        "addr:city": "Campo Grande",
        "addr:housenumber": "500",
        "addr:postcode": "79116-400",
        "addr:street": "Rua Cotegipe",
        "addr:suburb": "Vila N. Sra. das Graças",
        "name": "Ciclo Souza",
        "shop": "bicycle",
        "id": "node/11482917707"
      },
      "geometry": {
        "type": "Point",
        "coordinates": [
          -54.6363267,
          -20.4249222
        ]
      }
    },
    {
      "type": "Feature",
      "id": "node/11482917943",
      "properties": {
        "timestamp": "2024-01-03T15:29:01Z",
        "version": 1,
        "changeset": 145844517,
        "addr:city": "Campo Grande",
        "addr:postcode": "79062-110",
        "addr:street": "Rua Georgina Pereira Barbosa",
        "addr:suburb": "Rita Vieira",
        "name": "Eder bike",
        "shop": "bicycle",
        "id": "node/11482917943"
      },
      "geometry": {
        "type": "Point",
        "coordinates": [
          -54.5666753,
          -20.5068619
        ]
      }
    },
    {
      "type": "Feature",
      "id": "node/11482921308",
      "properties": {
        "timestamp": "2024-01-03T15:08:54Z",
        "version": 1,
        "changeset": 145843779,
        "addr:city": "Campo Grande",
        "addr:housenumber": "2127",
        "addr:postcode": "79018-690",
        "addr:street": "Rua Maicuru",
        "addr:suburb": "Jardim Columbia",
        "name": "Moacir da Baike",
        "shop": "bicycle",
        "id": "node/11482921308"
      },
      "geometry": {
        "type": "Point",
        "coordinates": [
          -54.5416929,
          -20.3813071
        ]
      }
    },
    {
      "type": "Feature",
      "id": "node/11482933291",
      "properties": {
        "timestamp": "2024-01-03T15:14:48Z",
        "version": 1,
        "changeset": 145844009,
        "addr:city": "Campo Grande",
        "addr:housenumber": "1813",
        "addr:postcode": "79045-120",
        "addr:street": "Rua Indianápolis",
        "addr:suburb": "Jardim Noroeste",
        "name": "Ciclo Martins",
        "shop": "bicycle",
        "id": "node/11482933291"
      },
      "geometry": {
        "type": "Point",
        "coordinates": [
          -54.5338815,
          -20.4615463
        ]
      }
    },
    {
      "type": "Feature",
      "id": "node/11482966048",
      "properties": {
        "timestamp": "2024-01-03T15:31:15Z",
        "version": 1,
        "changeset": 145844602,
        "addr:housenumber": "1198",
        "addr:street": "Rua Dolores Duran",
        "name": "Ciclo RV",
        "shop": "bicycle",
        "id": "node/11482966048"
      },
      "geometry": {
        "type": "Point",
        "coordinates": [
          -54.5806978,
          -20.5269416
        ]
      }
    },
    {
      "type": "Feature",
      "id": "node/11482966283",
      "properties": {
        "timestamp": "2024-01-03T15:20:51Z",
        "version": 1,
        "changeset": 145844229,
        "addr:city": "Campo Grande",
        "addr:housenumber": "2090",
        "addr:postcode": "79020-300",
        "addr:street": "Rua Quinze de Novembro",
        "addr:suburb": "Jardim dos Estados",
        "name": "67 Bikeshop",
        "shop": "bicycle",
        "id": "node/11482966283"
      },
      "geometry": {
        "type": "Point",
        "coordinates": [
          -54.6001033,
          -20.4627597
        ]
      }
    },
    {
      "type": "Feature",
      "id": "node/11482969288",
      "properties": {
        "timestamp": "2024-01-03T15:24:16Z",
        "version": 1,
        "changeset": 145844345,
        "addr:city": "Campo Grande",
        "addr:housenumber": "170",
        "addr:postcode": "79005-620",
        "addr:street": "Avenida das Bandeiras",
        "addr:suburb": "Vila Carvalho",
        "name": "Edson Bike",
        "shop": "bicycle",
        "id": "node/11482969288"
      },
      "geometry": {
        "type": "Point",
        "coordinates": [
          -54.6184674,
          -20.4749038
        ]
      }
    },
    {
      "type": "Feature",
      "id": "node/11482974033",
      "properties": {
        "timestamp": "2024-01-03T15:32:19Z",
        "version": 1,
        "changeset": 145844631,
        "addr:housenumber": "337",
        "addr:street": "Rua Pascoal Garcia",
        "name": "Oficina Ciclo Rodas",
        "shop": "bicycle",
        "id": "node/11482974033"
      },
      "geometry": {
        "type": "Point",
        "coordinates": [
          -54.5774215,
          -20.5212178
        ]
      }
    },
    {
      "type": "Feature",
      "id": "node/11483029754",
      "properties": {
        "timestamp": "2024-01-03T16:05:17Z",
        "version": 1,
        "changeset": 145845852,
        "addr:city": "Campo Grande",
        "addr:housenumber": "3640",
        "addr:street": "Avenida Gury Marques",
        "addr:suburb": "Universitário",
        "name": "CICLO ON BIKE",
        "shop": "bicycle",
        "id": "node/11483029754"
      },
      "geometry": {
        "type": "Point",
        "coordinates": [
          -54.6032472,
          -20.5132832
        ]
      }
    },
    {
      "type": "Feature",
      "id": "node/11483029755",
      "properties": {
        "timestamp": "2024-01-03T16:05:17Z",
        "version": 1,
        "changeset": 145845852,
        "addr:housenumber": "841",
        "addr:street": "Rua Vitor Meireles",
        "name": "Ciclo Vitor II",
        "shop": "bicycle",
        "id": "node/11483029755"
      },
      "geometry": {
        "type": "Point",
        "coordinates": [
          -54.598035,
          -20.5160704
        ]
      }
    },
    {
      "type": "Feature",
      "id": "node/11483061050",
      "properties": {
        "timestamp": "2024-01-03T16:11:14Z",
        "version": 1,
        "changeset": 145846046,
        "addr:housenumber": "1230",
        "addr:street": "Rua Marco Feliz",
        "name": "Ciclo Albaro Serviço, Peças e acessórios Para Ciclismo",
        "shop": "bicycle",
        "id": "node/11483061050"
      },
      "geometry": {
        "type": "Point",
        "coordinates": [
          -54.6338389,
          -20.5532823
        ]
      }
    },
    {
      "type": "Feature",
      "id": "node/11483101343",
      "properties": {
        "timestamp": "2024-01-03T16:08:03Z",
        "version": 1,
        "changeset": 145845940,
        "addr:housenumber": "2370",
        "addr:street": "Avenida dos Cafezais",
        "name": "Ciclo Vianna",
        "shop": "bicycle",
        "id": "node/11483101343"
      },
      "geometry": {
        "type": "Point",
        "coordinates": [
          -54.6162108,
          -20.5477622
        ]
      }
    },
    {
      "type": "Feature",
      "id": "node/11483101344",
      "properties": {
        "timestamp": "2024-01-03T16:08:03Z",
        "version": 1,
        "changeset": 145845940,
        "addr:housenumber": "2097",
        "addr:street": "Avenida dos Cafezais",
        "name": "Luan Bike",
        "shop": "bicycle",
        "id": "node/11483101344"
      },
      "geometry": {
        "type": "Point",
        "coordinates": [
          -54.6128679,
          -20.5476689
        ]
      }
    },
    {
      "type": "Feature",
      "id": "node/11483102324",
      "properties": {
        "timestamp": "2024-01-03T16:13:47Z",
        "version": 1,
        "changeset": 145846130,
        "addr:housenumber": "648",
        "addr:street": "Rua Evelina Selingardi",
        "name": "Ciclo Renascer",
        "shop": "bicycle",
        "id": "node/11483102324"
      },
      "geometry": {
        "type": "Point",
        "coordinates": [
          -54.6514726,
          -20.5512695
        ]
      }
    },
    {
      "type": "Feature",
      "id": "node/11483113566",
      "properties": {
        "timestamp": "2024-01-03T16:14:45Z",
        "version": 1,
        "changeset": 145846161,
        "addr:housenumber": "305",
        "addr:street": "Rua André Luiz da Silva",
        "name": "ELECTRIC BIKE",
        "shop": "bicycle",
        "id": "node/11483113566"
      },
      "geometry": {
        "type": "Point",
        "coordinates": [
          -54.6638976,
          -20.5510781
        ]
      }
    }
  ]
}
