{
  "type": "FeatureCollection",
  "features": [
    {
      "type": "Feature",
      "id": "way/191281954",
      "properties": {
        "timestamp": "2023-12-30T22:40:48Z",
        "version": 7,
        "changeset": 145715505,
        "addr:housenumber": "652",
        "addr:street": "Rua Uruguaiana",
        "addr:suburb": "Coronel Antonino",
        "amenity": "doctors",
        "building": "yes",
        "email": "centrohomem@sesau.campogrande.ms.gov.br",
        "healthcare": "doctor",
        "healthcare:speciality": "general;urologia",
        "loc_name": "CRSH Doutor  Etienne de Albuquerque Palhano",
        "name": "Centro de Referência à Saúde do Homem Doutor Etiene de Albuquerque Palhano",
        "official_name": "Centro do Homem Doutora Etiene de Albuquerque Pallan",
        "opening_hours": "Mo-Fr 07:00-11:00,13:00-17:00; PH off",
        "operator": "Secretaria Municipal de Saúde",
        "operator:type": "government",
        "phone": "+55 67 2020 1946",
        "id": "way/191281954"
      },
      "geometry": {
        "type": "Polygon",
        "coordinates": [
          [
            [
              -54.5995671,
              -20.4309038
            ],
            [
              -54.599628,
              -20.4308842
            ],
            [
              -54.5996933,
              -20.4309623
            ],
            [
              -54.5997423,
              -20.4310848
            ],
            [
              -54.5997517,
              -20.4311378
            ],
            [
              -54.5997385,
              -20.4312166
            ],
            [
              -54.5996617,
              -20.4311937
            ],
            [
              -54.5995172,
              -20.4311538
            ],
            [
              -54.5995671,
              -20.4309038
            ]
          ]
        ]
      }
    },
    {
      "type": "Feature",
      "id": "way/203375760",
      "properties": {
        "timestamp": "2020-12-02T08:10:16Z",
        "version": 3,
        "changeset": 95139524,
        "amenity": "doctors",
        "name": "UBSF Tarumã",
        "id": "way/203375760"
      },
      "geometry": {
        "type": "Polygon",
        "coordinates": [
          [
            [
              -54.674342,
              -20.5445138
            ],
            [
              -54.6745968,
              -20.5450921
            ],
            [
              -54.6741473,
              -20.5452117
            ],
            [
              -54.674094,
              -20.5450453
            ],
            [
              -54.6739333,
              -20.544672
            ],
            [
              -54.674342,
              -20.5445138
            ]
          ]
        ]
      }
    },
    {
      "type": "Feature",
      "id": "way/235423782",
      "properties": {
        "timestamp": "2023-12-31T02:11:13Z",
        "version": 6,
        "changeset": 145718536,
        "addr:housenumber": "3103",
        "addr:street": "Avenida Vereador Thyrson de Almeida",
        "addr:suburb": "Aero Rancho",
        "amenity": "doctors",
        "healthcare": "doctor",
        "healthcare:speciality": "oncologia",
        "name": "Instituto de Prevenção Antônio Morais dos Santos",
        "opening_hours": "Mo-Fr 07:00-18:00; PH off",
        "operator": "Fundação Pio XII",
        "ref:CNES": "7439148",
        "source": "CNES",
        "id": "way/235423782"
      },
      "geometry": {
        "type": "Polygon",
        "coordinates": [
          [
            [
              -54.6529191,
              -20.5178506
            ],
            [
              -54.6533244,
              -20.5177425
            ],
            [
              -54.6540161,
              -20.5191948
            ],
            [
              -54.6537526,
              -20.5192664
            ],
            [
              -54.6527981,
              -20.5195067
            ],
            [
              -54.6527176,
              -20.5191702
            ],
            [
              -54.6526114,
              -20.518907
            ],
            [
              -54.653305,
              -20.5187229
            ],
            [
              -54.6531979,
              -20.5183767
            ],
            [
              -54.6530907,
              -20.5180305
            ],
            [
              -54.6529885,
              -20.5180615
            ],
            [
              -54.6529191,
              -20.5178506
            ]
          ]
        ]
      }
    },
    {
      "type": "Feature",
      "id": "way/1027218421",
      "properties": {
        "timestamp": "2022-02-03T00:41:43Z",
        "version": 1,
        "changeset": 116940915,
        "amenity": "doctors",
        "building": "yes",
        "healthcare": "doctor",
        "name": "Dr. Saúde Já",
        "id": "way/1027218421"
      },
      "geometry": {
        "type": "Polygon",
        "coordinates": [
          [
            [
              -54.5935036,
              -20.4336464
            ],
            [
              -54.5934313,
              -20.4335645
            ],
            [
              -54.5935216,
              -20.4334889
            ],
            [
              -54.5935966,
              -20.4335737
            ],
            [
              -54.5935036,
              -20.4336464
            ]
          ]
        ]
      }
    },
    {
      "type": "Feature",
      "id": "node/8450798092",
      "properties": {
        "timestamp": "2023-08-19T07:29:48Z",
        "version": 2,
        "changeset": 140083690,
        "addr:city": "Campo Grande",
        "addr:housenumber": "310",
        "addr:postcode": "79002140",
        "addr:street": "Rua 15 de Novembro",
        "addr:suburb": "Centro",
        "amenity": "doctors",
        "email": "nutrims@hotmail.com",
        "fax": "+556799217-0859",
        "healthcare": "doctor",
        "healthcare:speciality": "general;nutrition",
        "level": "2",
        "name": "NutriMS - Paula Saldanha Tschinkel",
        "opening_hours": "10:00-19:00",
        "operator": "Paula Saldanha",
        "wheelchair": "yes",
        "id": "node/8450798092"
      },
      "geometry": {
        "type": "Point",
        "coordinates": [
          -54.6171476,
          -20.4656674
        ]
      }
    },
    {
      "type": "Feature",
      "id": "node/9296413267",
      "properties": {
        "timestamp": "2021-11-30T14:32:03Z",
        "version": 1,
        "changeset": 114405563,
        "amenity": "doctors",
        "healthcare": "doctor",
        "healthcare:speciality": "plastic_surgery",
        "name": "Dr. Rafael Castro - Cirurgia Plástica",
        "opening_hours": "Mo-Sa 08:00-18:00",
        "id": "node/9296413267"
      },
      "geometry": {
        "type": "Point",
        "coordinates": [
          -54.595155,
          -20.4563927
        ]
      }
    },
    {
      "type": "Feature",
      "id": "node/9680105047",
      "properties": {
        "timestamp": "2023-08-19T07:31:45Z",
        "version": 2,
        "changeset": 140083690,
        "addr:city": "Campo Grande",
        "addr:housenumber": "n. 4785, Torre1, Sala 507",
        "addr:postcode": "79031010",
        "addr:street": "Avenida Afonso Pena",
        "addr:suburb": "Santa Fé",
        "amenity": "doctors",
        "email": "dramarybassi@gmail.com",
        "healthcare": "doctor",
        "healthcare:speciality": "nutrologia",
        "name": "Nutrologia Dra Mary Bassi - Vittá Clinic",
        "opening_hours": "Mo-Fr 08:00-18:00",
        "website": "https://www.dramarybassi.com.br/",
        "id": "node/9680105047"
      },
      "geometry": {
        "type": "Point",
        "coordinates": [
          -54.5910847,
          -20.4592943
        ]
      }
    },
    {
      "type": "Feature",
      "id": "node/10311800528",
      "properties": {
        "timestamp": "2023-01-06T20:12:13Z",
        "version": 1,
        "changeset": 130961176,
        "addr:city": "Campo Grande",
        "addr:housenumber": "514",
        "addr:postcode": "79002-100",
        "addr:street": "Rua Joaquim Murtinho",
        "addr:suburb": "Centro",
        "amenity": "doctors",
        "healthcare": "doctor",
        "name": "Clínica Canela",
        "operator": "Dr. Canela",
        "id": "node/10311800528"
      },
      "geometry": {
        "type": "Point",
        "coordinates": [
          -54.6086443,
          -20.4664061
        ]
      }
    },
    {
      "type": "Feature",
      "id": "node/10311888684",
      "properties": {
        "timestamp": "2023-01-06T20:58:19Z",
        "version": 1,
        "changeset": 130962358,
        "addr:city": "Campo Grande",
        "addr:housenumber": "700",
        "addr:postcode": "79020-120",
        "addr:street": "Rua Alagoas",
        "addr:suburb": "Jardim dos Estados",
        "amenity": "doctors",
        "healthcare": "doctor",
        "healthcare:speciality": "paediatrics;gastroenterology",
        "name": "Consultório Dra. Daniela Kassar",
        "operator": "Dra. Daniela Kassar Moretzsohn",
        "id": "node/10311888684"
      },
      "geometry": {
        "type": "Point",
        "coordinates": [
          -54.5955266,
          -20.4529628
        ]
      }
    }
  ]
}
