{
  "type": "FeatureCollection",
  "features": [
    {
      "type": "Feature",
      "id": "way/489307525",
      "properties": {
        "timestamp": "2017-04-25T13:17:56Z",
        "version": 1,
        "changeset": 48124682,
        "amenity": "school",
        "name": "EMEF Santo Antônio",
        "id": "way/489307525"
      },
      "geometry": {
        "type": "Polygon",
        "coordinates": [
          [
            [
              -40.3526703,
              -18.5167694
            ],
            [
              -40.3528425,
              -18.5170223
            ],
            [
              -40.352474,
              -18.5172435
            ],
            [
              -40.3523074,
              -18.5169924
            ],
            [
              -40.3526703,
              -18.5167694
            ]
          ]
        ]
      }
    },
    {
      "type": "Feature",
      "id": "way/949848359",
      "properties": {
        "timestamp": "2021-06-02T22:00:15Z",
        "version": 1,
        "changeset": 105742757,
        "IJSN:administra": "Estadual",
        "IJSN:classeCnae": "Fundamental",
        "addr:city": "Boa Esperança",
        "addr:housenumber": "4",
        "addr:postcode": "29845-000",
        "addr:street": "Rodovia Estadual Mestre Zoroastro Valeriano Rodrigues;Rodovia Boa Esperança - São Mateus",
        "addr:suburb": "Comunidade Prata",
        "alt_name": "Centro Estadual Integrado de Educação Rural",
        "amenity": "school",
        "building": "yes",
        "building:levels": "2",
        "contact:phone": "(27) 3768-1290",
        "name": "Centro Estadual Integrado de Educação Rural de Boa Esperança",
        "operator": "Secretaria de Estado de Educação",
        "operator:type": "public",
        "source": "IJSN",
        "id": "way/949848359"
      },
      "geometry": {
        "type": "Polygon",
        "coordinates": [
          [
            [
              -40.2731971,
              -18.5381805
            ],
            [
              -40.2731487,
              -18.5381822
            ],
            [
              -40.2731543,
              -18.5382052
            ],
            [
              -40.2727557,
              -18.5382175
            ],
            [
              -40.2727389,
              -18.5380321
            ],
            [
              -40.2728693,
              -18.5380268
            ],
            [
              -40.2728544,
              -18.537799
            ],
            [
              -40.2729811,
              -18.5377919
            ],
            [
              -40.2729997,
              -18.5379827
            ],
            [
              -40.2731338,
              -18.5379756
            ],
            [
              -40.2731394,
              -18.5380109
            ],
            [
              -40.2731804,
              -18.5380127
            ],
            [
              -40.2731971,
              -18.5381805
            ]
          ]
        ]
      }
    },
    {
      "type": "Feature",
      "id": "way/1123958836",
      "properties": {
        "timestamp": "2022-12-21T18:51:01Z",
        "version": 1,
        "changeset": 130344981,
        "IJSN:administra": "Municipal",
        "IJSN:classeCnae": "Fundamental",
        "addr:city": "Boa Esperança",
        "addr:housenumber": "54",
        "addr:postcode": "29845-000",
        "addr:street": "Praça Lacide Ribeiro França",
        "addr:suburb": "Bela Vista",
        "alt_name": "EMEF Anadyr de Almeida Marchiori",
        "amenity": "school",
        "contact:phone": "+55 27 3768 1353",
        "name": "Escola Municipal de Ensino Fundamental Anadyr de Almeida Marchiori",
        "operator": "Município de Boa Esperança",
        "operator:type": "public",
        "source": "IJSN",
        "id": "way/1123958836"
      },
      "geometry": {
        "type": "Polygon",
        "coordinates": [
          [
            [
              -40.2237003,
              -18.5543456
            ],
            [
              -40.2232323,
              -18.5548626
            ],
            [
              -40.2228905,
              -18.5546025
            ],
            [
              -40.2229353,
              -18.5545522
            ],
            [
              -40.22322,
              -18.5542323
            ],
            [
              -40.223345,
              -18.5540918
            ],
            [
              -40.2237003,
              -18.5543456
            ]
          ]
        ]
      }
    },
    {
      "type": "Feature",
      "id": "node/1966885516",
      "properties": {
        "timestamp": "2019-07-11T17:33:19Z",
        "version": 3,
        "changeset": 72146221,
        "IJSN:administra": "Municipal",
        "IJSN:classeCnae": "Fundamental",
        "addr:city": "Boa Esperança",
        "addr:housenumber": "169",
        "addr:postcode": "29845-000",
        "addr:street": "Rua Anacleto Gava",
        "addr:suburb": "Nova Cidade",
        "alt_name": "Escola Municipal de Ensino Fundamental",
        "amenity": "school",
        "contact:phone": "+55 27 3768-1522;+55 27 3768-1365",
        "name": "EMEF Professora Izaura de Almeida Silva",
        "source": "IJSN",
        "id": "node/1966885516"
      },
      "geometry": {
        "type": "Point",
        "coordinates": [
          -40.2886138,
          -18.5391399
        ]
      }
    },
    {
      "type": "Feature",
      "id": "node/1966887836",
      "properties": {
        "timestamp": "2022-01-10T13:57:02Z",
        "version": 4,
        "changeset": 115983204,
        "IJSN:administra": "Estadual",
        "IJSN:classeCnae": "Fundamental e Médio",
        "addr:city": "Boa Esperança",
        "addr:housenumber": "845",
        "addr:postcode": "29845-000",
        "addr:street": "Avenida Democrata",
        "addr:suburb": "Centro",
        "alt_name": "Escola Estadual de Ensino Fundamental e Médio",
        "amenity": "school",
        "contact:phone": "+55 27 3768-1260",
        "name": "Escola Estadual de Ensino Fundamental e Médio Antônio dos Santos Neves",
        "operator": "Secretaria de Estado da Educação",
        "operator:type": "government",
        "source": "IJSN",
        "id": "node/1966887836"
      },
      "geometry": {
        "type": "Point",
        "coordinates": [
          -40.2983609,
          -18.5411183
        ]
      }
    },
    {
      "type": "Feature",
      "id": "node/1966889388",
      "properties": {
        "timestamp": "2019-07-11T17:33:19Z",
        "version": 3,
        "changeset": 72146221,
        "IJSN:administra": "Municipal",
        "IJSN:classeCnae": "Fundamental",
        "addr:city": "Boa Esperança",
        "addr:housenumber": "740",
        "addr:postcode": "29845-000",
        "addr:street": "Avenida Senador Eurico Rezende",
        "addr:suburb": "Centro",
        "alt_name": "Escola Municipal de Ensino Fundamental",
        "amenity": "school",
        "contact:phone": "+55 27 3768-1022;+55 27 3768-1670",
        "name": "EMEF Professora Ubaldina Santo Amaro do Amaral",
        "source": "IJSN",
        "id": "node/1966889388"
      },
      "geometry": {
        "type": "Point",
        "coordinates": [
          -40.2980551,
          -18.5396078
        ]
      }
    },
    {
      "type": "Feature",
      "id": "node/2884636731",
      "properties": {
        "timestamp": "2014-05-28T01:28:00Z",
        "version": 1,
        "changeset": 22592183,
        "amenity": "school",
        "id": "node/2884636731"
      },
      "geometry": {
        "type": "Point",
        "coordinates": [
          -40.2992188,
          -18.5382393
        ]
      }
    },
    {
      "type": "Feature",
      "id": "node/4024904847",
      "properties": {
        "timestamp": "2016-02-25T01:59:40Z",
        "version": 1,
        "changeset": 37426154,
        "IJSN:administra": "Estadual",
        "IJSN:classeCnae": "Fundamental e Médio",
        "addr:city": "Boa Esperança",
        "addr:housenumber": "107",
        "addr:postcode": "29845-000",
        "addr:street": "Rua Principal",
        "addr:suburb": "São José do Sobradinho",
        "alt_name": "Escola Estadual de Ensino Fundamental e Médio",
        "amenity": "school",
        "contact:phone": "(27) 3768-5012 / 3768-5057",
        "name": "EEEFM Sobradinho",
        "source": "IJSN",
        "id": "node/4024904847"
      },
      "geometry": {
        "type": "Point",
        "coordinates": [
          -40.3870731,
          -18.428802
        ]
      }
    },
    {
      "type": "Feature",
      "id": "node/4024905682",
      "properties": {
        "timestamp": "2016-02-25T02:00:52Z",
        "version": 1,
        "changeset": 37426154,
        "IJSN:administra": "Municipal",
        "IJSN:classeCnae": "Fundamental",
        "addr:city": "Boa Esperança",
        "addr:postcode": "29845-000",
        "addr:street": "Rua Palmira",
        "addr:suburb": "Comunidade Quilometro 20",
        "alt_name": "Escola Municipal de Ensino Fundamental",
        "amenity": "school",
        "contact:phone": "(27) 9932-2818 / 3768-6001",
        "name": "EMEF Quilometro 20",
        "source": "IJSN",
        "id": "node/4024905682"
      },
      "geometry": {
        "type": "Point",
        "coordinates": [
          -40.3988171,
          -18.4872054
        ]
      }
    }
  ]
}
