{
  "type": "FeatureCollection",
  "features": [
    {
      "type": "Feature",
      "id": "node/9989051399",
      "properties": {
        "timestamp": "2022-08-30T18:55:06Z",
        "version": 1,
        "changeset": 125583411,
        "addr:city": "Espera Feliz",
        "addr:housenumber": "146",
        "addr:postcode": "36830-000",
        "addr:street": "Rua Genesio de Assis Marinho",
        "addr:suburb": "Centro",
        "email": "aps11025130@inss.gov.br",
        "government": "social_security",
        "name": "Agência da Previdência Social em Espera Feliz",
        "office": "government",
        "id": "node/9989051399"
      },
      "geometry": {
        "type": "Point",
        "coordinates": [
          -41.9113836,
          -20.6521586
        ]
      }
    },
    {
      "type": "Feature",
      "id": "node/9989269332",
      "properties": {
        "timestamp": "2022-08-30T20:39:48Z",
        "version": 1,
        "changeset": 125586628,
        "addr:city": "Espera Feliz",
        "addr:housenumber": "03",
        "addr:postcode": "36830-000",
        "addr:street": "Rua Fioravante Padula",
        "addr:suburb": "Centro",
        "government": "prosecutor",
        "mobile": "+55 32 98406 4449",
        "name": "Promotoria de Justiça da Comarca de Espera Feliz",
        "office": "government",
        "operator": "Ministério Público do Estado de Minas Gerais",
        "phone": "+55 32 3746 1208",
        "id": "node/9989269332"
      },
      "geometry": {
        "type": "Point",
        "coordinates": [
          -41.9085028,
          -20.6483269
        ]
      }
    },
    {
      "type": "Feature",
      "id": "node/9989269333",
      "properties": {
        "timestamp": "2022-08-30T20:39:48Z",
        "version": 1,
        "changeset": 125586628,
        "addr:city": "Espera Feliz",
        "addr:housenumber": "03",
        "addr:postcode": "36830-000",
        "addr:street": "Rua Fioravante Padula",
        "addr:suburb": "Centro",
        "government": "register_office",
        "name": "Cartório da 303ª Zona Eleitoral de Espera Feliz",
        "office": "government",
        "phone": "+55 32 3746 1545",
        "id": "node/9989269333"
      },
      "geometry": {
        "type": "Point",
        "coordinates": [
          -41.9085346,
          -20.6482341
        ]
      }
    },
    {
      "type": "Feature",
      "id": "node/9989291350",
      "properties": {
        "timestamp": "2022-08-30T20:52:18Z",
        "version": 1,
        "changeset": 125586947,
        "addr:city": "Espera Feliz",
        "addr:housenumber": "104",
        "addr:postcode": "36830-000",
        "addr:street": "Rua Jair Rubio de Amorim",
        "addr:suburb": "Centro",
        "government": "register_office",
        "name": "Cartório de Registro de Imóveis da Comarca de Espera Feliz",
        "office": "government",
        "phone": "+55 32 3746 3254",
        "id": "node/9989291350"
      },
      "geometry": {
        "type": "Point",
        "coordinates": [
          -41.910338,
          -20.651643
        ]
      }
    },
    {
      "type": "Feature",
      "id": "node/9989291351",
      "properties": {
        "timestamp": "2022-08-30T20:52:18Z",
        "version": 1,
        "changeset": 125586947,
        "addr:city": "Espera Feliz",
        "addr:housenumber": "60",
        "addr:postcode": "36830-000",
        "addr:street": "Rua Henrique Gripp Filho",
        "addr:suburb": "Centro",
        "government": "register_office",
        "name": "Cartório do Segundo Ofício de Espera Feliz",
        "office": "government",
        "id": "node/9989291351"
      },
      "geometry": {
        "type": "Point",
        "coordinates": [
          -41.9100534,
          -20.6509959
        ]
      }
    }
  ]
}
