{
  "type": "FeatureCollection",
  "features": [
    {
      "type": "Feature",
      "id": "node/9990546778",
      "properties": {
        "timestamp": "2022-08-31T12:42:39Z",
        "version": 1,
        "changeset": 125611041,
        "addr:city": "Espera Feliz",
        "addr:housenumber": "64",
        "addr:postcode": "36830-000",
        "addr:street": "Rua Fioravante Padula",
        "addr:suburb": "Centro",
        "email": "contabilidadeoliveiraadv@hotmail.com",
        "name": "Hotel Pico da Bandeira",
        "phone": "+55 32 3746 1705",
        "tourism": "hotel",
        "id": "node/9990546778"
      },
      "geometry": {
        "type": "Point",
        "coordinates": [
          -41.9087904,
          -20.6481535
        ]
      }
    },
    {
      "type": "Feature",
      "id": "node/9990546779",
      "properties": {
        "timestamp": "2022-08-31T12:42:39Z",
        "version": 1,
        "changeset": 125611041,
        "addr:city": "Espera Feliz",
        "addr:housenumber": "178",
        "addr:postcode": "36830-000",
        "addr:street": "Rua Fioravante Padula",
        "addr:suburb": "Centro",
        "email": "contabilidadesilvinho@yahoo.com.br",
        "name": "Hotel MontanhÃªs",
        "phone": "+55 32 3741 1350",
        "tourism": "hotel",
        "id": "node/9990546779"
      },
      "geometry": {
        "type": "Point",
        "coordinates": [
          -41.9091337,
          -20.6476691
        ]
      }
    },
    {
      "type": "Feature",
      "id": "node/9990546780",
      "properties": {
        "timestamp": "2022-08-31T12:42:39Z",
        "version": 1,
        "changeset": 125611041,
        "addr:city": "Espera Feliz",
        "addr:housenumber": "53",
        "addr:postcode": "36830-000",
        "addr:street": "Rua Ernesto Grillo",
        "addr:suburb": "Centro",
        "name": "Hotel Vale Verde",
        "tourism": "hotel",
        "id": "node/9990546780"
      },
      "geometry": {
        "type": "Point",
        "coordinates": [
          -41.9094581,
          -20.6466945
        ]
      }
    }
  ]
}
