{
  "type": "FeatureCollection",
  "features": [
    {
      "type": "Feature",
      "id": "node/9969844754",
      "properties": {
        "timestamp": "2022-08-31T19:24:08Z",
        "version": 2,
        "changeset": 125626087,
        "addr:city": "Espera Feliz",
        "addr:postcode": "36830-000",
        "addr:suburb": "São Gonçalo",
        "amenity": "school",
        "email": "escola.97713@educacao.mg.gov.br",
        "name": "Escola Estadual Pedro Inácio Nogueira",
        "operator": "Secretaria de Educação do Estado de Minas Gerais",
        "operator:type": "public",
        "id": "node/9969844754"
      },
      "geometry": {
        "type": "Point",
        "coordinates": [
          -42.0072344,
          -20.5608701
        ]
      }
    },
    {
      "type": "Feature",
      "id": "node/9988975463",
      "properties": {
        "timestamp": "2022-08-30T18:06:32Z",
        "version": 1,
        "changeset": 125581950,
        "addr:city": "Espera Feliz",
        "addr:housenumber": "145",
        "addr:postcode": "36830-000",
        "addr:street": "Rua Jair de Souza Castro",
        "addr:suburb": "Centro",
        "amenity": "school",
        "email": "escola.97683@educacao.mg.gov.br",
        "name": "Escola Estadual Altivo Leopoldino de Souza",
        "operator": "Secretaria de Educação do Estados de Minas Gerais",
        "operator:type": "public",
        "phone": "+55 32 3746 1266",
        "id": "node/9988975463"
      },
      "geometry": {
        "type": "Point",
        "coordinates": [
          -41.9181524,
          -20.6415115
        ]
      }
    },
    {
      "type": "Feature",
      "id": "node/9988975464",
      "properties": {
        "timestamp": "2022-08-30T18:06:32Z",
        "version": 1,
        "changeset": 125581950,
        "addr:city": "Espera Feliz",
        "addr:housenumber": "126",
        "addr:postcode": "36830-000",
        "addr:street": "Avenida Jayme Toledo",
        "addr:suburb": "Centro",
        "amenity": "school",
        "name": "Escola Estadual Interventor Júlio de Carvalho",
        "operator": "Secretaria de Educação do Estado de Minas Gerais",
        "operator:type": "public",
        "id": "node/9988975464"
      },
      "geometry": {
        "type": "Point",
        "coordinates": [
          -41.9094077,
          -20.6541839
        ]
      }
    },
    {
      "type": "Feature",
      "id": "node/9988975465",
      "properties": {
        "timestamp": "2022-08-30T18:06:32Z",
        "version": 1,
        "changeset": 125581950,
        "addr:city": "Espera Feliz",
        "addr:postcode": "36830-000",
        "amenity": "school",
        "name": "Escola Estadual Irênio de Souza Castro",
        "id": "node/9988975465"
      },
      "geometry": {
        "type": "Point",
        "coordinates": [
          -41.91468,
          -20.6437918
        ]
      }
    },
    {
      "type": "Feature",
      "id": "node/9989051398",
      "properties": {
        "timestamp": "2022-08-30T18:55:06Z",
        "version": 1,
        "changeset": 125583411,
        "addr:city": "Espera Feliz",
        "addr:housenumber": "80",
        "addr:postcode": "36830-000",
        "addr:street": "Rua Francisco Gomes Monteiro",
        "addr:suburb": "Centro",
        "amenity": "school",
        "name": "Colégio Batista Reobote",
        "id": "node/9989051398"
      },
      "geometry": {
        "type": "Point",
        "coordinates": [
          -41.9110376,
          -20.6518926
        ]
      }
    },
    {
      "type": "Feature",
      "id": "node/9989051400",
      "properties": {
        "timestamp": "2022-08-30T18:55:06Z",
        "version": 1,
        "changeset": 125583411,
        "addr:city": "Espera Feliz",
        "addr:housenumber": "177",
        "addr:postcode": "36830-000",
        "addr:street": "Rua Pio XII",
        "addr:suburb": "Centro",
        "amenity": "school",
        "name": "Centro Municipal de Educação Crescendo e Aprendendo",
        "operator": "Município de Espera Feliz",
        "operator:type": "public",
        "id": "node/9989051400"
      },
      "geometry": {
        "type": "Point",
        "coordinates": [
          -41.9067326,
          -20.6523418
        ]
      }
    },
    {
      "type": "Feature",
      "id": "node/9989087125",
      "properties": {
        "timestamp": "2022-08-30T18:55:06Z",
        "version": 1,
        "changeset": 125583411,
        "addr:city": "Espera Feliz",
        "addr:housenumber": "255",
        "addr:postcode": "36830-000",
        "addr:street": "Rua Americo Vespucio de Carvalho",
        "addr:suburb": "Centro",
        "amenity": "school",
        "name": "Centro de Educação Infantil e Ensino Fundamental Portal do Saber",
        "operator": "Colégio Portal do Saber Limitada",
        "operator:type": "private",
        "id": "node/9989087125"
      },
      "geometry": {
        "type": "Point",
        "coordinates": [
          -41.9122937,
          -20.6459545
        ]
      }
    },
    {
      "type": "Feature",
      "id": "node/10051942607",
      "properties": {
        "timestamp": "2022-09-25T18:11:06Z",
        "version": 1,
        "changeset": 126625453,
        "addr:city": "Espera Feliz",
        "addr:suburb": "Centro",
        "amenity": "school",
        "name": "Educandário Sacramentino",
        "religion": "christian",
        "id": "node/10051942607"
      },
      "geometry": {
        "type": "Point",
        "coordinates": [
          -41.9099561,
          -20.6528464
        ]
      }
    }
  ]
}
