{
  "type": "FeatureCollection",
  "features": [
    {
      "type": "Feature",
      "id": "way/427474260",
      "properties": {
        "timestamp": "2016-06-26T18:36:03Z",
        "version": 1,
        "changeset": 40306218,
        "IJSN:administra": "Municipal",
        "IJSN:classeCnae": "Infantil e Fundamental",
        "addr:city": "Águia Branca",
        "addr:postcode": "29795-000",
        "addr:suburb": "Comunidade Barra da Jabuticaba",
        "alt_name": "Escola Municipal de Ensino Fundamental",
        "amenity": "school",
        "contact:phone": "(27) 9996-0577",
        "name": "EMEF Barra da Jabuticaba",
        "source": "IJSN",
        "id": "way/427474260"
      },
      "geometry": {
        "type": "Polygon",
        "coordinates": [
          [
            [
              -40.6577402,
              -19.0184679
            ],
            [
              -40.6580485,
              -19.0186028
            ],
            [
              -40.6578115,
              -19.0189998
            ],
            [
              -40.6575067,
              -19.0188013
            ],
            [
              -40.6577402,
              -19.0184679
            ]
          ]
        ]
      }
    },
    {
      "type": "Feature",
      "id": "node/4024904403",
      "properties": {
        "timestamp": "2016-02-25T01:59:15Z",
        "version": 1,
        "changeset": 37426154,
        "IJSN:administra": "Estadual",
        "IJSN:classeCnae": "Fundamental e Médio",
        "addr:city": "Águia Branca",
        "addr:postcode": "29795-000",
        "addr:suburb": "Comunidade Barra de Jabuticaba",
        "alt_name": "Centro Estadual Integrado de Educação Rural",
        "amenity": "school",
        "contact:phone": "(27) 9892-7877",
        "name": "CEIER de Águia Branca",
        "source": "IJSN",
        "id": "node/4024904403"
      },
      "geometry": {
        "type": "Point",
        "coordinates": [
          -40.6523249,
          -19.0163591
        ]
      }
    },
    {
      "type": "Feature",
      "id": "node/4024904855",
      "properties": {
        "timestamp": "2018-11-08T02:40:55Z",
        "version": 2,
        "changeset": 64279160,
        "IJSN:administra": "Estadual",
        "IJSN:classeCnae": "Fundamental e Médio",
        "addr:city": "Águia Branca",
        "addr:housenumber": "220",
        "addr:postcode": "29795-000",
        "addr:street": "Rua Jorge Elias Hitti",
        "addr:suburb": "Centro",
        "alt_name": "Escola Estadual de Ensino Fundamental e Médio",
        "amenity": "school",
        "contact:phone": "(27) 3745-1465",
        "name": "EEEFM Professora Ana Maria Carletti Quiuqui",
        "old_name": "EEEFM Águia Branca",
        "source": "IJSN",
        "id": "node/4024904855"
      },
      "geometry": {
        "type": "Point",
        "coordinates": [
          -40.7404085,
          -18.984999
        ]
      }
    },
    {
      "type": "Feature",
      "id": "node/4024905211",
      "properties": {
        "timestamp": "2016-02-25T02:00:06Z",
        "version": 1,
        "changeset": 37426154,
        "IJSN:administra": "Municipal",
        "IJSN:classeCnae": "Infantil e Fundamental",
        "addr:city": "Águia Branca",
        "addr:postcode": "29795-000",
        "addr:suburb": "Comunidade Córrego Águas Claras",
        "alt_name": "Escola Municipal Comunitária Agroecológica",
        "amenity": "school",
        "contact:phone": "(27) 3745-2111",
        "name": "EMCA Fazenda Lacerda",
        "source": "IJSN",
        "id": "node/4024905211"
      },
      "geometry": {
        "type": "Point",
        "coordinates": [
          -40.8243332,
          -18.8926338
        ]
      }
    },
    {
      "type": "Feature",
      "id": "node/4024905212",
      "properties": {
        "timestamp": "2016-02-25T02:00:07Z",
        "version": 1,
        "changeset": 37426154,
        "IJSN:administra": "Municipal",
        "IJSN:classeCnae": "Infantil e Fundamental",
        "addr:city": "Águia Branca",
        "addr:postcode": "29795-000",
        "addr:suburb": "Córrego São João",
        "alt_name": "Escola Municipal Comunitária Agroecológica",
        "amenity": "school",
        "contact:phone": "(27) 9951-9770",
        "name": "EMCA João Quiuqui",
        "source": "IJSN",
        "id": "node/4024905212"
      },
      "geometry": {
        "type": "Point",
        "coordinates": [
          -40.7156755,
          -18.9461365
        ]
      }
    },
    {
      "type": "Feature",
      "id": "node/4024905415",
      "properties": {
        "timestamp": "2016-02-25T02:00:24Z",
        "version": 1,
        "changeset": 37426154,
        "IJSN:administra": "Municipal",
        "IJSN:classeCnae": "Infantil e Fundamental",
        "addr:city": "Águia Branca",
        "addr:postcode": "29795-000",
        "addr:street": "Rodovia Henrique Rodirigues Santana",
        "addr:suburb": "Comunidade Wrobleswak",
        "alt_name": "Escola Municipal de Ensino Fundamental",
        "amenity": "school",
        "contact:phone": "(27) 9970-0121",
        "name": "EMEF Córrego do Café",
        "source": "IJSN",
        "id": "node/4024905415"
      },
      "geometry": {
        "type": "Point",
        "coordinates": [
          -40.7519056,
          -18.918967
        ]
      }
    },
    {
      "type": "Feature",
      "id": "node/4024905640",
      "properties": {
        "timestamp": "2016-02-25T02:00:45Z",
        "version": 1,
        "changeset": 37426154,
        "IJSN:administra": "Municipal",
        "IJSN:classeCnae": "Fundamental",
        "addr:city": "Águia Branca",
        "addr:housenumber": "40",
        "addr:postcode": "29795-000",
        "addr:street": "Rua José de Melo Barbosa",
        "addr:suburb": "Centro",
        "alt_name": "Escola Municipal de Ensino Fundamental",
        "amenity": "school",
        "contact:phone": "(27) 3745-1271",
        "name": "EMEF Padre Sérgio Banzza",
        "source": "IJSN",
        "id": "node/4024905640"
      },
      "geometry": {
        "type": "Point",
        "coordinates": [
          -40.7418579,
          -18.9849434
        ]
      }
    },
    {
      "type": "Feature",
      "id": "node/4024905651",
      "properties": {
        "timestamp": "2016-02-25T02:00:47Z",
        "version": 1,
        "changeset": 37426154,
        "IJSN:administra": "Municipal",
        "IJSN:classeCnae": "Infantil e Fundamental",
        "addr:city": "Águia Branca",
        "addr:postcode": "29795-000",
        "addr:suburb": "Comunidade Ebeneze",
        "alt_name": "Escola Municipal de Ensino Fundamental",
        "amenity": "school",
        "name": "EMEF Pedra Torta",
        "source": "IJSN",
        "id": "node/4024905651"
      },
      "geometry": {
        "type": "Point",
        "coordinates": [
          -40.6831194,
          -19.0698478
        ]
      }
    },
    {
      "type": "Feature",
      "id": "node/4024906664",
      "properties": {
        "timestamp": "2016-02-25T02:02:23Z",
        "version": 1,
        "changeset": 37426154,
        "IJSN:administra": "Municipal",
        "IJSN:classeCnae": "Fundamental",
        "addr:city": "Águia Branca",
        "addr:postcode": "29795-000",
        "addr:suburb": "Comunidade Rochedo",
        "alt_name": "Escola Pluridocente Municipal",
        "amenity": "school",
        "name": "EP MUL Fazenda Corteletti",
        "source": "IJSN",
        "id": "node/4024906664"
      },
      "geometry": {
        "type": "Point",
        "coordinates": [
          -40.797878,
          -18.9660677
        ]
      }
    },
    {
      "type": "Feature",
      "id": "node/4024906665",
      "properties": {
        "timestamp": "2016-02-25T02:02:23Z",
        "version": 1,
        "changeset": 37426154,
        "IJSN:administra": "Municipal",
        "IJSN:classeCnae": "Fundamental",
        "addr:city": "Águia Branca",
        "addr:postcode": "29795-000",
        "addr:suburb": "Comunidade Córrego do Moinho",
        "alt_name": "Escola Pluridocente Municipal",
        "amenity": "school",
        "name": "EP MUL Fazenda Paraíso",
        "source": "IJSN",
        "id": "node/4024906665"
      },
      "geometry": {
        "type": "Point",
        "coordinates": [
          -40.8310925,
          -18.8684616
        ]
      }
    },
    {
      "type": "Feature",
      "id": "node/4024906826",
      "properties": {
        "timestamp": "2016-02-25T02:02:32Z",
        "version": 1,
        "changeset": 37426154,
        "IJSN:administra": "Municipal",
        "IJSN:classeCnae": "Fundamental",
        "addr:city": "Águia Branca",
        "addr:postcode": "29795-000",
        "addr:suburb": "Comunidade Córrego das Flores",
        "alt_name": "Escola Unidocente",
        "amenity": "school",
        "name": "EU Córrego das Flores",
        "source": "IJSN",
        "id": "node/4024906826"
      },
      "geometry": {
        "type": "Point",
        "coordinates": [
          -40.7893611,
          -19.0140987
        ]
      }
    },
    {
      "type": "Feature",
      "id": "node/4024906827",
      "properties": {
        "timestamp": "2016-02-25T02:02:32Z",
        "version": 1,
        "changeset": 37426154,
        "IJSN:administra": "Municipal",
        "IJSN:classeCnae": "Fundamental",
        "addr:city": "Águia Branca",
        "addr:postcode": "29795-000",
        "addr:suburb": "Comunidade Córrego das Pedras",
        "alt_name": "Escola Unidocente",
        "amenity": "school",
        "name": "EU Córrego das Pedras",
        "source": "IJSN",
        "id": "node/4024906827"
      },
      "geometry": {
        "type": "Point",
        "coordinates": [
          -40.8456062,
          -19.0104253
        ]
      }
    },
    {
      "type": "Feature",
      "id": "node/4024906833",
      "properties": {
        "timestamp": "2016-02-25T02:02:33Z",
        "version": 1,
        "changeset": 37426154,
        "IJSN:administra": "Municipal",
        "IJSN:classeCnae": "Fundamental",
        "addr:city": "Águia Branca",
        "addr:postcode": "29795-000",
        "addr:suburb": "Comunidade Santa Cruz",
        "alt_name": "Escola Unidocente",
        "amenity": "school",
        "name": "EU Santa Cruz",
        "source": "IJSN",
        "id": "node/4024906833"
      },
      "geometry": {
        "type": "Point",
        "coordinates": [
          -40.7938321,
          -18.9924333
        ]
      }
    },
    {
      "type": "Feature",
      "id": "node/4024906913",
      "properties": {
        "timestamp": "2016-02-25T02:02:46Z",
        "version": 1,
        "changeset": 37426154,
        "IJSN:administra": "Municipal",
        "IJSN:classeCnae": "Fundamental",
        "addr:city": "Pancas",
        "addr:postcode": "29750-000",
        "addr:suburb": "Comunidade Córrego do Pião",
        "alt_name": "Escola Unidocente Municipal de Ensino Fundamental",
        "amenity": "school",
        "name": "EUMEF Cabeceira do Córrego Pião",
        "source": "IJSN",
        "id": "node/4024906913"
      },
      "geometry": {
        "type": "Point",
        "coordinates": [
          -40.8734951,
          -18.9241217
        ]
      }
    },
    {
      "type": "Feature",
      "id": "node/4024906926",
      "properties": {
        "timestamp": "2021-04-10T12:46:32Z",
        "version": 2,
        "changeset": 102697034,
        "IJSN:administra": "Municipal",
        "IJSN:classeCnae": "Fundamental",
        "addr:city": "Pancas",
        "addr:postcode": "29752-000",
        "addr:suburb": "Comunidade Fazenda Boa Vista",
        "alt_name": "Escola Unidocente Municipal de Ensino Fundamental",
        "amenity": "school",
        "name": "EUMEF Fazenda Boa Vista",
        "source": "IJSN",
        "id": "node/4024906926"
      },
      "geometry": {
        "type": "Point",
        "coordinates": [
          -40.8503326,
          -18.9446318
        ]
      }
    },
    {
      "type": "Feature",
      "id": "node/4024906946",
      "properties": {
        "timestamp": "2016-02-25T02:02:50Z",
        "version": 1,
        "changeset": 37426154,
        "IJSN:administra": "Municipal",
        "IJSN:classeCnae": "Fundamental",
        "addr:city": "Pancas",
        "addr:postcode": "29752-000",
        "addr:suburb": "Comunidade Córrego do Pião",
        "alt_name": "Escola Unidocente Municipal de Ensino Fundamental",
        "amenity": "school",
        "name": "EUMEF São Caetano",
        "source": "IJSN",
        "id": "node/4024906946"
      },
      "geometry": {
        "type": "Point",
        "coordinates": [
          -40.8828398,
          -18.9044295
        ]
      }
    }
  ]
}
