{
  "type": "FeatureCollection",
  "features": [
    {
      "type": "Feature",
      "id": "way/1306353237",
      "properties": {
        "timestamp": "2024-08-08T12:35:21Z",
        "version": 1,
        "changeset": 154976943,
        "addr:city": "Serrinha",
        "addr:postcode": "48700000",
        "addr:street": "Estrada Velha de Boiada",
        "addr:suburb": "Cruzeiro da Paz",
        "amenity": "community_centre",
        "building": "yes",
        "name": "Associação de Moradores do Cruzeiro da Paz",
        "id": "way/1306353237"
      },
      "geometry": {
        "type": "Polygon",
        "coordinates": [
          [
            [
              -39.0066721,
              -11.5939144
            ],
            [
              -39.0066721,
              -11.5939956
            ],
            [
              -39.0065472,
              -11.5939876
            ],
            [
              -39.0065484,
              -11.5939121
            ],
            [
              -39.0066721,
              -11.5939144
            ]
          ]
        ]
      }
    },
    {
      "type": "Feature",
      "id": "way/1306353239",
      "properties": {
        "timestamp": "2024-08-08T12:35:21Z",
        "version": 1,
        "changeset": 154976943,
        "addr:city": "Serrinha",
        "addr:postcode": "48700000",
        "addr:street": "Rua Morro do Galo",
        "addr:suburb": "Alto Alegre",
        "amenity": "community_centre",
        "building": "yes",
        "name": "Delegacia Sindical de Alto Alegre",
        "id": "way/1306353239"
      },
      "geometry": {
        "type": "Polygon",
        "coordinates": [
          [
            [
              -39.0003536,
              -11.582913
            ],
            [
              -39.0005521,
              -11.5828552
            ],
            [
              -39.0006044,
              -11.5830037
            ],
            [
              -39.0003362,
              -11.5830904
            ],
            [
              -39.0003536,
              -11.582913
            ]
          ]
        ]
      }
    }
  ]
}
