{
  "type": "FeatureCollection",
  "features": [
    {
      "type": "Feature",
      "id": "way/1220085370",
      "properties": {
        "timestamp": "2023-11-01T17:56:18Z",
        "version": 1,
        "changeset": 143488734,
        "building": "commercial",
        "government": "public_service",
        "name": "SEAGRI - Secretaria da Agricultura, Pecuária, Irrigação, Pesca e Aquicultura",
        "office": "government",
        "id": "way/1220085370"
      },
      "geometry": {
        "type": "Polygon",
        "coordinates": [
          [
            [
              -39.0048469,
              -11.6657614
            ],
            [
              -39.0046219,
              -11.6660638
            ],
            [
              -39.0043791,
              -11.6658912
            ],
            [
              -39.0045974,
              -11.6656196
            ],
            [
              -39.0048469,
              -11.6657614
            ]
          ]
        ]
      }
    },
    {
      "type": "Feature",
      "id": "way/1306356686",
      "properties": {
        "timestamp": "2024-08-08T12:55:40Z",
        "version": 1,
        "changeset": 154977896,
        "addr:city": "Serrinha",
        "addr:housenumber": "152",
        "addr:postcode": "48700000",
        "addr:street": "Rua Machado de Assis",
        "addr:suburb": "Ginásio",
        "air_conditioning": "yes",
        "building": "yes",
        "building:levels": "1",
        "government": "education",
        "internet_access": "yes",
        "name": "Núcleo Territorial de Educação - NTE 04",
        "office": "government",
        "opening_hours": "Mo-Fr 08:00-17:00",
        "phone": "+55 75 3273-2551",
        "website": "https://nte04.educacao.ba.gov.br/",
        "wheelchair": "yes",
        "id": "way/1306356686"
      },
      "geometry": {
        "type": "Polygon",
        "coordinates": [
          [
            [
              -39.002865,
              -11.6674211
            ],
            [
              -39.0028296,
              -11.667558
            ],
            [
              -39.0026845,
              -11.6675077
            ],
            [
              -39.002711,
              -11.6673674
            ],
            [
              -39.002865,
              -11.6674211
            ]
          ]
        ]
      }
    }
  ]
}
