{
  "type": "FeatureCollection",
  "features": [
    {
      "type": "Feature",
      "id": "way/360938098",
      "properties": {
        "timestamp": "2023-03-20T14:28:29Z",
        "version": 12,
        "changeset": 133901742,
        "addr:city": "Ponta Porã",
        "addr:country": "BR",
        "addr:district": "Vila Militar",
        "addr:housenumber": "3047",
        "addr:place": "Alquimia Farmácia de Manupulação",
        "addr:state": "MS",
        "addr:street": "Avenida Brasil",
        "addr:suburb": "Centro",
        "amenity": "pharmacy",
        "building": "commercial",
        "building:levels": "3",
        "description": "mixed_use",
        "dispensing": "yes",
        "drive_through": "yes",
        "healthcare": "pharmacy",
        "name": "Drogão Popular",
        "opening_hours": "Mo-Su 07:00-24:00",
        "operator": "Drogão Popular",
        "phone": "+55 67 3432 0010",
        "id": "way/360938098"
      },
      "geometry": {
        "type": "Polygon",
        "coordinates": [
          [
            [
              -55.7285737,
              -22.5372325
            ],
            [
              -55.7286982,
              -22.5373102
            ],
            [
              -55.7286626,
              -22.537359
            ],
            [
              -55.7287087,
              -22.5373877
            ],
            [
              -55.7286697,
              -22.537441
            ],
            [
              -55.7284991,
              -22.5373346
            ],
            [
              -55.7285737,
              -22.5372325
            ]
          ]
        ]
      }
    },
    {
      "type": "Feature",
      "id": "way/666560920",
      "properties": {
        "timestamp": "2023-03-22T12:09:26Z",
        "version": 3,
        "changeset": 133975551,
        "amenity": "pharmacy",
        "building": "commercial",
        "building:levels": "1",
        "name": "Palitos Mexicanos",
        "source": "cidi",
        "id": "way/666560920"
      },
      "geometry": {
        "type": "Polygon",
        "coordinates": [
          [
            [
              -55.7298714,
              -22.5382203
            ],
            [
              -55.7299086,
              -22.5381752
            ],
            [
              -55.7299712,
              -22.5381007
            ],
            [
              -55.7300437,
              -22.5381493
            ],
            [
              -55.7299688,
              -22.5382495
            ],
            [
              -55.7299064,
              -22.5382444
            ],
            [
              -55.7298714,
              -22.5382203
            ]
          ]
        ]
      }
    },
    {
      "type": "Feature",
      "id": "way/666792602",
      "properties": {
        "timestamp": "2022-11-24T01:49:20Z",
        "version": 6,
        "changeset": 129302363,
        "addr:city": "Ponta Porã",
        "addr:country": "BR",
        "addr:housenumber": "159",
        "addr:place": "Alquimia Farmácia de Manupulação",
        "addr:state": "MS",
        "addr:street": "Rua Tiradentes",
        "addr:suburb": "Centro",
        "amenity": "pharmacy",
        "building": "commercial",
        "building:levels": "1",
        "dispensing": "yes",
        "healthcare": "pharmacy",
        "name": "Alquimia Farmácia de Manupulação",
        "source": "cidi",
        "id": "way/666792602"
      },
      "geometry": {
        "type": "Polygon",
        "coordinates": [
          [
            [
              -55.7292283,
              -22.5377877
            ],
            [
              -55.7291352,
              -22.5377302
            ],
            [
              -55.7292519,
              -22.537569
            ],
            [
              -55.7292756,
              -22.5375836
            ],
            [
              -55.7292922,
              -22.5375606
            ],
            [
              -55.7293617,
              -22.5376035
            ],
            [
              -55.7292283,
              -22.5377877
            ]
          ]
        ]
      }
    },
    {
      "type": "Feature",
      "id": "way/666792606",
      "properties": {
        "timestamp": "2019-07-08T13:46:22Z",
        "version": 2,
        "changeset": 72015555,
        "addr:housenumber": "2987",
        "addr:postcode": "79904-673",
        "addr:street": "Avenida Brasil",
        "amenity": "pharmacy",
        "building": "yes",
        "building:levels": "1",
        "dispensing": "yes",
        "healthcare": "pharmacy",
        "name": "Drogaria Avenida",
        "opening_hours": "Mo-Sa 07:00-19:00",
        "phone": "+55 67 3431 3708",
        "id": "way/666792606"
      },
      "geometry": {
        "type": "Polygon",
        "coordinates": [
          [
            [
              -55.7284922,
              -22.5378127
            ],
            [
              -55.7284217,
              -22.5379054
            ],
            [
              -55.7281859,
              -22.5377523
            ],
            [
              -55.7282564,
              -22.5376597
            ],
            [
              -55.7284922,
              -22.5378127
            ]
          ]
        ]
      }
    },
    {
      "type": "Feature",
      "id": "way/678511466",
      "properties": {
        "timestamp": "2023-03-22T12:09:26Z",
        "version": 2,
        "changeset": 133975551,
        "addr:city": "Ponta Porã",
        "addr:country": "BR",
        "addr:district": "Vila Militar",
        "addr:housenumber": "79",
        "addr:place": "FarmaClin",
        "addr:state": "MS",
        "addr:street": "Rua Tiradentes",
        "addr:suburb": "Centro",
        "amenity": "pharmacy",
        "building": "yes",
        "building:levels": "1",
        "drive_through": "no",
        "healthcare": "pharmacy",
        "name": "FarmaClin",
        "opening_hours": "24/7",
        "operator": "Rede Minas Farma Popular",
        "source": "cidi",
        "id": "way/678511466"
      },
      "geometry": {
        "type": "Polygon",
        "coordinates": [
          [
            [
              -55.7299712,
              -22.5381007
            ],
            [
              -55.7298714,
              -22.5382203
            ],
            [
              -55.7298238,
              -22.5381875
            ],
            [
              -55.7299236,
              -22.538068
            ],
            [
              -55.7299712,
              -22.5381007
            ]
          ]
        ]
      }
    },
    {
      "type": "Feature",
      "id": "node/4552260689",
      "properties": {
        "timestamp": "2021-05-04T00:12:27Z",
        "version": 3,
        "changeset": 104083620,
        "addr:street": "Rua Marechal Floriano",
        "amenity": "pharmacy",
        "dispensing": "yes",
        "drive_through": "yes",
        "healthcare": "pharmacy",
        "name": "Farmacia Maxi popular",
        "name:pt": "Farmacia Maxi popular",
        "id": "node/4552260689"
      },
      "geometry": {
        "type": "Point",
        "coordinates": [
          -55.7285431,
          -22.5406562
        ]
      }
    },
    {
      "type": "Feature",
      "id": "node/6796126554",
      "properties": {
        "timestamp": "2019-09-22T21:06:11Z",
        "version": 2,
        "changeset": 74781781,
        "addr:housenumber": "1389",
        "addr:street": "Rua Pedro Ângelo da Rosa",
        "amenity": "pharmacy",
        "dispensing": "yes",
        "name": "Drogaria Reis",
        "phone": "+55 67 98409 3763",
        "id": "node/6796126554"
      },
      "geometry": {
        "type": "Point",
        "coordinates": [
          -55.7298883,
          -22.5064046
        ]
      }
    },
    {
      "type": "Feature",
      "id": "node/6809914985",
      "properties": {
        "timestamp": "2021-06-05T21:49:27Z",
        "version": 3,
        "changeset": 105898973,
        "amenity": "pharmacy",
        "dispensing": "yes",
        "fax": "+55 67 3431 6384",
        "healthcare": "pharmacy",
        "name": "Farmácia Morifarma",
        "phone": "+55 67 3431 5001",
        "id": "node/6809914985"
      },
      "geometry": {
        "type": "Point",
        "coordinates": [
          -55.7313791,
          -22.5363806
        ]
      }
    },
    {
      "type": "Feature",
      "id": "node/6809914991",
      "properties": {
        "timestamp": "2021-06-05T21:49:27Z",
        "version": 3,
        "changeset": 105898973,
        "addr:housenumber": "2394",
        "addr:street": "Rua Marechal Floriano",
        "amenity": "pharmacy",
        "healthcare": "pharmacy",
        "name": "Drogaria Globo",
        "wheelchair": "limited",
        "id": "node/6809914991"
      },
      "geometry": {
        "type": "Point",
        "coordinates": [
          -55.7320027,
          -22.5354878
        ]
      }
    },
    {
      "type": "Feature",
      "id": "node/6859228380",
      "properties": {
        "timestamp": "2022-11-24T01:18:21Z",
        "version": 2,
        "changeset": 129302025,
        "camera:mount": "wall",
        "camera:type": "fixed",
        "man_made": "surveillance",
        "surveillance": "public",
        "surveillance:type": "camera",
        "surveillance:zone": "shop",
        "id": "node/6859228380"
      },
      "geometry": {
        "type": "Point",
        "coordinates": [
          -55.7285737,
          -22.5372325
        ]
      }
    },
    {
      "type": "Feature",
      "id": "node/7258215183",
      "properties": {
        "timestamp": "2021-05-04T00:12:27Z",
        "version": 2,
        "changeset": 104083620,
        "amenity": "pharmacy",
        "dispensing": "yes",
        "healthcare": "pharmacy",
        "name": "Oriental Farma",
        "id": "node/7258215183"
      },
      "geometry": {
        "type": "Point",
        "coordinates": [
          -55.7281887,
          -22.5405797
        ]
      }
    },
    {
      "type": "Feature",
      "id": "node/7258238785",
      "properties": {
        "timestamp": "2021-05-04T00:12:27Z",
        "version": 2,
        "changeset": 104083620,
        "addr:city": "Ponta Porã",
        "amenity": "pharmacy",
        "dispensing": "yes",
        "healthcare": "pharmacy",
        "name": "Farmácia Internacional",
        "opening_hours": "24/7",
        "phone": "+55 67 3431 4757",
        "id": "node/7258238785"
      },
      "geometry": {
        "type": "Point",
        "coordinates": [
          -55.7279836,
          -22.5408448
        ]
      }
    },
    {
      "type": "Feature",
      "id": "node/7258238791",
      "properties": {
        "timestamp": "2021-06-05T21:49:27Z",
        "version": 2,
        "changeset": 105898973,
        "amenity": "pharmacy",
        "healthcare": "pharmacy",
        "name": "Dorifarma",
        "id": "node/7258238791"
      },
      "geometry": {
        "type": "Point",
        "coordinates": [
          -55.7259219,
          -22.5407309
        ]
      }
    },
    {
      "type": "Feature",
      "id": "node/7270953130",
      "properties": {
        "timestamp": "2021-05-04T00:12:27Z",
        "version": 2,
        "changeset": 104083620,
        "amenity": "pharmacy",
        "dispensing": "yes",
        "drive_through": "yes",
        "healthcare": "pharmacy",
        "name": "Ultra Popular",
        "id": "node/7270953130"
      },
      "geometry": {
        "type": "Point",
        "coordinates": [
          -55.7279536,
          -22.5374229
        ]
      }
    },
    {
      "type": "Feature",
      "id": "node/7742113951",
      "properties": {
        "timestamp": "2020-07-23T23:55:24Z",
        "version": 1,
        "changeset": 88428603,
        "amenity": "pharmacy",
        "id": "node/7742113951"
      },
      "geometry": {
        "type": "Point",
        "coordinates": [
          -55.7330444,
          -22.5171206
        ]
      }
    }
  ]
}
