{
  "type": "FeatureCollection",
  "features": [
    {
      "type": "Feature",
      "id": "way/779985158",
      "properties": {
        "timestamp": "2025-04-04T21:22:16Z",
        "version": 5,
        "changeset": 164529111,
        "addr:city": "Ponta Por√£",
        "addr:housenumber": "340",
        "addr:postcode": "79905302",
        "addr:street": "Rua Dom Pedro Segundo",
        "addr:suburb": "Vila Militar",
        "amenity": "veterinary",
        "building": "commercial",
        "building:levels": "2",
        "name": "CliniVET 24HORAS",
        "opening_hours": "24/7",
        "source": "cidi;local knowledge",
        "id": "way/779985158"
      },
      "geometry": {
        "type": "Polygon",
        "coordinates": [
          [
            [
              -55.724326,
              -22.543673
            ],
            [
              -55.7243978,
              -22.5437192
            ],
            [
              -55.7243388,
              -22.5437975
            ],
            [
              -55.7243542,
              -22.5438074
            ],
            [
              -55.724325,
              -22.5438461
            ],
            [
              -55.7243103,
              -22.5438366
            ],
            [
              -55.7242728,
              -22.5438863
            ],
            [
              -55.7242004,
              -22.5438396
            ],
            [
              -55.724326,
              -22.543673
            ]
          ]
        ]
      }
    }
  ]
}
