{
  "type": "FeatureCollection",
  "features": [
    {
      "type": "Feature",
      "id": "way/1223869808",
      "properties": {
        "timestamp": "2024-05-20T16:51:17Z",
        "version": 3,
        "changeset": 151590439,
        "addr:city": "Cruzeiro do Sul",
        "addr:postcode": "95930000",
        "addr:street": "Estrada Geral",
        "addr:suburb": "Linha Sitio",
        "amenity": "school",
        "building": "yes",
        "name": "Escola São Felipe",
        "religion": "none",
        "id": "way/1223869808"
      },
      "geometry": {
        "type": "Polygon",
        "coordinates": [
          [
            [
              -52.0263328,
              -29.5452624
            ],
            [
              -52.0263691,
              -29.5453478
            ],
            [
              -52.026073,
              -29.5454429
            ],
            [
              -52.026002,
              -29.5452755
            ],
            [
              -52.0261336,
              -29.5452333
            ],
            [
              -52.0261684,
              -29.5453152
            ],
            [
              -52.0263328,
              -29.5452624
            ]
          ]
        ]
      }
    },
    {
      "type": "Feature",
      "id": "node/7630720783",
      "properties": {
        "timestamp": "2023-05-10T03:03:34Z",
        "version": 2,
        "changeset": 135916773,
        "addr:city": "Cruzeiro do Sul",
        "addr:postcode": "95930-000",
        "amenity": "school",
        "name": "EEEF São Rafael",
        "phone": "+55 51 3764 1811",
        "ref:INEP": "43050468",
        "id": "node/7630720783"
      },
      "geometry": {
        "type": "Point",
        "coordinates": [
          -52.0530127,
          -29.5099455
        ]
      }
    }
  ]
}
