{
  "type": "FeatureCollection",
  "features": [
    {
      "type": "Feature",
      "id": "node/3897495207",
      "properties": {
        "timestamp": "2023-06-26T03:18:52Z",
        "version": 3,
        "changeset": 137771782,
        "addr:housenumber": "465",
        "addr:postcode": "15070-450",
        "addr:street": "Rua Doutor Antônio Bahia Monteiro",
        "amenity": "doctors",
        "healthcare": "doctor",
        "name": "Medical Center Austa",
        "phone": "+55 17 3203 1400",
        "ref:CNES": "9732721",
        "ref:vatin": "BR59847780000314",
        "id": "node/3897495207"
      },
      "geometry": {
        "type": "Point",
        "coordinates": [
          -49.3645342,
          -20.8219474
        ]
      }
    },
    {
      "type": "Feature",
      "id": "node/9911824742",
      "properties": {
        "timestamp": "2022-07-26T13:37:35Z",
        "version": 1,
        "changeset": 124097459,
        "addr:city": "São José do Rio Preto",
        "addr:housenumber": "444 - Sala 02 - Consultorio 01",
        "addr:postcode": "15092-280",
        "addr:street": "Rua Francisco Giglioti",
        "addr:suburb": "São Manoel",
        "amenity": "doctors",
        "description": "Sou a Dra. Lays Abreu, médica pediatra integrativa, atuando com atendimento personalizado para atender as demandas do paciente e da sua família.",
        "healthcare": "doctor",
        "healthcare:speciality": "paediatrics",
        "image": "https://goo.gl/maps/hVu51ZRTods4T4Kz8",
        "name": "Dra. Lays Abreu - Pediatra",
        "opening_hours": "Mo-Fr 08:00-18:00",
        "operator": "Rafael Accarini",
        "phone": "+55 17 99648-5595",
        "source": "local knowledge",
        "start_date": "2020-07-01",
        "website": "https://www.dralaysabreupediatra.com.br/",
        "id": "node/9911824742"
      },
      "geometry": {
        "type": "Point",
        "coordinates": [
          -49.3998516,
          -20.8316328
        ]
      }
    },
    {
      "type": "Feature",
      "id": "node/11762271860",
      "properties": {
        "timestamp": "2024-03-25T21:58:10Z",
        "version": 1,
        "changeset": 149151077,
        "addr:city": "São José do Rio Preto",
        "addr:housenumber": "8001",
        "addr:street": "Avenida Anísio Haddad",
        "amenity": "doctors",
        "healthcare": "doctor",
        "healthcare:speciality": "cardiology",
        "name": "Dra. Simone Casteluci Bedin",
        "phone": "+5517997511030",
        "id": "node/11762271860"
      },
      "geometry": {
        "type": "Point",
        "coordinates": [
          -49.401427,
          -20.845129
        ]
      }
    },
    {
      "type": "Feature",
      "id": "node/11762274593",
      "properties": {
        "timestamp": "2024-03-30T20:35:27Z",
        "version": 2,
        "changeset": 149367541,
        "addr:city": "São José do Rio Preto",
        "addr:housenumber": "8001",
        "addr:street": "avenida anisio Haddad",
        "amenity": "doctors",
        "healthcare": "doctor",
        "healthcare:speciality": "transplant",
        "name": "Dr. Carlos Bedin",
        "phone": "(17) 99702-5010",
        "website": "https://drcarlosbedin.com.br/",
        "id": "node/11762274593"
      },
      "geometry": {
        "type": "Point",
        "coordinates": [
          -49.4015081,
          -20.8451335
        ]
      }
    }
  ]
}
