{
  "type": "FeatureCollection",
  "features": [
    {
      "type": "Feature",
      "id": "relation/6785192",
      "properties": {
        "timestamp": "2019-11-17T19:27:14Z",
        "version": 2,
        "changeset": 77197797,
        "addr:city": "São José do Rio Preto",
        "addr:housenumber": "55",
        "addr:state": "SP",
        "addr:street": "Rua Beraldo Prata",
        "addr:suburb": "Cristo Rei",
        "amenity": "kindergarten",
        "name": "Escola de Educação Infantil Márcia Affini Bagdasaryan",
        "type": "multipolygon",
        "id": "relation/6785192"
      },
      "geometry": {
        "type": "Polygon",
        "coordinates": [
          [
            [
              -49.3495349,
              -20.8363983
            ],
            [
              -49.3491603,
              -20.8361163
            ],
            [
              -49.3495777,
              -20.8356369
            ],
            [
              -49.3499499,
              -20.8359267
            ],
            [
              -49.3495349,
              -20.8363983
            ]
          ]
        ]
      }
    },
    {
      "type": "Feature",
      "id": "way/387894737",
      "properties": {
        "timestamp": "2015-12-26T19:05:28Z",
        "version": 1,
        "changeset": 36182703,
        "addr:street": "Rua Walder Antônio Sbrogio",
        "addr:suburb": "Jardim Santo Antônio",
        "amenity": "kindergarten",
        "name": "Creche Tacla Said Benetti",
        "operator": "Prefeitura Municipal",
        "id": "way/387894737"
      },
      "geometry": {
        "type": "Polygon",
        "coordinates": [
          [
            [
              -49.3955333,
              -20.7612511
            ],
            [
              -49.3952692,
              -20.7617849
            ],
            [
              -49.3948146,
              -20.76159
            ],
            [
              -49.3950896,
              -20.7610535
            ],
            [
              -49.3955333,
              -20.7612511
            ]
          ]
        ]
      }
    },
    {
      "type": "Feature",
      "id": "way/406691194",
      "properties": {
        "timestamp": "2016-03-31T00:24:34Z",
        "version": 1,
        "changeset": 38185266,
        "addr:street": "Avenida Antônio Marcos de Oliveira",
        "addr:suburb": "Jardim das Oliveiras",
        "amenity": "kindergarten",
        "building": "school",
        "name": "Creche Municipal Amélia Balbo Sacchetin",
        "operator": "Prefeitura",
        "id": "way/406691194"
      },
      "geometry": {
        "type": "Polygon",
        "coordinates": [
          [
            [
              -49.4089904,
              -20.7726695
            ],
            [
              -49.4089564,
              -20.7729095
            ],
            [
              -49.4084269,
              -20.7728294
            ],
            [
              -49.4084583,
              -20.7726481
            ],
            [
              -49.4085754,
              -20.7726658
            ],
            [
              -49.4085854,
              -20.7726081
            ],
            [
              -49.4089904,
              -20.7726695
            ]
          ]
        ]
      }
    },
    {
      "type": "Feature",
      "id": "way/483737740",
      "properties": {
        "timestamp": "2021-07-01T20:09:20Z",
        "version": 3,
        "changeset": 107278079,
        "addr:city": "São José do Rio Preto",
        "amenity": "kindergarten",
        "name": "Creche Raquel Veronezzi Marques da Silva",
        "operator": "Prefeitura Municipal",
        "id": "way/483737740"
      },
      "geometry": {
        "type": "Polygon",
        "coordinates": [
          [
            [
              -49.374062,
              -20.7759305
            ],
            [
              -49.3741666,
              -20.776387
            ],
            [
              -49.3734987,
              -20.776555
            ],
            [
              -49.3733727,
              -20.7760885
            ],
            [
              -49.374062,
              -20.7759305
            ]
          ]
        ]
      }
    },
    {
      "type": "Feature",
      "id": "way/708115257",
      "properties": {
        "timestamp": "2019-07-27T20:45:04Z",
        "version": 1,
        "changeset": 72724865,
        "addr:city": "São José do Rio Preto",
        "addr:housenumber": "41",
        "addr:street": "Rua Professor Jamil Kauan",
        "addr:suburb": "Vila Bancária",
        "amenity": "kindergarten",
        "name": "Escola Municipal Soldadinho de Chumbo",
        "operator": "Prefeitura Municipal",
        "phone": "+55 17 3234-7418",
        "wheelchair": "yes",
        "id": "way/708115257"
      },
      "geometry": {
        "type": "Polygon",
        "coordinates": [
          [
            [
              -49.391546,
              -20.8154282
            ],
            [
              -49.3912362,
              -20.8157378
            ],
            [
              -49.390929,
              -20.8154533
            ],
            [
              -49.3911959,
              -20.8151487
            ],
            [
              -49.391546,
              -20.8154282
            ]
          ]
        ]
      }
    },
    {
      "type": "Feature",
      "id": "way/771221285",
      "properties": {
        "timestamp": "2020-06-04T20:13:01Z",
        "version": 2,
        "changeset": 86207903,
        "addr:city": "São José do Rio Preto",
        "addr:housenumber": "395",
        "addr:postcode": "15076-050",
        "addr:street": "Rua Francisco Sizenando Júnior",
        "addr:suburb": "Parque Residencial Romano Calil",
        "amenity": "kindergarten",
        "name": "Escola Municipal Professora Amália Senir Lisboa Pontes Gestal",
        "operator": "São José do Rio Preto",
        "operator:type": "public",
        "id": "way/771221285"
      },
      "geometry": {
        "type": "Polygon",
        "coordinates": [
          [
            [
              -49.3548691,
              -20.8249019
            ],
            [
              -49.3549071,
              -20.825319
            ],
            [
              -49.3544605,
              -20.8253545
            ],
            [
              -49.3546044,
              -20.824923
            ],
            [
              -49.3548691,
              -20.8249019
            ]
          ]
        ]
      }
    },
    {
      "type": "Feature",
      "id": "way/1182376956",
      "properties": {
        "timestamp": "2023-06-16T01:52:44Z",
        "version": 1,
        "changeset": 137393953,
        "addr:city": "São José do Rio Preto",
        "addr:housenumber": "4583",
        "addr:postcode": "15015-400",
        "addr:street": "Rua General Glicério",
        "addr:suburb": "Centro",
        "amenity": "kindergarten",
        "image": "https://angloriopreto.com.br/wp-content/uploads/2020/08/2020_AK_Fachada-1-2048x2048.png",
        "name": "Anglo Kids",
        "preschool": "yes",
        "id": "way/1182376956"
      },
      "geometry": {
        "type": "Polygon",
        "coordinates": [
          [
            [
              -49.3920207,
              -20.8207692
            ],
            [
              -49.392226,
              -20.8209512
            ],
            [
              -49.3920012,
              -20.8212853
            ],
            [
              -49.3919128,
              -20.8212175
            ],
            [
              -49.3916774,
              -20.8215268
            ],
            [
              -49.3914891,
              -20.8213687
            ],
            [
              -49.3920207,
              -20.8207692
            ]
          ]
        ]
      }
    },
    {
      "type": "Feature",
      "id": "node/3708385037",
      "properties": {
        "timestamp": "2015-08-21T18:35:56Z",
        "version": 1,
        "changeset": 33490081,
        "addr:housenumber": "3621",
        "addr:street": "Rua Independência",
        "amenity": "kindergarten",
        "name": "Recanto Infantil Chapeuzinho Vermelho",
        "id": "node/3708385037"
      },
      "geometry": {
        "type": "Point",
        "coordinates": [
          -49.3803729,
          -20.8193702
        ]
      }
    },
    {
      "type": "Feature",
      "id": "node/4007172414",
      "properties": {
        "timestamp": "2019-07-19T01:29:16Z",
        "version": 3,
        "changeset": 72410575,
        "addr:city": "São José do Rio Preto",
        "addr:country": "BR",
        "addr:street": "Rua Marechal Eurico Gaspar Dutra",
        "addr:suburb": "Solo Sagrado",
        "amenity": "kindergarten",
        "name": "Creche Irmã Marta Maria",
        "id": "node/4007172414"
      },
      "geometry": {
        "type": "Point",
        "coordinates": [
          -49.4152291,
          -20.7798205
        ]
      }
    },
    {
      "type": "Feature",
      "id": "node/5023254224",
      "properties": {
        "timestamp": "2017-08-09T02:18:28Z",
        "version": 1,
        "changeset": 50958461,
        "addr:city": "São José do Rio Preto",
        "addr:district": "Engenheiro Schmidt",
        "addr:housenumber": "18",
        "addr:street": "Rua São Sebastião",
        "amenity": "kindergarten",
        "name": "Emei Gracia Maria da Silva Bortoleto",
        "id": "node/5023254224"
      },
      "geometry": {
        "type": "Point",
        "coordinates": [
          -49.30987,
          -20.8681817
        ]
      }
    },
    {
      "type": "Feature",
      "id": "node/6828714912",
      "properties": {
        "timestamp": "2019-09-26T20:34:51Z",
        "version": 1,
        "changeset": 74980647,
        "addr:city": "São José do Rio Preto",
        "addr:housenumber": "860",
        "addr:street": "Rua Olavo Guimarães Correa",
        "addr:suburb": "Jardim Ouro Verde",
        "amenity": "kindergarten",
        "name": "Creche Irmã Julieta",
        "operator": "Prefeitura Municipal",
        "wheelchair": "yes",
        "id": "node/6828714912"
      },
      "geometry": {
        "type": "Point",
        "coordinates": [
          -49.3774429,
          -20.8362298
        ]
      }
    },
    {
      "type": "Feature",
      "id": "node/7004816353",
      "properties": {
        "timestamp": "2019-11-23T21:09:54Z",
        "version": 1,
        "changeset": 77469040,
        "addr:housenumber": "3900",
        "addr:street": "Avenida Duque de Caxias",
        "amenity": "kindergarten",
        "name": "Centro de Referência da Educação e Memória da Infância",
        "operator": "Prefeitura Municipal",
        "wheelchair": "yes",
        "id": "node/7004816353"
      },
      "geometry": {
        "type": "Point",
        "coordinates": [
          -49.3688491,
          -20.8105404
        ]
      }
    },
    {
      "type": "Feature",
      "id": "node/10979897424",
      "properties": {
        "timestamp": "2023-06-16T01:52:44Z",
        "version": 1,
        "changeset": 137393953,
        "addr:city": "São José do Rio Preto",
        "addr:housenumber": "4583",
        "addr:postcode": "15015-400",
        "addr:street": "Rua General Glicério",
        "addr:suburb": "Centro",
        "amenity": "kindergarten",
        "name": "Anglo Kids",
        "preschool": "yes",
        "id": "node/10979897424"
      },
      "geometry": {
        "type": "Point",
        "coordinates": [
          -49.3920189,
          -20.8209111
        ]
      }
    },
    {
      "type": "Feature",
      "id": "node/11836029907",
      "properties": {
        "timestamp": "2024-04-21T22:38:46Z",
        "version": 1,
        "changeset": 150320710,
        "addr:city": "São José do Rio Preto",
        "addr:housenumber": "1333",
        "addr:postcode": "15061-360",
        "addr:street": "Avenida Francisco Prestes Maia",
        "addr:suburb": "Jardim Primavera",
        "amenity": "kindergarten",
        "name": "Colibri",
        "preschool": "yes",
        "id": "node/11836029907"
      },
      "geometry": {
        "type": "Point",
        "coordinates": [
          -49.357809,
          -20.8004368
        ]
      }
    }
  ]
}
