{
  "type": "FeatureCollection",
  "features": [
    {
      "type": "Feature",
      "id": "relation/6117419",
      "properties": {
        "timestamp": "2021-04-21T10:39:44Z",
        "version": 2,
        "changeset": 103332751,
        "addr:housenumber": "2720",
        "addr:street": "Avenida dos Estudantes",
        "amenity": "pharmacy",
        "building": "commercial",
        "healthcare": "pharmacy",
        "name": "Drogão Super",
        "phone": "+55 17 3222 1839",
        "type": "multipolygon",
        "id": "relation/6117419"
      },
      "geometry": {
        "type": "Polygon",
        "coordinates": [
          [
            [
              -49.3992604,
              -20.8091713
            ],
            [
              -49.3991892,
              -20.8092392
            ],
            [
              -49.3991099,
              -20.8092081
            ],
            [
              -49.3992764,
              -20.8090789
            ],
            [
              -49.3993188,
              -20.8091204
            ],
            [
              -49.3992604,
              -20.8091713
            ]
          ]
        ]
      }
    },
    {
      "type": "Feature",
      "id": "relation/9653059",
      "properties": {
        "timestamp": "2021-04-21T10:39:44Z",
        "version": 2,
        "changeset": 103332751,
        "addr:city": "São José do Rio Preto",
        "addr:housenumber": "159",
        "addr:postcode": "15030-125",
        "addr:street": "Alameda Franca",
        "addr:suburb": "Jardim Roseana",
        "amenity": "pharmacy",
        "brand": "Droga Raia",
        "brand:wikidata": "Q10357101",
        "brand:wikipedia": "pt:RaiaDrogasil",
        "building": "commercial",
        "healthcare": "pharmacy",
        "name": "Droga Raia",
        "phone": "+55 17 3212-1350",
        "type": "multipolygon",
        "id": "relation/9653059"
      },
      "geometry": {
        "type": "Polygon",
        "coordinates": [
          [
            [
              -49.3971652,
              -20.8086161
            ],
            [
              -49.3970112,
              -20.8085831
            ],
            [
              -49.3971664,
              -20.8084401
            ],
            [
              -49.3972597,
              -20.8085246
            ],
            [
              -49.3971652,
              -20.8086161
            ]
          ]
        ]
      }
    },
    {
      "type": "Feature",
      "id": "relation/9795487",
      "properties": {
        "timestamp": "2021-04-19T16:24:50Z",
        "version": 3,
        "changeset": 103211347,
        "addr:city": "São José do Rio Preto",
        "addr:housenumber": "3630",
        "addr:postcode": "15015-300",
        "addr:street": "Rua Bernardino de Campos",
        "addr:suburb": "Centro",
        "amenity": "pharmacy",
        "brand": "Drogasil",
        "brand:wikidata": "Q5308185",
        "brand:wikipedia": "pt:Drogasil",
        "building": "commercial",
        "dispensing": "yes",
        "healthcare": "pharmacy",
        "name": "Drogasil",
        "opening_hours": "Mo-Su 07:00-23:00",
        "phone": "+55 17 3235-1420",
        "type": "multipolygon",
        "wheelchair": "yes",
        "id": "relation/9795487"
      },
      "geometry": {
        "type": "Polygon",
        "coordinates": [
          [
            [
              -49.3852968,
              -20.8154541
            ],
            [
              -49.3851737,
              -20.8153408
            ],
            [
              -49.3853175,
              -20.8152044
            ],
            [
              -49.385441,
              -20.8153193
            ],
            [
              -49.3852968,
              -20.8154541
            ]
          ]
        ]
      }
    },
    {
      "type": "Feature",
      "id": "relation/9873527",
      "properties": {
        "timestamp": "2023-08-05T00:58:31Z",
        "version": 3,
        "changeset": 139462079,
        "addr:city": "São José do Rio Preto",
        "addr:housenumber": "379",
        "addr:street": "Avenida Doutor Antônio Tavares Pereira Lima",
        "addr:suburb": "Jardim Bela Vista",
        "amenity": "pharmacy",
        "brand": "Droga Raia",
        "brand:wikidata": "Q10357101",
        "building": "supermarket",
        "healthcare": "pharmacy",
        "name": "Droga Raia",
        "note": "Eu ainda não sei dizer qual rede ela faz parte ou se ela vai fazer parte de alguma rede.",
        "phone": "+55 17 3223-4008",
        "type": "multipolygon",
        "id": "relation/9873527"
      },
      "geometry": {
        "type": "Polygon",
        "coordinates": [
          [
            [
              -49.3605897,
              -20.8032083
            ],
            [
              -49.3607771,
              -20.8032316
            ],
            [
              -49.3607585,
              -20.8033528
            ],
            [
              -49.3605772,
              -20.803319
            ],
            [
              -49.3605897,
              -20.8032083
            ]
          ]
        ]
      }
    },
    {
      "type": "Feature",
      "id": "relation/9946897",
      "properties": {
        "timestamp": "2021-04-19T16:24:50Z",
        "version": 3,
        "changeset": 103211347,
        "addr:city": "São José do Rio Preto",
        "addr:housenumber": "3885",
        "addr:street": "Avenida Doutor Alberto Andaló",
        "amenity": "pharmacy",
        "brand": "Droga Raia",
        "brand:wikidata": "Q10357101",
        "brand:wikipedia": "pt:RaiaDrogasil",
        "building": "commercial",
        "healthcare": "pharmacy",
        "name": "Droga Raia",
        "phone": "+55 17 3211-9230",
        "type": "multipolygon",
        "id": "relation/9946897"
      },
      "geometry": {
        "type": "Polygon",
        "coordinates": [
          [
            [
              -49.3830259,
              -20.8206981
            ],
            [
              -49.3829133,
              -20.8205728
            ],
            [
              -49.3829481,
              -20.8205502
            ],
            [
              -49.3829401,
              -20.8205314
            ],
            [
              -49.3828972,
              -20.8205515
            ],
            [
              -49.3828301,
              -20.82047
            ],
            [
              -49.3830045,
              -20.8203321
            ],
            [
              -49.3830836,
              -20.8204587
            ],
            [
              -49.3830165,
              -20.8204938
            ],
            [
              -49.3831003,
              -20.8206358
            ],
            [
              -49.3830259,
              -20.8206981
            ]
          ]
        ]
      }
    },
    {
      "type": "Feature",
      "id": "relation/9955045",
      "properties": {
        "timestamp": "2022-10-12T20:32:16Z",
        "version": 6,
        "changeset": 127434845,
        "addr:city": "São José do Rio Preto",
        "addr:housenumber": "3600",
        "addr:postcode": "15015-300",
        "addr:street": "Rua Bernardino de Campos",
        "addr:suburb": "Centro",
        "amenity": "pharmacy",
        "brand": "Drogaria São Paulo",
        "brand:wikidata": "Q5308184",
        "brand:wikipedia": "en:Grupo DPSP",
        "building": "commercial",
        "dispensing": "yes",
        "healthcare": "pharmacy",
        "name": "Drogaria São Paulo",
        "opening_hours": "Mo 07:00-24:00",
        "phone": "+55 17 3212 7398",
        "type": "multipolygon",
        "wheelchair": "yes",
        "id": "relation/9955045"
      },
      "geometry": {
        "type": "Polygon",
        "coordinates": [
          [
            [
              -49.3850802,
              -20.8153424
            ],
            [
              -49.3849627,
              -20.815236
            ],
            [
              -49.3850498,
              -20.8151513
            ],
            [
              -49.3851648,
              -20.81526
            ],
            [
              -49.3850802,
              -20.8153424
            ]
          ]
        ]
      }
    },
    {
      "type": "Feature",
      "id": "relation/11175971",
      "properties": {
        "timestamp": "2021-04-19T16:41:48Z",
        "version": 2,
        "changeset": 103212233,
        "addr:city": "São José do Rio Preto",
        "addr:housenumber": "3490",
        "addr:postcode": "15014-400",
        "addr:street": "Rua Independência",
        "amenity": "pharmacy",
        "brand": "Drogasil",
        "brand:wikidata": "Q5308185",
        "brand:wikipedia": "pt:Drogasil",
        "building": "commercial",
        "healthcare": "pharmacy",
        "name": "Drogasil",
        "phone": "+55 17 3304-4106",
        "type": "multipolygon",
        "wheelchair": "yes",
        "id": "relation/11175971"
      },
      "geometry": {
        "type": "Polygon",
        "coordinates": [
          [
            [
              -49.3818455,
              -20.8184046
            ],
            [
              -49.3816875,
              -20.8185558
            ],
            [
              -49.381595,
              -20.8184693
            ],
            [
              -49.381764,
              -20.8183177
            ],
            [
              -49.3818455,
              -20.8184046
            ]
          ]
        ]
      }
    },
    {
      "type": "Feature",
      "id": "relation/11175973",
      "properties": {
        "timestamp": "2020-06-05T20:50:46Z",
        "version": 1,
        "changeset": 86261958,
        "addr:city": "São José do Rio Preto",
        "addr:housenumber": "6084",
        "addr:street": "Avenida Brigadeiro Faria Lima",
        "amenity": "pharmacy",
        "healthcare": "pharmacy",
        "name": "Drogão Super",
        "type": "multipolygon",
        "id": "relation/11175973"
      },
      "geometry": {
        "type": "Polygon",
        "coordinates": [
          [
            [
              -49.3998183,
              -20.832663
            ],
            [
              -49.3998581,
              -20.8327465
            ],
            [
              -49.3997508,
              -20.8327854
            ],
            [
              -49.3997575,
              -20.8328042
            ],
            [
              -49.3996757,
              -20.832833
            ],
            [
              -49.3996476,
              -20.8328255
            ],
            [
              -49.3996087,
              -20.8327428
            ],
            [
              -49.3998183,
              -20.832663
            ]
          ]
        ]
      }
    },
    {
      "type": "Feature",
      "id": "way/388313770",
      "properties": {
        "timestamp": "2021-04-19T16:41:48Z",
        "version": 4,
        "changeset": 103212233,
        "addr:city": "São José do Rio Preto",
        "addr:housenumber": "3661",
        "addr:street": "Avenida Doutor Alberto Andaló",
        "amenity": "pharmacy",
        "building": "commercial",
        "healthcare": "pharmacy",
        "name": "Drogão Super",
        "phone": "+55 17 3211-9711",
        "wheelchair": "yes",
        "id": "way/388313770"
      },
      "geometry": {
        "type": "Polygon",
        "coordinates": [
          [
            [
              -49.3819325,
              -20.8185146
            ],
            [
              -49.3820109,
              -20.8185892
            ],
            [
              -49.3819451,
              -20.8186497
            ],
            [
              -49.3819368,
              -20.8186419
            ],
            [
              -49.3818976,
              -20.8186778
            ],
            [
              -49.381783,
              -20.8185687
            ],
            [
              -49.3818749,
              -20.8184843
            ],
            [
              -49.3819193,
              -20.8185267
            ],
            [
              -49.3819325,
              -20.8185146
            ]
          ]
        ]
      }
    },
    {
      "type": "Feature",
      "id": "way/404317940",
      "properties": {
        "timestamp": "2021-04-19T16:58:49Z",
        "version": 4,
        "changeset": 103213120,
        "addr:city": "São José do Rio Preto",
        "addr:street": "Avenida Nossa Senhora da Paz",
        "addr:suburb": "Jardim América",
        "amenity": "pharmacy",
        "brand": "Drogaria São Paulo",
        "brand:wikidata": "Q5308184",
        "brand:wikipedia": "en:Grupo DPSP",
        "building": "commercial",
        "healthcare": "pharmacy",
        "name": "Drogaria São Paulo",
        "wheelchair": "yes",
        "id": "way/404317940"
      },
      "geometry": {
        "type": "Polygon",
        "coordinates": [
          [
            [
              -49.368348,
              -20.8000036
            ],
            [
              -49.3685106,
              -20.7998581
            ],
            [
              -49.368651,
              -20.7999952
            ],
            [
              -49.3684883,
              -20.8001407
            ],
            [
              -49.368348,
              -20.8000036
            ]
          ]
        ]
      }
    },
    {
      "type": "Feature",
      "id": "way/417437608",
      "properties": {
        "timestamp": "2021-11-18T04:39:29Z",
        "version": 4,
        "changeset": 113925927,
        "addr:city": "São José do Rio Preto",
        "addr:housenumber": "5788",
        "addr:postcode": "15090-000",
        "addr:street": "Avenida Brigadeiro Faria Lima",
        "addr:suburb": "São Manoel",
        "amenity": "pharmacy",
        "brand": "Drogaria São Paulo",
        "brand:wikidata": "Q5308184",
        "brand:wikipedia": "en:Grupo DPSP",
        "building": "commercial",
        "healthcare": "pharmacy",
        "name": "Drogaria São Paulo",
        "opening_hours": "Mo 07:00-23:00",
        "phone": "+55 17 3922 9857",
        "wheelchair": "yes",
        "id": "way/417437608"
      },
      "geometry": {
        "type": "Polygon",
        "coordinates": [
          [
            [
              -49.3981817,
              -20.8305054
            ],
            [
              -49.3983529,
              -20.8304098
            ],
            [
              -49.3984146,
              -20.8305063
            ],
            [
              -49.3982434,
              -20.8306019
            ],
            [
              -49.3981817,
              -20.8305054
            ]
          ]
        ]
      }
    },
    {
      "type": "Feature",
      "id": "way/424593356",
      "properties": {
        "timestamp": "2021-04-19T16:58:49Z",
        "version": 3,
        "changeset": 103213120,
        "addr:city": "São José do Rio Preto",
        "addr:housenumber": "3730",
        "addr:postcode": "15015-300",
        "addr:street": "Rua Bernardino de Campos",
        "addr:suburb": "Centro",
        "amenity": "pharmacy",
        "brand": "Droga Raia",
        "brand:wikidata": "Q10357101",
        "brand:wikipedia": "pt:RaiaDrogasil",
        "building": "commercial",
        "healthcare": "pharmacy",
        "name": "Droga Raia",
        "phone": "+55 17 3234 2836",
        "wheelchair": "yes",
        "id": "way/424593356"
      },
      "geometry": {
        "type": "Polygon",
        "coordinates": [
          [
            [
              -49.3858416,
              -20.8159773
            ],
            [
              -49.3856981,
              -20.8158419
            ],
            [
              -49.3858187,
              -20.8157302
            ],
            [
              -49.3859621,
              -20.8158656
            ],
            [
              -49.3858416,
              -20.8159773
            ]
          ]
        ]
      }
    },
    {
      "type": "Feature",
      "id": "way/425994601",
      "properties": {
        "timestamp": "2021-04-26T11:58:56Z",
        "version": 2,
        "changeset": 103635418,
        "addr:city": "São José do Rio Preto",
        "addr:housenumber": "494",
        "addr:postcode": "15015-205",
        "addr:street": "Rua Ondina",
        "addr:suburb": "Redentora",
        "amenity": "pharmacy",
        "building": "commercial",
        "email": "drogsaude2@terra.com.br",
        "healthcare": "pharmacy",
        "name": "Drogaria Saúde 2",
        "phone": "+55 17 2137 4650",
        "wheelchair": "yes",
        "id": "way/425994601"
      },
      "geometry": {
        "type": "Polygon",
        "coordinates": [
          [
            [
              -49.3905053,
              -20.8214797
            ],
            [
              -49.390379,
              -20.821355
            ],
            [
              -49.3905039,
              -20.82124
            ],
            [
              -49.3906647,
              -20.8213879
            ],
            [
              -49.3905692,
              -20.8214734
            ],
            [
              -49.3905053,
              -20.8214797
            ]
          ]
        ]
      }
    },
    {
      "type": "Feature",
      "id": "way/446926507",
      "properties": {
        "timestamp": "2021-04-21T10:39:44Z",
        "version": 2,
        "changeset": 103332751,
        "addr:city": "São José do Rio Preto",
        "addr:housenumber": "2941",
        "addr:state": "SP",
        "addr:street": "Rua Silva Jardim",
        "addr:suburb": "Centro",
        "amenity": "pharmacy",
        "building": "yes",
        "healthcare": "pharmacy",
        "name": "Drogão Super",
        "phone": "+55 17 3121 7552",
        "wheelchair": "yes",
        "id": "way/446926507"
      },
      "geometry": {
        "type": "Polygon",
        "coordinates": [
          [
            [
              -49.3818286,
              -20.8115618
            ],
            [
              -49.3817824,
              -20.8116026
            ],
            [
              -49.3816932,
              -20.8115142
            ],
            [
              -49.3817395,
              -20.8114734
            ],
            [
              -49.3818286,
              -20.8115618
            ]
          ]
        ]
      }
    },
    {
      "type": "Feature",
      "id": "way/564758539",
      "properties": {
        "timestamp": "2021-04-21T10:39:44Z",
        "version": 3,
        "changeset": 103332751,
        "addr:city": "São José do Rio Preto",
        "addr:housenumber": "3300",
        "addr:street": "Avenida Bady Bassitt",
        "amenity": "pharmacy",
        "brand": "Pague Menos",
        "brand:wikidata": "Q7124466",
        "brand:wikipedia": "pt:Pague Menos",
        "building": "commercial",
        "healthcare": "pharmacy",
        "name": "Pague Menos",
        "wheelchair": "yes",
        "id": "way/564758539"
      },
      "geometry": {
        "type": "Polygon",
        "coordinates": [
          [
            [
              -49.3858476,
              -20.8108037
            ],
            [
              -49.3856813,
              -20.8106759
            ],
            [
              -49.3859079,
              -20.8104678
            ],
            [
              -49.3860487,
              -20.8106044
            ],
            [
              -49.3858476,
              -20.8108037
            ]
          ]
        ]
      }
    },
    {
      "type": "Feature",
      "id": "way/672785018",
      "properties": {
        "timestamp": "2021-04-19T16:58:49Z",
        "version": 3,
        "changeset": 103213120,
        "addr:city": "São José do Rio Preto",
        "addr:housenumber": "3568",
        "addr:postcode": "15015-300",
        "addr:street": "Rua Bernardino de Campos",
        "addr:suburb": "Centro",
        "amenity": "pharmacy",
        "building": "commercial",
        "healthcare": "pharmacy",
        "name": "Farmácia Central",
        "opening_hours": "24/7",
        "phone": "+55 17 2139-7999",
        "id": "way/672785018"
      },
      "geometry": {
        "type": "Polygon",
        "coordinates": [
          [
            [
              -49.3847753,
              -20.8149904
            ],
            [
              -49.3847113,
              -20.8150494
            ],
            [
              -49.3846419,
              -20.8149836
            ],
            [
              -49.3847027,
              -20.8149275
            ],
            [
              -49.384715,
              -20.8149402
            ],
            [
              -49.3847464,
              -20.8149135
            ],
            [
              -49.384733,
              -20.8148997
            ],
            [
              -49.3847572,
              -20.8148773
            ],
            [
              -49.3848266,
              -20.8149431
            ],
            [
              -49.3848025,
              -20.8149654
            ],
            [
              -49.3847832,
              -20.8149477
            ],
            [
              -49.3847565,
              -20.8149732
            ],
            [
              -49.3847753,
              -20.8149904
            ]
          ]
        ]
      }
    },
    {
      "type": "Feature",
      "id": "way/778097424",
      "properties": {
        "timestamp": "2021-04-19T16:58:49Z",
        "version": 2,
        "changeset": 103213120,
        "addr:city": "São José do Rio Preto",
        "addr:housenumber": "2126",
        "addr:street": "Avenida Nossa Senhora da Paz",
        "addr:suburb": "Jardim América",
        "amenity": "pharmacy",
        "building": "commercial",
        "dispensing": "yes",
        "drive_through": "yes",
        "healthcare": "pharmacy",
        "name": "Drogão Super",
        "phone": "+55 17 3223-1670",
        "wheelchair": "yes",
        "id": "way/778097424"
      },
      "geometry": {
        "type": "Polygon",
        "coordinates": [
          [
            [
              -49.3673464,
              -20.7983402
            ],
            [
              -49.367271,
              -20.7984111
            ],
            [
              -49.3671678,
              -20.7983152
            ],
            [
              -49.3672715,
              -20.7982176
            ],
            [
              -49.3672999,
              -20.798244
            ],
            [
              -49.3672715,
              -20.7982707
            ],
            [
              -49.3673464,
              -20.7983402
            ]
          ]
        ]
      }
    },
    {
      "type": "Feature",
      "id": "way/813270375",
      "properties": {
        "timestamp": "2022-10-12T20:32:16Z",
        "version": 3,
        "changeset": 127434845,
        "addr:city": "São José do Rio Preto",
        "addr:housenumber": "5980",
        "addr:street": "Avenida Brigadeiro Faria Lima",
        "amenity": "pharmacy",
        "brand": "Droga Raia",
        "brand:wikidata": "Q10357101",
        "brand:wikipedia": "pt:RaiaDrogasil",
        "building": "commercial",
        "healthcare": "pharmacy",
        "name": "Droga Raia",
        "wheelchair": "yes",
        "id": "way/813270375"
      },
      "geometry": {
        "type": "Polygon",
        "coordinates": [
          [
            [
              -49.3992935,
              -20.8318052
            ],
            [
              -49.3993297,
              -20.8318929
            ],
            [
              -49.3992774,
              -20.8319193
            ],
            [
              -49.3992855,
              -20.8319406
            ],
            [
              -49.3992533,
              -20.8319519
            ],
            [
              -49.3992466,
              -20.8319343
            ],
            [
              -49.3991312,
              -20.8319819
            ],
            [
              -49.3990709,
              -20.8318929
            ],
            [
              -49.3992935,
              -20.8318052
            ]
          ]
        ]
      }
    },
    {
      "type": "Feature",
      "id": "way/889844815",
      "properties": {
        "timestamp": "2022-10-11T01:11:22Z",
        "version": 3,
        "changeset": 127329755,
        "addr:city": "São José do Rio Preto",
        "addr:housenumber": "605",
        "addr:street": "Avenida Belvedere",
        "amenity": "pharmacy",
        "brand": "Droga Raia",
        "brand:wikidata": "Q10357101",
        "building": "commercial",
        "healthcare": "pharmacy",
        "name": "Droga Raia",
        "wheelchair": "yes",
        "id": "way/889844815"
      },
      "geometry": {
        "type": "Polygon",
        "coordinates": [
          [
            [
              -49.343238,
              -20.7803819
            ],
            [
              -49.3432433,
              -20.7804069
            ],
            [
              -49.3430797,
              -20.780442
            ],
            [
              -49.3430489,
              -20.7802778
            ],
            [
              -49.343065,
              -20.7802728
            ],
            [
              -49.343238,
              -20.7803819
            ]
          ]
        ]
      }
    },
    {
      "type": "Feature",
      "id": "way/1055836034",
      "properties": {
        "timestamp": "2022-04-28T21:46:03Z",
        "version": 1,
        "changeset": 120323900,
        "addr:street": "Avenida Mirassolândia",
        "amenity": "pharmacy",
        "brand": "Droga Raia",
        "brand:wikidata": "Q10357101",
        "building": "yes",
        "dispensing": "yes",
        "healthcare": "pharmacy",
        "name": "Droga Raia",
        "id": "way/1055836034"
      },
      "geometry": {
        "type": "Polygon",
        "coordinates": [
          [
            [
              -49.4020875,
              -20.7789044
            ],
            [
              -49.4020135,
              -20.7789995
            ],
            [
              -49.4018928,
              -20.7789173
            ],
            [
              -49.4019668,
              -20.7788223
            ],
            [
              -49.4020875,
              -20.7789044
            ]
          ]
        ]
      }
    },
    {
      "type": "Feature",
      "id": "way/1102411785",
      "properties": {
        "timestamp": "2022-10-14T20:07:54Z",
        "version": 2,
        "changeset": 127543111,
        "addr:housenumber": "651",
        "addr:street": "Avenida Murchid Homsi",
        "amenity": "pharmacy",
        "brand": "Drogaria São Paulo",
        "brand:wikidata": "Q5308184",
        "healthcare": "pharmacy",
        "name": "Drogaria São Paulo",
        "phone": "+55 17 3274 7416",
        "id": "way/1102411785"
      },
      "geometry": {
        "type": "Polygon",
        "coordinates": [
          [
            [
              -49.3656642,
              -20.8164079
            ],
            [
              -49.3655284,
              -20.8163978
            ],
            [
              -49.3655454,
              -20.8161991
            ],
            [
              -49.3656812,
              -20.8162092
            ],
            [
              -49.3656642,
              -20.8164079
            ]
          ]
        ]
      }
    },
    {
      "type": "Feature",
      "id": "way/1123187751",
      "properties": {
        "timestamp": "2022-12-18T21:04:46Z",
        "version": 1,
        "changeset": 130224150,
        "amenity": "pharmacy",
        "building": "yes",
        "healthcare": "pharmacy",
        "id": "way/1123187751"
      },
      "geometry": {
        "type": "Polygon",
        "coordinates": [
          [
            [
              -49.3610957,
              -20.7929314
            ],
            [
              -49.3610912,
              -20.7929642
            ],
            [
              -49.3609732,
              -20.7930727
            ],
            [
              -49.3608896,
              -20.7929863
            ],
            [
              -49.361,
              -20.7928795
            ],
            [
              -49.3610357,
              -20.7928765
            ],
            [
              -49.3610957,
              -20.7929314
            ]
          ]
        ]
      }
    },
    {
      "type": "Feature",
      "id": "way/1123192464",
      "properties": {
        "timestamp": "2022-12-18T21:22:28Z",
        "version": 1,
        "changeset": 130224499,
        "amenity": "pharmacy",
        "building": "yes",
        "healthcare": "pharmacy",
        "id": "way/1123192464"
      },
      "geometry": {
        "type": "Polygon",
        "coordinates": [
          [
            [
              -49.3792826,
              -20.8136666
            ],
            [
              -49.3794243,
              -20.8137965
            ],
            [
              -49.3793079,
              -20.8139061
            ],
            [
              -49.3791681,
              -20.8137737
            ],
            [
              -49.3792826,
              -20.8136666
            ]
          ]
        ]
      }
    },
    {
      "type": "Feature",
      "id": "way/1191471834",
      "properties": {
        "timestamp": "2023-07-22T19:15:19Z",
        "version": 1,
        "changeset": 138868563,
        "amenity": "pharmacy",
        "building": "yes",
        "healthcare": "pharmacy",
        "id": "way/1191471834"
      },
      "geometry": {
        "type": "Polygon",
        "coordinates": [
          [
            [
              -49.3639204,
              -20.7992495
            ],
            [
              -49.3637478,
              -20.7992254
            ],
            [
              -49.3637736,
              -20.7991094
            ],
            [
              -49.363923,
              -20.7992168
            ],
            [
              -49.3639204,
              -20.7992495
            ]
          ]
        ]
      }
    },
    {
      "type": "Feature",
      "id": "node/2362588542",
      "properties": {
        "timestamp": "2013-07-31T02:09:10Z",
        "version": 3,
        "changeset": 17160338,
        "amenity": "pharmacy",
        "dispensing": "yes",
        "name": "Drogaria Monte Verde",
        "id": "node/2362588542"
      },
      "geometry": {
        "type": "Point",
        "coordinates": [
          -49.4320294,
          -20.7878967
        ]
      }
    },
    {
      "type": "Feature",
      "id": "node/2378603742",
      "properties": {
        "timestamp": "2013-07-09T02:50:38Z",
        "version": 1,
        "changeset": 16881766,
        "amenity": "pharmacy",
        "dispensing": "no",
        "name": "Farmácia Prever",
        "id": "node/2378603742"
      },
      "geometry": {
        "type": "Point",
        "coordinates": [
          -49.3677179,
          -20.780511
        ]
      }
    },
    {
      "type": "Feature",
      "id": "node/2378603743",
      "properties": {
        "timestamp": "2013-07-09T02:50:38Z",
        "version": 1,
        "changeset": 16881766,
        "amenity": "pharmacy",
        "dispensing": "no",
        "name": "Nossa Pharma",
        "id": "node/2378603743"
      },
      "geometry": {
        "type": "Point",
        "coordinates": [
          -49.3652329,
          -20.7746577
        ]
      }
    },
    {
      "type": "Feature",
      "id": "node/3890737335",
      "properties": {
        "timestamp": "2021-04-21T10:39:44Z",
        "version": 2,
        "changeset": 103332751,
        "amenity": "pharmacy",
        "brand": "Drogaria São Paulo",
        "brand:wikidata": "Q5308184",
        "brand:wikipedia": "en:Grupo DPSP",
        "healthcare": "pharmacy",
        "name": "Drogaria São Paulo",
        "id": "node/3890737335"
      },
      "geometry": {
        "type": "Point",
        "coordinates": [
          -49.3865171,
          -20.8112428
        ]
      }
    },
    {
      "type": "Feature",
      "id": "node/3890737336",
      "properties": {
        "timestamp": "2021-04-21T10:39:44Z",
        "version": 2,
        "changeset": 103332751,
        "amenity": "pharmacy",
        "brand": "Drogasil",
        "brand:wikidata": "Q5308185",
        "brand:wikipedia": "pt:Drogasil",
        "healthcare": "pharmacy",
        "name": "Drogasil",
        "wheelchair": "yes",
        "id": "node/3890737336"
      },
      "geometry": {
        "type": "Point",
        "coordinates": [
          -49.3860844,
          -20.8113836
        ]
      }
    },
    {
      "type": "Feature",
      "id": "node/3897495209",
      "properties": {
        "timestamp": "2015-12-18T00:42:50Z",
        "version": 1,
        "changeset": 36020321,
        "addr:housenumber": "1155",
        "addr:street": "Avenida Murchid Homsi",
        "amenity": "pharmacy",
        "name": "Rio Pharma",
        "opening_hours": "24/7",
        "phone": "+55 17 3215 3030",
        "id": "node/3897495209"
      },
      "geometry": {
        "type": "Point",
        "coordinates": [
          -49.3655118,
          -20.8208117
        ]
      }
    },
    {
      "type": "Feature",
      "id": "node/3915131570",
      "properties": {
        "timestamp": "2021-11-24T02:02:07Z",
        "version": 2,
        "changeset": 114162155,
        "addr:street": "Avenida Bady Bassitt",
        "amenity": "pharmacy",
        "brand": "Droga Raia",
        "brand:wikidata": "Q10357101",
        "brand:wikipedia": "pt:RaiaDrogasil",
        "healthcare": "pharmacy",
        "name": "Droga Raia",
        "id": "node/3915131570"
      },
      "geometry": {
        "type": "Point",
        "coordinates": [
          -49.3944346,
          -20.8169579
        ]
      }
    },
    {
      "type": "Feature",
      "id": "node/3915131571",
      "properties": {
        "timestamp": "2021-11-24T02:02:07Z",
        "version": 2,
        "changeset": 114162155,
        "addr:housenumber": "4490",
        "addr:street": "Avenida Bady Bassitt",
        "amenity": "pharmacy",
        "healthcare": "pharmacy",
        "name": "Drogão Super",
        "id": "node/3915131571"
      },
      "geometry": {
        "type": "Point",
        "coordinates": [
          -49.3946702,
          -20.8171083
        ]
      }
    },
    {
      "type": "Feature",
      "id": "node/4179899554",
      "properties": {
        "timestamp": "2021-11-24T02:02:07Z",
        "version": 2,
        "changeset": 114162155,
        "addr:city": "São José do Rio Preto",
        "addr:housenumber": "5660",
        "addr:postcode": "15090-000",
        "addr:street": "Avenida Brigadeiro Faria Lima",
        "amenity": "pharmacy",
        "email": "saude1@drogariasaude1.com.br",
        "healthcare": "pharmacy",
        "name": "Drogaria Saúde 1",
        "phone": "+55 17 2137 6869",
        "id": "node/4179899554"
      },
      "geometry": {
        "type": "Point",
        "coordinates": [
          -49.3974776,
          -20.8294989
        ]
      }
    },
    {
      "type": "Feature",
      "id": "node/4225760842",
      "properties": {
        "timestamp": "2021-04-26T11:58:56Z",
        "version": 2,
        "changeset": 103635418,
        "addr:city": "São José do Rio Preto",
        "addr:housenumber": "4223",
        "addr:postcode": "15015-300",
        "addr:street": "Rua Bernardino de Campos",
        "addr:suburb": "Redentora",
        "amenity": "pharmacy",
        "brand": "Droga Raia",
        "brand:wikidata": "Q10357101",
        "brand:wikipedia": "pt:RaiaDrogasil",
        "healthcare": "pharmacy",
        "name": "Droga Raia",
        "phone": "+55 17 3212 9375",
        "wheelchair": "yes",
        "id": "node/4225760842"
      },
      "geometry": {
        "type": "Point",
        "coordinates": [
          -49.3890099,
          -20.8192126
        ]
      }
    },
    {
      "type": "Feature",
      "id": "node/4253196723",
      "properties": {
        "timestamp": "2021-11-24T02:02:07Z",
        "version": 3,
        "changeset": 114162155,
        "addr:city": "São José do Rio Preto",
        "addr:housenumber": "4441",
        "addr:street": "Rua Bernardino de Campos",
        "addr:suburb": "Redentora",
        "amenity": "pharmacy",
        "healthcare": "pharmacy",
        "name": "Farmácia Ambulatorial",
        "operator": "Hospital de Base",
        "id": "node/4253196723"
      },
      "geometry": {
        "type": "Point",
        "coordinates": [
          -49.3904939,
          -20.8206303
        ]
      }
    },
    {
      "type": "Feature",
      "id": "node/4380997654",
      "properties": {
        "timestamp": "2022-10-11T01:11:22Z",
        "version": 2,
        "changeset": 127329755,
        "addr:city": "São José do Rio Preto",
        "addr:housenumber": "760",
        "addr:postcode": "15040-300",
        "addr:state": "SP",
        "addr:street": "Avenida Fortunato Ernesto Vetorasso",
        "amenity": "pharmacy",
        "healthcare": "pharmacy",
        "name": "Drogaria Vetorazzo",
        "phone": "+55 17 3217 8891",
        "wheelchair": "yes",
        "id": "node/4380997654"
      },
      "geometry": {
        "type": "Point",
        "coordinates": [
          -49.4119039,
          -20.7970694
        ]
      }
    },
    {
      "type": "Feature",
      "id": "node/4429270957",
      "properties": {
        "timestamp": "2021-04-19T16:58:49Z",
        "version": 2,
        "changeset": 103213120,
        "addr:city": "São José do Rio Preto",
        "addr:housenumber": "2972",
        "addr:postcode": "15010-060",
        "addr:state": "SP",
        "addr:street": "Rua Silva Jardim",
        "addr:suburb": "Centro",
        "amenity": "pharmacy",
        "brand": "Droga Raia",
        "brand:wikidata": "Q10357101",
        "brand:wikipedia": "pt:RaiaDrogasil",
        "healthcare": "pharmacy",
        "name": "Droga Raia",
        "opening_hours": "24/7",
        "phone": "+55 17 3235 2543",
        "wheelchair": "yes",
        "id": "node/4429270957"
      },
      "geometry": {
        "type": "Point",
        "coordinates": [
          -49.3817009,
          -20.8118778
        ]
      }
    },
    {
      "type": "Feature",
      "id": "node/4946960724",
      "properties": {
        "timestamp": "2018-10-30T17:35:13Z",
        "version": 2,
        "changeset": 64019198,
        "addr:housenumber": "4515",
        "addr:street": "Rua Indiaporã",
        "amenity": "pharmacy",
        "name": "Drogaria Mirassolândia",
        "opening_hours": "24/7",
        "operator": "André",
        "id": "node/4946960724"
      },
      "geometry": {
        "type": "Point",
        "coordinates": [
          -49.3997759,
          -20.7811685
        ]
      }
    },
    {
      "type": "Feature",
      "id": "node/4971389521",
      "properties": {
        "timestamp": "2021-04-21T10:41:08Z",
        "version": 2,
        "changeset": 103332859,
        "addr:street": "Avenida Mirassolandia",
        "amenity": "pharmacy",
        "dispensing": "yes",
        "drive_through": "yes",
        "healthcare": "pharmacy",
        "id": "node/4971389521"
      },
      "geometry": {
        "type": "Point",
        "coordinates": [
          -49.3909688,
          -20.7861279
        ]
      }
    },
    {
      "type": "Feature",
      "id": "node/4971885422",
      "properties": {
        "timestamp": "2018-10-30T17:35:13Z",
        "version": 2,
        "changeset": 64019198,
        "addr:street": "Avenida Mirassolandia",
        "amenity": "pharmacy",
        "name": "Drogaria Total",
        "id": "node/4971885422"
      },
      "geometry": {
        "type": "Point",
        "coordinates": [
          -49.3972257,
          -20.7826098
        ]
      }
    },
    {
      "type": "Feature",
      "id": "node/5029066640",
      "properties": {
        "timestamp": "2021-11-24T02:02:07Z",
        "version": 3,
        "changeset": 114162155,
        "addr:city": "São José do Rio Preto",
        "addr:housenumber": "56",
        "addr:street": "Rua Martim Afonso de Souza",
        "amenity": "pharmacy",
        "healthcare": "pharmacy",
        "name": "Drogão Super",
        "phone": "+55 17 3216 1665",
        "id": "node/5029066640"
      },
      "geometry": {
        "type": "Point",
        "coordinates": [
          -49.3950288,
          -20.8239196
        ]
      }
    },
    {
      "type": "Feature",
      "id": "node/5562335311",
      "properties": {
        "timestamp": "2021-11-24T02:02:07Z",
        "version": 2,
        "changeset": 114162155,
        "addr:city": "São José do Rio Preto",
        "addr:housenumber": "5288",
        "addr:street": "Avenida Brigadeiro Faria Lima",
        "addr:suburb": "Vila São José",
        "amenity": "pharmacy",
        "healthcare": "pharmacy",
        "name": "Drogaria Paz",
        "phone": "+55 17 3227 1104",
        "id": "node/5562335311"
      },
      "geometry": {
        "type": "Point",
        "coordinates": [
          -49.3954922,
          -20.8267005
        ]
      }
    },
    {
      "type": "Feature",
      "id": "node/6831482448",
      "properties": {
        "timestamp": "2019-09-27T19:57:38Z",
        "version": 1,
        "changeset": 75024598,
        "addr:city": "São José do Rio Preto",
        "addr:housenumber": "1320",
        "addr:street": "Avenida Francisco das Chagas Oliveira",
        "amenity": "pharmacy",
        "dispensing": "yes",
        "healthcare": "pharmacy",
        "name": "Grindélia Farmácia de Manipulação",
        "id": "node/6831482448"
      },
      "geometry": {
        "type": "Point",
        "coordinates": [
          -49.3937045,
          -20.8344403
        ]
      }
    },
    {
      "type": "Feature",
      "id": "node/6892902398",
      "properties": {
        "timestamp": "2022-10-12T20:32:16Z",
        "version": 2,
        "changeset": 127434845,
        "addr:street": "Avenida Anísio Haddad",
        "amenity": "pharmacy",
        "healthcare": "pharmacy",
        "name": "Drogaria Total",
        "id": "node/6892902398"
      },
      "geometry": {
        "type": "Point",
        "coordinates": [
          -49.4026543,
          -20.8432536
        ]
      }
    },
    {
      "type": "Feature",
      "id": "node/7261910253",
      "properties": {
        "timestamp": "2021-04-21T10:39:44Z",
        "version": 2,
        "changeset": 103332751,
        "addr:city": "São José do Rio Preto",
        "addr:housenumber": "2393",
        "addr:street": "Rua Tiradentes",
        "addr:suburb": "Boa Vista",
        "amenity": "pharmacy",
        "healthcare": "pharmacy",
        "name": "Pharmoterápica Farmácia de Manipulação",
        "phone": "+55 17 3233-6292",
        "id": "node/7261910253"
      },
      "geometry": {
        "type": "Point",
        "coordinates": [
          -49.3832874,
          -20.8062167
        ]
      }
    },
    {
      "type": "Feature",
      "id": "node/9701702422",
      "properties": {
        "timestamp": "2022-04-28T21:46:03Z",
        "version": 1,
        "changeset": 120323900,
        "amenity": "pharmacy",
        "brand": "Drogaria São Paulo",
        "brand:wikidata": "Q5308184",
        "dispensing": "yes",
        "healthcare": "pharmacy",
        "name": "Drogaria São Paulo",
        "id": "node/9701702422"
      },
      "geometry": {
        "type": "Point",
        "coordinates": [
          -49.4026042,
          -20.7784863
        ]
      }
    },
    {
      "type": "Feature",
      "id": "node/11368225322",
      "properties": {
        "timestamp": "2023-11-22T09:40:27Z",
        "version": 1,
        "changeset": 144318383,
        "amenity": "pharmacy",
        "healthcare": "pharmacy",
        "id": "node/11368225322"
      },
      "geometry": {
        "type": "Point",
        "coordinates": [
          -49.3963709,
          -20.7624042
        ]
      }
    },
    {
      "type": "Feature",
      "id": "node/11368235523",
      "properties": {
        "timestamp": "2023-11-22T09:40:56Z",
        "version": 1,
        "changeset": 144318398,
        "amenity": "pharmacy",
        "healthcare": "pharmacy",
        "id": "node/11368235523"
      },
      "geometry": {
        "type": "Point",
        "coordinates": [
          -49.3974832,
          -20.7628018
        ]
      }
    }
  ]
}
