{
  "type": "FeatureCollection",
  "features": [
    {
      "type": "Feature",
      "id": "way/1029072448",
      "properties": {
        "timestamp": "2022-02-07T19:07:30Z",
        "version": 1,
        "changeset": 117132124,
        "addr:city": "Agricolândia",
        "addr:housenumber": "1430",
        "addr:postcode": "64440-000",
        "addr:street": "Avenida Casemiro Barradas",
        "addr:suburb": "Centro",
        "amenity": "school",
        "name": "Unid Esc Roque Alencar",
        "id": "way/1029072448"
      },
      "geometry": {
        "type": "Polygon",
        "coordinates": [
          [
            [
              -42.666409,
              -5.7982411
            ],
            [
              -42.6663315,
              -5.798821
            ],
            [
              -42.6661113,
              -5.7988692
            ],
            [
              -42.6659106,
              -5.7984918
            ],
            [
              -42.666157,
              -5.7985028
            ],
            [
              -42.6661999,
              -5.7981626
            ],
            [
              -42.666409,
              -5.7982411
            ]
          ]
        ]
      }
    },
    {
      "type": "Feature",
      "id": "node/9487538484",
      "properties": {
        "timestamp": "2022-02-07T19:09:21Z",
        "version": 1,
        "changeset": 117132186,
        "addr:city": "Agricolândia",
        "addr:postcode": "64440-000",
        "addr:street": "Avenida Hugo Napoleão",
        "addr:suburb": "Centro",
        "amenity": "school",
        "name": "Creche Maria Eunice Alencar",
        "id": "node/9487538484"
      },
      "geometry": {
        "type": "Point",
        "coordinates": [
          -42.6667289,
          -5.798398
        ]
      }
    },
    {
      "type": "Feature",
      "id": "node/9487538485",
      "properties": {
        "timestamp": "2022-02-07T19:09:21Z",
        "version": 1,
        "changeset": 117132186,
        "addr:city": "Agricolândia",
        "addr:postcode": "64440-000",
        "addr:street": "Avenida Hugo Napoleão",
        "addr:suburb": "Centro",
        "amenity": "school",
        "name": "Unid Esc Evaristo Reis",
        "id": "node/9487538485"
      },
      "geometry": {
        "type": "Point",
        "coordinates": [
          -42.6659726,
          -5.7981365
        ]
      }
    },
    {
      "type": "Feature",
      "id": "node/9487644858",
      "properties": {
        "timestamp": "2022-02-07T19:06:23Z",
        "version": 1,
        "changeset": 117132079,
        "amenity": "school",
        "name": "Unid Esc Lourenco Virgulino",
        "id": "node/9487644858"
      },
      "geometry": {
        "type": "Point",
        "coordinates": [
          -42.6785199,
          -5.8151932
        ]
      }
    }
  ]
}
