{
  "type": "FeatureCollection",
  "features": [
    {
      "type": "Feature",
      "id": "way/786509405",
      "properties": {
        "timestamp": "2020-07-18T23:38:25Z",
        "version": 3,
        "changeset": 88188459,
        "addr:city": "Areia Branca",
        "addr:housenumber": "64",
        "addr:postcode": "59655-000",
        "addr:street": "Rua Coronel Fausto",
        "addr:suburb": "Centro",
        "building": "yes",
        "government": "administrative",
        "name": "Secretaria Municipal de Assistencia Social",
        "office": "government",
        "id": "way/786509405"
      },
      "geometry": {
        "type": "Polygon",
        "coordinates": [
          [
            [
              -37.1359892,
              -4.9568061
            ],
            [
              -37.1360034,
              -4.9568835
            ],
            [
              -37.1356779,
              -4.9569416
            ],
            [
              -37.1356644,
              -4.9568704
            ],
            [
              -37.1359892,
              -4.9568061
            ]
          ]
        ]
      }
    },
    {
      "type": "Feature",
      "id": "way/786724788",
      "properties": {
        "timestamp": "2020-07-10T19:52:08Z",
        "version": 4,
        "changeset": 87832482,
        "addr:city": "Areia Branca",
        "addr:housenumber": "96",
        "addr:postcode": "59655-000",
        "addr:street": "Rua Coronel Liberalino",
        "addr:suburb": "Centro",
        "building": "yes",
        "building:levels": "1",
        "government": "administrative",
        "name": "Secretaria Municipal de Educação",
        "office": "government",
        "id": "way/786724788"
      },
      "geometry": {
        "type": "Polygon",
        "coordinates": [
          [
            [
              -37.1357352,
              -4.9555679
            ],
            [
              -37.1357722,
              -4.9556851
            ],
            [
              -37.1357638,
              -4.9556878
            ],
            [
              -37.1355877,
              -4.9557447
            ],
            [
              -37.1354339,
              -4.9557943
            ],
            [
              -37.1353968,
              -4.9556755
            ],
            [
              -37.1355043,
              -4.9556413
            ],
            [
              -37.1357261,
              -4.9555708
            ],
            [
              -37.1357352,
              -4.9555679
            ]
          ]
        ]
      }
    },
    {
      "type": "Feature",
      "id": "way/787190037",
      "properties": {
        "timestamp": "2020-04-02T15:52:29Z",
        "version": 1,
        "changeset": 82990020,
        "addr:city": "Areia Branca",
        "addr:postcode": "59655000",
        "addr:street": "Rua Jorge Caminha",
        "addr:suburb": "Centro",
        "building": "yes",
        "government": "public_service",
        "name": "CAERN - Companha de Águas e Esgotos do RN",
        "office": "government",
        "id": "way/787190037"
      },
      "geometry": {
        "type": "Polygon",
        "coordinates": [
          [
            [
              -37.1296972,
              -4.9533452
            ],
            [
              -37.129836,
              -4.9539353
            ],
            [
              -37.1295724,
              -4.9540175
            ],
            [
              -37.1293861,
              -4.9540351
            ],
            [
              -37.1290768,
              -4.9536761
            ],
            [
              -37.1296972,
              -4.9533452
            ]
          ]
        ]
      }
    },
    {
      "type": "Feature",
      "id": "way/791937626",
      "properties": {
        "timestamp": "2020-07-14T12:15:06Z",
        "version": 3,
        "changeset": 87977315,
        "addr:city": "Areia Branca",
        "addr:place": "Cartorio Oficio de Notas",
        "addr:postcode": "59655-000",
        "addr:street": "Rua Coronel Liberalino",
        "addr:suburb": "Centro",
        "building": "public",
        "government": "legislative",
        "name": "Camara Legislativa",
        "office": "government",
        "id": "way/791937626"
      },
      "geometry": {
        "type": "Polygon",
        "coordinates": [
          [
            [
              -37.1354554,
              -4.9546615
            ],
            [
              -37.1354902,
              -4.9547541
            ],
            [
              -37.1353298,
              -4.9548137
            ],
            [
              -37.1352951,
              -4.9547211
            ],
            [
              -37.1354554,
              -4.9546615
            ]
          ]
        ]
      }
    },
    {
      "type": "Feature",
      "id": "way/824688579",
      "properties": {
        "timestamp": "2021-06-22T00:29:10Z",
        "version": 5,
        "changeset": 106741515,
        "addr:city": "Areia Branca",
        "addr:street": "Rua Padre Antônio Joaquim",
        "building": "public",
        "description": "Secretaria de Administração Secretaria de Finanças e Tributação Secretaria de Infra-estrutura Gerencia de Turismo",
        "government": "administrative",
        "name": "Centro Administrativo do Municipio",
        "office": "government",
        "opening_hours": "Mo-Fr 07:00-13:00",
        "wheelchair": "yes",
        "id": "way/824688579"
      },
      "geometry": {
        "type": "Polygon",
        "coordinates": [
          [
            [
              -37.1362355,
              -4.9538802
            ],
            [
              -37.1361225,
              -4.9539143
            ],
            [
              -37.1359764,
              -4.9533837
            ],
            [
              -37.1360631,
              -4.9533552
            ],
            [
              -37.1362355,
              -4.9538802
            ]
          ]
        ]
      }
    },
    {
      "type": "Feature",
      "id": "way/1106470129",
      "properties": {
        "timestamp": "2022-10-23T22:51:44Z",
        "version": 2,
        "changeset": 127975577,
        "addr:city": "Areia Branca",
        "addr:postcode": "59655000",
        "addr:suburb": "Santo Cristo",
        "building": "yes",
        "building:levels": "2",
        "name": "Central do Cidadão",
        "office": "government",
        "id": "way/1106470129"
      },
      "geometry": {
        "type": "Polygon",
        "coordinates": [
          [
            [
              -37.1270947,
              -4.9504226
            ],
            [
              -37.1269289,
              -4.9505865
            ],
            [
              -37.1268625,
              -4.9505351
            ],
            [
              -37.1270337,
              -4.9503718
            ],
            [
              -37.1270947,
              -4.9504226
            ]
          ]
        ]
      }
    },
    {
      "type": "Feature",
      "id": "node/4788949713",
      "properties": {
        "timestamp": "2018-04-07T19:46:33Z",
        "version": 3,
        "changeset": 57899333,
        "addr:city": "Areia Branca",
        "addr:postcode": "59655-000",
        "addr:street": "Rua Marechal Deodoro",
        "addr:suburb": "Centro",
        "name": "INSS - Previdência Social",
        "office": "government",
        "people": "INSS - Previdência Social",
        "id": "node/4788949713"
      },
      "geometry": {
        "type": "Point",
        "coordinates": [
          -37.134247,
          -4.9569671
        ]
      }
    }
  ]
}
