{
  "type": "FeatureCollection",
  "features": [
    {
      "type": "Feature",
      "id": "way/584006087",
      "properties": {
        "timestamp": "2020-03-28T03:31:20Z",
        "version": 2,
        "changeset": 82739373,
        "building": "yes",
        "layer": "1",
        "name": "Hotel Costa Atlântico",
        "tourism": "hotel",
        "id": "way/584006087"
      },
      "geometry": {
        "type": "Polygon",
        "coordinates": [
          [
            [
              -37.1144275,
              -4.9265021
            ],
            [
              -37.1142165,
              -4.9276066
            ],
            [
              -37.1141059,
              -4.9276954
            ],
            [
              -37.1135311,
              -4.9275329
            ],
            [
              -37.1134633,
              -4.9277078
            ],
            [
              -37.1128409,
              -4.9274868
            ],
            [
              -37.1131064,
              -4.9261989
            ],
            [
              -37.1144275,
              -4.9265021
            ]
          ]
        ]
      }
    },
    {
      "type": "Feature",
      "id": "way/584006100",
      "properties": {
        "timestamp": "2018-04-27T18:57:04Z",
        "version": 1,
        "changeset": 58485873,
        "building": "yes",
        "name": "Pousada Tombo do Mar",
        "tourism": "hotel",
        "id": "way/584006100"
      },
      "geometry": {
        "type": "Polygon",
        "coordinates": [
          [
            [
              -37.1114892,
              -4.9257205
            ],
            [
              -37.1118573,
              -4.9257945
            ],
            [
              -37.1118325,
              -4.9259532
            ],
            [
              -37.111468,
              -4.9258827
            ],
            [
              -37.1114892,
              -4.9257205
            ]
          ]
        ]
      }
    },
    {
      "type": "Feature",
      "id": "node/5949695985",
      "properties": {
        "timestamp": "2021-01-12T12:56:14Z",
        "version": 2,
        "changeset": 97375330,
        "addr:city": "Areia Branca",
        "addr:housenumber": "143",
        "addr:postcode": "59655-000",
        "addr:street": "Francisco Ferreira Souto",
        "email": "areiabrancaaparthotell@gmail.com",
        "internet_access": "wlan",
        "name": "Areia Branca Apart Hotel",
        "opening_hours": "24/7",
        "phone": "+55 84 3332-4457",
        "tourism": "hotel",
        "website": "https://www.areiabrancaaparthotel.com.br/reservas",
        "id": "node/5949695985"
      },
      "geometry": {
        "type": "Point",
        "coordinates": [
          -37.1353119,
          -4.957323
        ]
      }
    },
    {
      "type": "Feature",
      "id": "node/6437126191",
      "properties": {
        "timestamp": "2021-01-12T12:57:30Z",
        "version": 2,
        "changeset": 97375401,
        "addr:city": "Areia Branca",
        "addr:housenumber": "50",
        "addr:street": "Rua Bera Mar",
        "addr:suburb": "Ponta do Mel",
        "description": "Pousada em frente da maré com wifi",
        "name": "Beiral Pousada & Restaurante",
        "phone": "´+55 84 3332-7123",
        "tourism": "hotel",
        "id": "node/6437126191"
      },
      "geometry": {
        "type": "Point",
        "coordinates": [
          -36.8824409,
          -4.9518634
        ]
      }
    },
    {
      "type": "Feature",
      "id": "node/6437128006",
      "properties": {
        "timestamp": "2019-04-29T21:36:08Z",
        "version": 1,
        "changeset": 69713033,
        "addr:street": "Rua do Mar",
        "description": "Pousada & Restaurante",
        "name": "Pousada Oasis Mel Beach",
        "phone": "+5584981584468",
        "tourism": "hotel",
        "website": "facebook.com.br/oasismelbeach",
        "id": "node/6437128006"
      },
      "geometry": {
        "type": "Point",
        "coordinates": [
          -36.8821615,
          -4.9518915
        ]
      }
    }
  ]
}
