{
  "type": "FeatureCollection",
  "features": [
    {
      "type": "Feature",
      "id": "way/792234399",
      "properties": {
        "timestamp": "2020-04-15T17:05:27Z",
        "version": 1,
        "changeset": 83604292,
        "addr:city": "Areia Branca",
        "addr:housenumber": "92",
        "addr:postcode": "59655-000",
        "addr:street": "Rua João Felix",
        "addr:suburb": "Centro",
        "amenity": "pharmacy",
        "building": "yes",
        "dispensing": "yes",
        "healthcare": "pharmacy",
        "name": "Drogaria Milagrosa",
        "id": "way/792234399"
      },
      "geometry": {
        "type": "Polygon",
        "coordinates": [
          [
            [
              -37.134816,
              -4.956996
            ],
            [
              -37.134857,
              -4.9571608
            ],
            [
              -37.134816,
              -4.9571731
            ],
            [
              -37.1347695,
              -4.9570096
            ],
            [
              -37.134816,
              -4.956996
            ]
          ]
        ]
      }
    },
    {
      "type": "Feature",
      "id": "way/792730400",
      "properties": {
        "timestamp": "2020-04-16T23:28:29Z",
        "version": 1,
        "changeset": 83671148,
        "addr:city": "Areia Branca",
        "addr:postcode": "59655-000",
        "addr:street": "Rua Barão do Rio Branco",
        "addr:suburb": "Centro",
        "amenity": "pharmacy",
        "building": "yes",
        "dispensing": "yes",
        "healthcare": "pharmacy",
        "name": "Farmacias do Trabalhador",
        "id": "way/792730400"
      },
      "geometry": {
        "type": "Polygon",
        "coordinates": [
          [
            [
              -37.1327287,
              -4.9571444
            ],
            [
              -37.1327631,
              -4.957289
            ],
            [
              -37.1327076,
              -4.9573091
            ],
            [
              -37.1326709,
              -4.9571646
            ],
            [
              -37.1327287,
              -4.9571444
            ]
          ]
        ]
      }
    },
    {
      "type": "Feature",
      "id": "way/792730405",
      "properties": {
        "timestamp": "2020-04-17T00:33:32Z",
        "version": 2,
        "changeset": 83671931,
        "addr:city": "Areia Branca",
        "addr:housenumber": "141",
        "addr:postcode": "59655-000",
        "addr:street": "Rua Barão do Rio Branco",
        "addr:suburb": "Centro",
        "amenity": "pharmacy",
        "building": "yes",
        "dispensing": "yes",
        "healthcare": "pharmacy",
        "name": "Drogaria Helena",
        "id": "way/792730405"
      },
      "geometry": {
        "type": "Polygon",
        "coordinates": [
          [
            [
              -37.1335982,
              -4.9568816
            ],
            [
              -37.1336273,
              -4.9569653
            ],
            [
              -37.133555,
              -4.9569902
            ],
            [
              -37.1335259,
              -4.9569065
            ],
            [
              -37.1335982,
              -4.9568816
            ]
          ]
        ]
      }
    },
    {
      "type": "Feature",
      "id": "way/792736614",
      "properties": {
        "timestamp": "2020-04-17T00:33:32Z",
        "version": 1,
        "changeset": 83671931,
        "addr:city": "Areia Branca",
        "addr:housenumber": "24",
        "addr:postcode": "59655-000",
        "addr:street": "Rua Barão do Rio Branco",
        "addr:suburb": "Centro",
        "amenity": "pharmacy",
        "building": "yes",
        "dispensing": "yes",
        "healthcare": "pharmacy",
        "name": "Drogaria Santa Monica",
        "id": "way/792736614"
      },
      "geometry": {
        "type": "Polygon",
        "coordinates": [
          [
            [
              -37.1352666,
              -4.9562541
            ],
            [
              -37.1352929,
              -4.9563284
            ],
            [
              -37.1352274,
              -4.9563515
            ],
            [
              -37.135201,
              -4.9562772
            ],
            [
              -37.1352666,
              -4.9562541
            ]
          ]
        ]
      }
    },
    {
      "type": "Feature",
      "id": "node/7366474761",
      "properties": {
        "timestamp": "2020-04-04T13:04:49Z",
        "version": 1,
        "changeset": 83070392,
        "addr:city": "Areia Branca",
        "addr:housenumber": "47",
        "addr:postcode": "59655-000",
        "addr:street": "Rua Coronel Fausto",
        "addr:suburb": "Centro",
        "amenity": "pharmacy",
        "dispensing": "yes",
        "healthcare": "pharmacy",
        "name": "Farmácia de Manipulação Salutares",
        "operator": "privado",
        "id": "node/7366474761"
      },
      "geometry": {
        "type": "Point",
        "coordinates": [
          -37.1363621,
          -4.9580777
        ]
      }
    },
    {
      "type": "Feature",
      "id": "node/7730931245",
      "properties": {
        "timestamp": "2020-07-20T11:04:44Z",
        "version": 1,
        "changeset": 88242053,
        "addr:city": "Areia Branca",
        "addr:postcode": "59655000",
        "addr:street": "Rua Fortaleza",
        "addr:suburb": "Nordeste",
        "amenity": "pharmacy",
        "dispensing": "yes",
        "healthcare": "pharmacy",
        "name": "Drogaria Milagrosa",
        "id": "node/7730931245"
      },
      "geometry": {
        "type": "Point",
        "coordinates": [
          -37.1305457,
          -4.9508772
        ]
      }
    }
  ]
}
