{
  "type": "FeatureCollection",
  "features": [
    {
      "type": "Feature",
      "id": "way/488715022",
      "properties": {
        "timestamp": "2020-07-16T13:58:03Z",
        "version": 7,
        "changeset": 88091943,
        "addr:city": "Areia Branca",
        "addr:housenumber": "16",
        "addr:postcode": "59655-000",
        "addr:street": "Rua Coronel Fausto",
        "addr:suburb": "Centro",
        "amenity": "school",
        "level": "2",
        "name": "Educandário Nossa Senhora dos Navegantes",
        "operator": "Religioso",
        "operator:type": "private",
        "id": "way/488715022"
      },
      "geometry": {
        "type": "Polygon",
        "coordinates": [
          [
            [
              -37.1361303,
              -4.9577482
            ],
            [
              -37.1361366,
              -4.9577937
            ],
            [
              -37.1361699,
              -4.9580138
            ],
            [
              -37.135933,
              -4.9580707
            ],
            [
              -37.1359112,
              -4.9579654
            ],
            [
              -37.1357039,
              -4.9580079
            ],
            [
              -37.1356609,
              -4.9578524
            ],
            [
              -37.1361303,
              -4.9577482
            ]
          ]
        ]
      }
    },
    {
      "type": "Feature",
      "id": "way/620993599",
      "properties": {
        "timestamp": "2020-08-03T20:57:52Z",
        "version": 3,
        "changeset": 88894882,
        "addr:city": "Areia Branca",
        "addr:housenumber": "2",
        "addr:postcode": "59655000",
        "addr:street": "Rua Fortaleza",
        "addr:suburb": "Nordeste",
        "amenity": "school",
        "name": "Escola Estadual Desembargador Silvério Soares",
        "operator": "Governo do Estado do RN",
        "phone": "+55 84 33325047",
        "id": "way/620993599"
      },
      "geometry": {
        "type": "Polygon",
        "coordinates": [
          [
            [
              -37.1263897,
              -4.9491305
            ],
            [
              -37.1259874,
              -4.9499322
            ],
            [
              -37.1252417,
              -4.9494779
            ],
            [
              -37.1256118,
              -4.9487297
            ],
            [
              -37.1263897,
              -4.9491305
            ]
          ]
        ]
      }
    },
    {
      "type": "Feature",
      "id": "way/785857454",
      "properties": {
        "timestamp": "2020-03-31T03:05:54Z",
        "version": 2,
        "changeset": 82850096,
        "addr:housenumber": "35",
        "amenity": "school",
        "name": "Escola Estadual Dr Dagmar Sabino",
        "id": "way/785857454"
      },
      "geometry": {
        "type": "Polygon",
        "coordinates": [
          [
            [
              -37.1310442,
              -4.9512844
            ],
            [
              -37.131082,
              -4.9514626
            ],
            [
              -37.1309413,
              -4.9515046
            ],
            [
              -37.1307037,
              -4.9515756
            ],
            [
              -37.1306212,
              -4.9511953
            ],
            [
              -37.1310442,
              -4.9512844
            ]
          ]
        ]
      }
    },
    {
      "type": "Feature",
      "id": "way/786082437",
      "properties": {
        "timestamp": "2020-04-01T14:05:06Z",
        "version": 2,
        "changeset": 82927861,
        "addr:city": "Areia Branca",
        "addr:housenumber": "247",
        "addr:postcode": "59655-000",
        "addr:street": "Rua Mestre Silvério Barreto",
        "addr:suburb": "Centro",
        "amenity": "school",
        "name": "Escola Estadual Conselheiro Brito Guerra",
        "id": "way/786082437"
      },
      "geometry": {
        "type": "Polygon",
        "coordinates": [
          [
            [
              -37.1347159,
              -4.9566249
            ],
            [
              -37.1347882,
              -4.9568853
            ],
            [
              -37.1344223,
              -4.9570224
            ],
            [
              -37.1343474,
              -4.9567497
            ],
            [
              -37.1347159,
              -4.9566249
            ]
          ]
        ]
      }
    },
    {
      "type": "Feature",
      "id": "way/786505462",
      "properties": {
        "timestamp": "2020-04-01T11:29:39Z",
        "version": 1,
        "changeset": 82920333,
        "addr:city": "Areia Branca",
        "addr:postcode": "59655-000",
        "addr:street": "Rua Coronel Fausto",
        "addr:suburb": "Centro",
        "amenity": "school",
        "name": "Escola Municipal Valdeci Nunes",
        "operator": "Municipio",
        "operator:type": "public",
        "id": "way/786505462"
      },
      "geometry": {
        "type": "Polygon",
        "coordinates": [
          [
            [
              -37.1359512,
              -4.9565039
            ],
            [
              -37.1359753,
              -4.956677
            ],
            [
              -37.1356194,
              -4.9567558
            ],
            [
              -37.1355729,
              -4.9566547
            ],
            [
              -37.1359512,
              -4.9565039
            ]
          ]
        ]
      }
    },
    {
      "type": "Feature",
      "id": "way/786506911",
      "properties": {
        "timestamp": "2021-01-12T12:54:27Z",
        "version": 3,
        "changeset": 97375217,
        "addr:city": "Areia Branca",
        "addr:postcode": "59655-000",
        "addr:street": "Rua Marechal Deodoro",
        "addr:suburb": "Centro",
        "amenity": "school",
        "level": "3",
        "name": "Instituto Dantas Monteiro",
        "operator": "Privado",
        "operator:type": "private",
        "phone": "+55 84 3332-2483",
        "id": "way/786506911"
      },
      "geometry": {
        "type": "Polygon",
        "coordinates": [
          [
            [
              -37.134242,
              -4.9584486
            ],
            [
              -37.1342674,
              -4.9585628
            ],
            [
              -37.1340932,
              -4.9586151
            ],
            [
              -37.1340829,
              -4.9585751
            ],
            [
              -37.1339595,
              -4.9586064
            ],
            [
              -37.1339428,
              -4.9585314
            ],
            [
              -37.134242,
              -4.9584486
            ]
          ]
        ]
      }
    },
    {
      "type": "Feature",
      "id": "way/787186556",
      "properties": {
        "timestamp": "2020-09-03T11:38:30Z",
        "version": 2,
        "changeset": 90359785,
        "addr:city": "Areia Branca",
        "addr:housenumber": "6",
        "addr:postcode": "59655-000",
        "addr:street": "Rua Jorge Caminha",
        "addr:suburb": "Centro",
        "amenity": "school",
        "name": "Escola Estadual Francisco Fausto",
        "operator": "Estadual",
        "operator:type": "public",
        "id": "way/787186556"
      },
      "geometry": {
        "type": "Polygon",
        "coordinates": [
          [
            [
              -37.130579,
              -4.9559132
            ],
            [
              -37.1307016,
              -4.9560605
            ],
            [
              -37.1305981,
              -4.9561494
            ],
            [
              -37.1304805,
              -4.9560026
            ],
            [
              -37.130579,
              -4.9559132
            ]
          ]
        ]
      }
    },
    {
      "type": "Feature",
      "id": "way/787186557",
      "properties": {
        "timestamp": "2020-09-03T11:38:30Z",
        "version": 2,
        "changeset": 90359785,
        "addr:city": "Areia Branca",
        "addr:housenumber": "6",
        "addr:postcode": "59655-000",
        "addr:street": "Rua Jorge Caminha",
        "addr:suburb": "Centro",
        "amenity": "school",
        "name": "Escola Municipal Aluizio Alves",
        "operator": "Municiṕio",
        "operator:type": "public",
        "id": "way/787186557"
      },
      "geometry": {
        "type": "Polygon",
        "coordinates": [
          [
            [
              -37.1304805,
              -4.9560026
            ],
            [
              -37.1305981,
              -4.9561494
            ],
            [
              -37.1306507,
              -4.9562151
            ],
            [
              -37.1305869,
              -4.9562654
            ],
            [
              -37.1304128,
              -4.9560584
            ],
            [
              -37.1304805,
              -4.9560026
            ]
          ]
        ]
      }
    },
    {
      "type": "Feature",
      "id": "way/788066290",
      "properties": {
        "timestamp": "2020-04-04T23:50:26Z",
        "version": 1,
        "changeset": 83085509,
        "addr:city": "Areia Branca",
        "addr:postcode": "59655-000",
        "addr:street": "Rua Rui Barbosa",
        "addr:suburb": "São João",
        "amenity": "school",
        "name": "Escola Estadual Elita Monte",
        "id": "way/788066290"
      },
      "geometry": {
        "type": "Polygon",
        "coordinates": [
          [
            [
              -37.1333475,
              -4.9504122
            ],
            [
              -37.1334466,
              -4.9507655
            ],
            [
              -37.1331354,
              -4.9508487
            ],
            [
              -37.133041,
              -4.9505048
            ],
            [
              -37.1333475,
              -4.9504122
            ]
          ]
        ]
      }
    },
    {
      "type": "Feature",
      "id": "way/788067025",
      "properties": {
        "timestamp": "2020-04-05T00:00:36Z",
        "version": 1,
        "changeset": 83085608,
        "addr:city": "Areia Branca",
        "addr:postcode": "59655000",
        "addr:street": "Rua Desembargador Filgueira",
        "addr:suburb": "Santo Cristo",
        "amenity": "school",
        "name": "Escola Municipal Vingt Rosado Maia",
        "operator": "Municipio",
        "operator:type": "public",
        "id": "way/788067025"
      },
      "geometry": {
        "type": "Polygon",
        "coordinates": [
          [
            [
              -37.1300463,
              -4.952322
            ],
            [
              -37.1300866,
              -4.9524763
            ],
            [
              -37.129797,
              -4.9525395
            ],
            [
              -37.129749,
              -4.9523868
            ],
            [
              -37.1300463,
              -4.952322
            ]
          ]
        ]
      }
    },
    {
      "type": "Feature",
      "id": "way/788067026",
      "properties": {
        "timestamp": "2020-04-05T00:00:36Z",
        "version": 1,
        "changeset": 83085608,
        "addr:city": "Areia Branca",
        "addr:postcode": "59655-000",
        "addr:street": "Rua Jorge Caminha",
        "addr:suburb": "Centro",
        "amenity": "school",
        "name": "Escola Municipal Professora Geralda Cruz",
        "operator": "Municipio",
        "operator:type": "public",
        "id": "way/788067026"
      },
      "geometry": {
        "type": "Polygon",
        "coordinates": [
          [
            [
              -37.1298109,
              -4.955016
            ],
            [
              -37.1294754,
              -4.9551149
            ],
            [
              -37.1291181,
              -4.9546877
            ],
            [
              -37.1293642,
              -4.9544781
            ],
            [
              -37.1298109,
              -4.955016
            ]
          ]
        ]
      }
    },
    {
      "type": "Feature",
      "id": "way/788067027",
      "properties": {
        "timestamp": "2020-04-05T00:00:36Z",
        "version": 1,
        "changeset": 83085608,
        "addr:city": "Areia Branca",
        "addr:postcode": "59655-000",
        "addr:street": "Rua Jorge Caminha",
        "addr:suburb": "Dom Bosco",
        "amenity": "school",
        "name": "Escola Estadual Conego Ismar Fernandes de Queiroz",
        "operator": "Estado",
        "operator:type": "public",
        "id": "way/788067027"
      },
      "geometry": {
        "type": "Polygon",
        "coordinates": [
          [
            [
              -37.1192148,
              -4.9450623
            ],
            [
              -37.1191318,
              -4.9451427
            ],
            [
              -37.1191549,
              -4.9451571
            ],
            [
              -37.1190096,
              -4.9453055
            ],
            [
              -37.118997,
              -4.9453014
            ],
            [
              -37.1189243,
              -4.9453925
            ],
            [
              -37.1187598,
              -4.9452369
            ],
            [
              -37.1187889,
              -4.945203
            ],
            [
              -37.1187186,
              -4.9451429
            ],
            [
              -37.1189439,
              -4.9448771
            ],
            [
              -37.1190279,
              -4.9449521
            ],
            [
              -37.119055,
              -4.944925
            ],
            [
              -37.1192148,
              -4.9450623
            ]
          ]
        ]
      }
    },
    {
      "type": "Feature",
      "id": "way/788071561",
      "properties": {
        "timestamp": "2020-04-05T01:06:24Z",
        "version": 1,
        "changeset": 83086178,
        "addr:city": "Areia Branca",
        "addr:postcode": "59655-000",
        "addr:street": "Rua Maria Lúcia de Odis",
        "addr:suburb": "IPE",
        "amenity": "school",
        "name": "Escola Municipal Nossa Sra Auxiliadora",
        "operator": "Municipio",
        "operator:type": "public",
        "id": "way/788071561"
      },
      "geometry": {
        "type": "Polygon",
        "coordinates": [
          [
            [
              -37.1183357,
              -4.9466844
            ],
            [
              -37.1181552,
              -4.9464508
            ],
            [
              -37.1182922,
              -4.9463458
            ],
            [
              -37.1184726,
              -4.9465795
            ],
            [
              -37.1183357,
              -4.9466844
            ]
          ]
        ]
      }
    },
    {
      "type": "Feature",
      "id": "way/788071562",
      "properties": {
        "timestamp": "2020-12-02T21:12:49Z",
        "version": 3,
        "changeset": 95177730,
        "addr:city": "Areia Branca",
        "addr:postcode": "59655-000",
        "addr:state": "RN",
        "addr:street": "Rua Rufino Gomes",
        "addr:suburb": "Upanema de Cima",
        "amenity": "school",
        "name": "Escola Municipal José Solon",
        "operator": "Municipio",
        "operator:type": "public",
        "id": "way/788071562"
      },
      "geometry": {
        "type": "Polygon",
        "coordinates": [
          [
            [
              -37.1038997,
              -4.9288751
            ],
            [
              -37.1038839,
              -4.9292226
            ],
            [
              -37.1036591,
              -4.9292124
            ],
            [
              -37.1036749,
              -4.928865
            ],
            [
              -37.1038997,
              -4.9288751
            ]
          ]
        ]
      }
    },
    {
      "type": "Feature",
      "id": "way/788072104",
      "properties": {
        "timestamp": "2020-07-06T16:13:09Z",
        "version": 2,
        "changeset": 87610386,
        "addr:city": "Areia Branca",
        "addr:postcode": "59655-000",
        "addr:street": "Rua Antônio Andrade",
        "addr:suburb": "Nossa Sra dos Navegantes",
        "amenity": "school",
        "name": "Centro de Educação Infantil Danilo Ezequiel",
        "operator": "Municipio",
        "operator:type": "public",
        "id": "way/788072104"
      },
      "geometry": {
        "type": "Polygon",
        "coordinates": [
          [
            [
              -37.1211043,
              -4.9506758
            ],
            [
              -37.120978,
              -4.9507824
            ],
            [
              -37.1207957,
              -4.9505588
            ],
            [
              -37.1209325,
              -4.9504523
            ],
            [
              -37.1211043,
              -4.9506758
            ]
          ]
        ]
      }
    },
    {
      "type": "Feature",
      "id": "way/788072700",
      "properties": {
        "timestamp": "2020-09-04T15:38:29Z",
        "version": 2,
        "changeset": 90423353,
        "addr:city": "Areia Branca",
        "addr:postcode": "59655-000",
        "addr:street": "Rua Doutor Braz B de Mendonça",
        "addr:suburb": "Cohab",
        "amenity": "school",
        "name": "Escola Estadual Prof Antonia Girland Bezerra da Silva",
        "operator": "Estadual",
        "operator:type": "public",
        "id": "way/788072700"
      },
      "geometry": {
        "type": "Polygon",
        "coordinates": [
          [
            [
              -37.1267529,
              -4.953824
            ],
            [
              -37.1267476,
              -4.954252
            ],
            [
              -37.1262918,
              -4.9542729
            ],
            [
              -37.1262848,
              -4.9538257
            ],
            [
              -37.1267529,
              -4.953824
            ]
          ]
        ]
      }
    },
    {
      "type": "Feature",
      "id": "way/788927007",
      "properties": {
        "timestamp": "2020-04-07T15:02:47Z",
        "version": 1,
        "changeset": 83204999,
        "addr:city": "Areia Branca",
        "addr:postcode": "59655-000",
        "addr:suburb": "Pedrinhas",
        "amenity": "school",
        "name": "Escola Municipal Ana de Souza Rolim",
        "operator": "Municipal",
        "operator:type": "public",
        "id": "way/788927007"
      },
      "geometry": {
        "type": "Polygon",
        "coordinates": [
          [
            [
              -37.0955781,
              -4.9529003
            ],
            [
              -37.0957454,
              -4.9530483
            ],
            [
              -37.0955655,
              -4.9533067
            ],
            [
              -37.0953793,
              -4.9531504
            ],
            [
              -37.0955781,
              -4.9529003
            ]
          ]
        ]
      }
    },
    {
      "type": "Feature",
      "id": "way/788932626",
      "properties": {
        "timestamp": "2020-04-07T15:18:07Z",
        "version": 1,
        "changeset": 83205670,
        "addr:city": "Areia Branca",
        "addr:postcode": "59655-000",
        "addr:suburb": "Ponta do Mel",
        "amenity": "school",
        "name": "Escola Municipal Francisco da Borja",
        "operator": "Municipio",
        "operator:type": "public",
        "id": "way/788932626"
      },
      "geometry": {
        "type": "Polygon",
        "coordinates": [
          [
            [
              -36.8846028,
              -4.9532423
            ],
            [
              -36.884625,
              -4.9534614
            ],
            [
              -36.8843774,
              -4.9535092
            ],
            [
              -36.8843441,
              -4.9532773
            ],
            [
              -36.8846028,
              -4.9532423
            ]
          ]
        ]
      }
    }
  ]
}
