{
  "type": "FeatureCollection",
  "features": [
    {
      "type": "Feature",
      "id": "node/7201421665",
      "properties": {
        "timestamp": "2021-10-16T00:58:31Z",
        "version": 2,
        "changeset": 112563347,
        "addr:city": "Palhoça",
        "addr:housenumber": "3081",
        "addr:postcode": "88131-030",
        "addr:street": "Rua Vinte e Quatro de Abril",
        "addr:suburb": "Centro",
        "contact:phone": "+55 48 3242-2853",
        "name": "Cicle Guckert",
        "opening_hours": "Mo-Fr 08:00-18:00; Sa 08:00-12:00; Su,PH off",
        "repair": "yes",
        "service:bicycle:parts": "yes",
        "service:bicycle:pump": "yes",
        "service:bicycle:repair": "yes",
        "service:bicycle:service": "yes",
        "shop": "bicycle",
        "id": "node/7201421665"
      },
      "geometry": {
        "type": "Point",
        "coordinates": [
          -48.6670391,
          -27.6492235
        ]
      }
    },
    {
      "type": "Feature",
      "id": "node/7201421680",
      "properties": {
        "timestamp": "2022-10-11T13:56:28Z",
        "version": 3,
        "changeset": 127362366,
        "addr:housenumber": "346",
        "addr:postcode": "88137-074",
        "addr:street": "Rua da Universidade",
        "contact:phone": "+55 48 3283-0024",
        "name": "Pedra Bikes",
        "opening_hours": "Mo-Fr 10:00-20:00; Sa 10:00-18:00; Su,PH off",
        "repair": "yes",
        "service:bicycle:parts": "yes",
        "service:bicycle:pump": "yes",
        "service:bicycle:repair": "yes",
        "service:bicycle:service": "yes",
        "shop": "bicycle",
        "id": "node/7201421680"
      },
      "geometry": {
        "type": "Point",
        "coordinates": [
          -48.6780249,
          -27.6226718
        ]
      }
    },
    {
      "type": "Feature",
      "id": "node/12018485864",
      "properties": {
        "timestamp": "2024-06-28T20:34:45Z",
        "version": 1,
        "changeset": 153310072,
        "addr:city": "Palhoça",
        "addr:street": "Rua Aderbal Ramos da Silva",
        "addr:suburb": "Pinheira",
        "name": "Titânio Bikes",
        "shop": "bicycle",
        "id": "node/12018485864"
      },
      "geometry": {
        "type": "Point",
        "coordinates": [
          -48.5876128,
          -27.8865474
        ]
      }
    }
  ]
}
