{
  "type": "FeatureCollection",
  "features": [
    {
      "type": "Feature",
      "id": "way/734844743",
      "properties": {
        "timestamp": "2023-03-20T11:46:49Z",
        "version": 2,
        "changeset": 133895319,
        "amenity": "college",
        "building": "yes",
        "name": "Uninassau Digital",
        "office": "educational_institution",
        "id": "way/734844743"
      },
      "geometry": {
        "type": "Polygon",
        "coordinates": [
          [
            [
              -42.6880288,
              -9.0290833
            ],
            [
              -42.688049,
              -9.028911
            ],
            [
              -42.6885028,
              -9.0289631
            ],
            [
              -42.6884825,
              -9.0291353
            ],
            [
              -42.6880288,
              -9.0290833
            ]
          ]
        ]
      }
    },
    {
      "type": "Feature",
      "id": "way/1025034545",
      "properties": {
        "timestamp": "2023-03-18T12:50:40Z",
        "version": 2,
        "changeset": 133821671,
        "addr:city": "São Raimundo Nonato",
        "addr:postcode": "64770-000",
        "addr:street": "Rodovia Presidente Juscelino Kubitschek",
        "addr:suburb": "Primavera",
        "amenity": "college",
        "name": "Campus São Raimundo Nonato do Ifpi",
        "operator": "Instituto Federal do Piauí - Ifpi",
        "operator:type": "public",
        "phone": "+55 89 3582 1902",
        "website": "http://libra.ifpi.edu.br/",
        "id": "way/1025034545"
      },
      "geometry": {
        "type": "Polygon",
        "coordinates": [
          [
            [
              -42.6930816,
              -9.0455071
            ],
            [
              -42.6945941,
              -9.0454281
            ],
            [
              -42.695453,
              -9.0454644
            ],
            [
              -42.6959448,
              -9.0482412
            ],
            [
              -42.6940936,
              -9.0481685
            ],
            [
              -42.6930816,
              -9.0455071
            ]
          ]
        ]
      }
    },
    {
      "type": "Feature",
      "id": "node/6614890724",
      "properties": {
        "timestamp": "2023-03-18T02:27:18Z",
        "version": 2,
        "changeset": 133809419,
        "addr:city": "São Raimundo Nonato",
        "addr:postcode": "64770-000",
        "addr:street": "Rua Capitão Newton Rubem",
        "addr:suburb": "Centro",
        "amenity": "college",
        "name": "Centro de Formação Profissional Gasparino Ferreira dos Santos",
        "operator": "Senac - Serviço Nacional do Comércio",
        "operator:type": "association",
        "id": "node/6614890724"
      },
      "geometry": {
        "type": "Point",
        "coordinates": [
          -42.6971084,
          -9.0166411
        ]
      }
    }
  ]
}
