{
  "type": "FeatureCollection",
  "features": [
    {
      "type": "Feature",
      "id": "node/10745400262",
      "properties": {
        "timestamp": "2023-03-19T15:21:17Z",
        "version": 1,
        "changeset": 133862365,
        "addr:city": "São Raimundo Nonato",
        "addr:postcode": "64770-000",
        "addr:street": "Praça Francisco Antônio da Silva",
        "addr:suburb": "Centro",
        "government": "prosecutor",
        "name": "Promotoria Regional de São Raimundo Nonato",
        "office": "government",
        "opening_hours": "Mo-Fr 12:00-18:00",
        "operator": "Ministério Público do Estado do Piauí",
        "phone": "+55 89 3582 1242",
        "id": "node/10745400262"
      },
      "geometry": {
        "type": "Point",
        "coordinates": [
          -42.6931579,
          -9.016544
        ]
      }
    },
    {
      "type": "Feature",
      "id": "node/10745400264",
      "properties": {
        "timestamp": "2023-03-19T15:21:17Z",
        "version": 1,
        "changeset": 133862365,
        "addr:city": "São Raimundo Nonato",
        "addr:postcode": "64770-000",
        "addr:street": "Rua Edmundo Belo do Silva",
        "addr:suburb": "Centro",
        "government": "justice",
        "name": "Defensoria Pública do Estado do Piauí",
        "office": "government",
        "phone": "+55 89 3582 2649",
        "website": "http://www.defensoria.pi.def.br/",
        "id": "node/10745400264"
      },
      "geometry": {
        "type": "Point",
        "coordinates": [
          -42.6905275,
          -9.0115831
        ]
      }
    },
    {
      "type": "Feature",
      "id": "node/10745400274",
      "properties": {
        "timestamp": "2023-03-19T15:21:17Z",
        "version": 1,
        "changeset": 133862365,
        "addr:city": "São Raimundo Nonato",
        "addr:postcode": "64770-000",
        "addr:street": "Rua Zeca Coqueiro",
        "addr:suburb": "Centro",
        "government": "tax",
        "name": "Gerência Regional de Atendimento daa Secretaria de Estado da Fazenda",
        "office": "government",
        "id": "node/10745400274"
      },
      "geometry": {
        "type": "Point",
        "coordinates": [
          -42.6898281,
          -9.0144576
        ]
      }
    },
    {
      "type": "Feature",
      "id": "node/10745400275",
      "properties": {
        "timestamp": "2023-03-19T15:21:17Z",
        "version": 1,
        "changeset": 133862365,
        "addr:city": "São Raimundo Nonato",
        "addr:housenumber": "312",
        "addr:postcode": "64770-000",
        "addr:street": "Praça Professor Julio Paixão",
        "addr:suburb": "Centro",
        "government": "education",
        "name": "Secretaria Municipal de Educação, Esportes e Lazer",
        "office": "government",
        "id": "node/10745400275"
      },
      "geometry": {
        "type": "Point",
        "coordinates": [
          -42.6888208,
          -9.0147355
        ]
      }
    },
    {
      "type": "Feature",
      "id": "node/10745400279",
      "properties": {
        "timestamp": "2023-03-19T17:52:10Z",
        "version": 2,
        "changeset": 133867794,
        "addr:city": "São Raimundo Nonato",
        "addr:postcode": "64770-000",
        "addr:street": "Avenida Professor João Meneses",
        "addr:suburb": "Centro",
        "government": "administrative",
        "name": "Arquivo Público do Município de São Raimundo Nonato",
        "office": "government",
        "id": "node/10745400279"
      },
      "geometry": {
        "type": "Point",
        "coordinates": [
          -42.6879752,
          -9.0149143
        ]
      }
    },
    {
      "type": "Feature",
      "id": "node/10746432572",
      "properties": {
        "timestamp": "2023-03-19T17:52:10Z",
        "version": 1,
        "changeset": 133867794,
        "addr:city": "São Raimundo Nonato",
        "addr:postcode": "64770-000",
        "addr:street": "Avenida Professor João Meneses",
        "addr:suburb": "Centro",
        "association": "business",
        "government": "administrative",
        "name": "Unidade Regional do Sebrae",
        "office": "government",
        "operator": "Sebrae - Serviço Brasileiro de Apoio às Micro e Pequenas Empresas",
        "phone": "+55 89 3582 1288",
        "website": "http://www.ba.sebrae.com.br/",
        "id": "node/10746432572"
      },
      "geometry": {
        "type": "Point",
        "coordinates": [
          -42.6878395,
          -9.0148859
        ]
      }
    },
    {
      "type": "Feature",
      "id": "node/10746653051",
      "properties": {
        "timestamp": "2023-03-19T19:34:52Z",
        "version": 1,
        "changeset": 133871151,
        "addr:city": "São Raimundo Nonato",
        "addr:housenumber": "188",
        "addr:postcode": "64770-000",
        "addr:street": "Rua Doutor Luiz Paixão",
        "addr:suburb": "Milonga",
        "government": "environment",
        "name": "IcmBio - Parque Nacional da Serra da Capivara",
        "office": "government",
        "operator": "Instituto Chico Mendes de Conservação da Biodiversidade - IcmBio",
        "phone": "+55 89 3582 2085",
        "website": "https://www.gov.br/icmbio/pt-br/assuntos/biodiversidade/unidade-de-conservacao/unidades-de-biomas/caatinga/lista-de-ucs/parna-da-serra-da-capivara",
        "id": "node/10746653051"
      },
      "geometry": {
        "type": "Point",
        "coordinates": [
          -42.6932899,
          -9.0095324
        ]
      }
    },
    {
      "type": "Feature",
      "id": "node/10748444882",
      "properties": {
        "timestamp": "2023-03-20T13:41:38Z",
        "version": 1,
        "changeset": 133899972,
        "addr:city": "São Raimundo Nonato",
        "addr:housenumber": "1477",
        "addr:postcode": "64770-000",
        "addr:street": "Praça Francisco Freiria",
        "addr:suburb": "Aldeia",
        "government": "social_security",
        "name": "Agência da Previdência Social de São Raimundo Nonato",
        "office": "government",
        "operator": "Instituto Nacional do Seguro Social",
        "operator:short": "INSS",
        "operator:wikidata": "Q10302614",
        "phone": "+55 89 3582 3005",
        "website": "aps16001090@inss.gov.br",
        "id": "node/10748444882"
      },
      "geometry": {
        "type": "Point",
        "coordinates": [
          -42.6997327,
          -9.0147706
        ]
      }
    },
    {
      "type": "Feature",
      "id": "node/10748444897",
      "properties": {
        "timestamp": "2023-03-20T13:41:38Z",
        "version": 1,
        "changeset": 133899972,
        "addr:city": "São Raimundo Nonato",
        "addr:housenumber": "1480",
        "addr:postcode": "64770-000",
        "addr:street": "Praça Francisco Freiria",
        "addr:suburb": "Aldeia",
        "government": "administrative",
        "name": "Secretaria Municipal de Saúde",
        "office": "government",
        "phone": "+55 89 3582 1806",
        "website": "saude@saoraimundononato.pi.gov.br",
        "id": "node/10748444897"
      },
      "geometry": {
        "type": "Point",
        "coordinates": [
          -42.6994127,
          -9.0151825
        ]
      }
    }
  ]
}
