{
  "type": "FeatureCollection",
  "features": [
    {
      "type": "Feature",
      "id": "node/4661786902",
      "properties": {
        "timestamp": "2022-01-18T14:13:42Z",
        "version": 2,
        "changeset": 116301039,
        "addr:housenumber": "210",
        "addr:postcode": "75480000",
        "addr:street": "Praça Teófilo Vieira Mota",
        "amenity": "pharmacy",
        "healthcare": "pharmacy",
        "name": "Drogaria Malta",
        "name:en": "Drugstore Malta",
        "name:pt": "Drogaria Malta",
        "id": "node/4661786902"
      },
      "geometry": {
        "type": "Point",
        "coordinates": [
          -49.3354667,
          -16.100954
        ]
      }
    },
    {
      "type": "Feature",
      "id": "node/4662074194",
      "properties": {
        "timestamp": "2022-01-18T14:13:42Z",
        "version": 2,
        "changeset": 116301039,
        "addr:housenumber": "363",
        "addr:postcode": "75480000",
        "addr:street": "Rua Jose Alfaiate De Lima",
        "amenity": "pharmacy",
        "healthcare": "pharmacy",
        "name": "Drogaria São Geraldo",
        "name:en": "Drugstore Sao Geraldo",
        "name:pt": "Drogaria São Geraldo",
        "phone": "+556233346416",
        "id": "node/4662074194"
      },
      "geometry": {
        "type": "Point",
        "coordinates": [
          -49.3345809,
          -16.1042957
        ]
      }
    }
  ]
}
