{
  "type": "FeatureCollection",
  "features": [
    {
      "type": "Feature",
      "id": "way/599481788",
      "properties": {
        "timestamp": "2021-06-24T22:27:50Z",
        "version": 2,
        "changeset": 106925744,
        "IJSN:administra": "Estadual",
        "IJSN:classeCnae": "Fundamental e Médio",
        "addr:city": "Marilândia",
        "addr:housenumber": "782",
        "addr:postcode": "29725-000",
        "addr:street": "Avenida Dom Bosco",
        "addr:suburb": "Centro",
        "alt_name": "EEEFM Padre Antônio Volkers",
        "amenity": "school",
        "contact:phone": "(27) 3724-1741",
        "name": "Escola Estadual de Ensino Fundamental e Médio Padre Antônio Volkers",
        "source": "IJSN",
        "id": "way/599481788"
      },
      "geometry": {
        "type": "Polygon",
        "coordinates": [
          [
            [
              -40.5444069,
              -19.4097266
            ],
            [
              -40.5443433,
              -19.4103629
            ],
            [
              -40.5441829,
              -19.4104261
            ],
            [
              -40.5437772,
              -19.4104666
            ],
            [
              -40.543609,
              -19.4098607
            ],
            [
              -40.5436103,
              -19.4098484
            ],
            [
              -40.5436133,
              -19.409838
            ],
            [
              -40.5436204,
              -19.4098301
            ],
            [
              -40.5436344,
              -19.4098244
            ],
            [
              -40.5440971,
              -19.4097722
            ],
            [
              -40.5444069,
              -19.4097266
            ]
          ]
        ]
      }
    },
    {
      "type": "Feature",
      "id": "way/978507126",
      "properties": {
        "timestamp": "2021-09-01T17:40:55Z",
        "version": 1,
        "changeset": 110579130,
        "IJSN:administra": "Privada",
        "IJSN:classeCnae": "Fundamental e Médio",
        "addr:city": "Marilândia",
        "addr:housenumber": "150",
        "addr:postcode": "29725-000",
        "addr:street": "Rua Izaldino Camata",
        "addr:suburb": "Centro",
        "alt_name": "Escola Família Agrícola",
        "amenity": "school",
        "building": "yes",
        "building:levels": "2",
        "contact:phone": "(27) 3724-1019",
        "name": "Escola Família Agrícola de Marilândia",
        "source": "IJSN",
        "id": "way/978507126"
      },
      "geometry": {
        "type": "Polygon",
        "coordinates": [
          [
            [
              -40.541778,
              -19.4104826
            ],
            [
              -40.5417718,
              -19.4104237
            ],
            [
              -40.5418673,
              -19.4104147
            ],
            [
              -40.5418727,
              -19.4104657
            ],
            [
              -40.5419063,
              -19.4104626
            ],
            [
              -40.5419269,
              -19.4106575
            ],
            [
              -40.5419436,
              -19.4106559
            ],
            [
              -40.5419518,
              -19.4107329
            ],
            [
              -40.5419345,
              -19.4107345
            ],
            [
              -40.5419563,
              -19.410938
            ],
            [
              -40.5410268,
              -19.4110263
            ],
            [
              -40.5410148,
              -19.4109139
            ],
            [
              -40.5416263,
              -19.4108559
            ],
            [
              -40.5415986,
              -19.4105961
            ],
            [
              -40.5411998,
              -19.410634
            ],
            [
              -40.5412176,
              -19.4108011
            ],
            [
              -40.5410003,
              -19.4108217
            ],
            [
              -40.5409762,
              -19.4105953
            ],
            [
              -40.5411047,
              -19.4105831
            ],
            [
              -40.5411007,
              -19.4105463
            ],
            [
              -40.541778,
              -19.4104826
            ]
          ]
        ]
      }
    },
    {
      "type": "Feature",
      "id": "node/3919743620",
      "properties": {
        "timestamp": "2016-03-09T19:13:34Z",
        "version": 2,
        "changeset": 37716865,
        "IJSN:administra": "Municipal",
        "IJSN:classeCnae": "Fundamental",
        "addr:city": "Colatina",
        "addr:country": "BR",
        "addr:postcode": "29716-000",
        "addr:state": "ES",
        "addr:street": "Córrego Joaquim Távora",
        "addr:suburb": "Comunidade de Joaquim Távora",
        "alt_name": "Escola Unidocente Municipal",
        "amenity": "school",
        "name": "EUM Córrego Joaquim Távora",
        "source": "IJSN",
        "id": "node/3919743620"
      },
      "geometry": {
        "type": "Point",
        "coordinates": [
          -40.5814503,
          -19.3413231
        ]
      }
    },
    {
      "type": "Feature",
      "id": "node/3919743640",
      "properties": {
        "timestamp": "2016-03-09T19:13:40Z",
        "version": 2,
        "changeset": 37716865,
        "IJSN:administra": "Municipal",
        "IJSN:classeCnae": "Infantil e Fundamental",
        "addr:city": "Colatina",
        "addr:country": "BR",
        "addr:postcode": "29716-000",
        "addr:state": "ES",
        "addr:street": "Córrego Joaquim Távora",
        "addr:suburb": "Comunidade de Joaquim Távora",
        "alt_name": "Escola Unidocente Municipal",
        "amenity": "school",
        "name": "EUM São Valentim",
        "source": "IJSN",
        "id": "node/3919743640"
      },
      "geometry": {
        "type": "Point",
        "coordinates": [
          -40.5554002,
          -19.332192
        ]
      }
    },
    {
      "type": "Feature",
      "id": "node/4024905256",
      "properties": {
        "timestamp": "2016-02-25T02:00:14Z",
        "version": 1,
        "changeset": 37426154,
        "IJSN:administra": "Municipal",
        "IJSN:classeCnae": "Infantil e Fundamental",
        "addr:city": "Marilândia",
        "addr:postcode": "29725-000",
        "addr:street": "Rua Franquelin Antônio da Silva",
        "addr:suburb": "Comunidade de Sapucaia",
        "alt_name": "Escola Municipal de Ensino Fundamental",
        "amenity": "school",
        "contact:phone": "(27) 3724-4031",
        "name": "EMEF Angelo Bravim",
        "source": "IJSN",
        "id": "node/4024905256"
      },
      "geometry": {
        "type": "Point",
        "coordinates": [
          -40.6083689,
          -19.3630446
        ]
      }
    },
    {
      "type": "Feature",
      "id": "node/4024905483",
      "properties": {
        "timestamp": "2016-02-25T02:00:35Z",
        "version": 1,
        "changeset": 37426154,
        "IJSN:administra": "Municipal",
        "IJSN:classeCnae": "Fundamental",
        "addr:city": "Marilândia",
        "addr:postcode": "29725-000",
        "addr:suburb": "Comunidade de Aparecida",
        "alt_name": "Escola Municipal de Ensino Fundamental",
        "amenity": "school",
        "name": "EMEF João Altoé",
        "source": "IJSN",
        "id": "node/4024905483"
      },
      "geometry": {
        "type": "Point",
        "coordinates": [
          -40.4933541,
          -19.39312
        ]
      }
    },
    {
      "type": "Feature",
      "id": "node/4024905606",
      "properties": {
        "timestamp": "2016-02-25T02:00:39Z",
        "version": 1,
        "changeset": 37426154,
        "IJSN:administra": "Municipal",
        "IJSN:classeCnae": "Fundamental",
        "addr:city": "Marilândia",
        "addr:housenumber": "151",
        "addr:postcode": "29725-000",
        "addr:street": "Rua Conego João Guilherme",
        "addr:suburb": "Centro",
        "alt_name": "Escola Municipal de Ensino Fundamental",
        "amenity": "school",
        "contact:phone": "(27) 3724-1996",
        "name": "EMEF Maria Izabel Falcheto",
        "source": "IJSN",
        "id": "node/4024905606"
      },
      "geometry": {
        "type": "Point",
        "coordinates": [
          -40.544696,
          -19.4142127
        ]
      }
    },
    {
      "type": "Feature",
      "id": "node/4024905919",
      "properties": {
        "timestamp": "2016-02-25T02:01:14Z",
        "version": 1,
        "changeset": 37426154,
        "IJSN:administra": "Municipal",
        "IJSN:classeCnae": "Infantil e Fundamental",
        "addr:city": "Marilândia",
        "addr:postcode": "29725-000",
        "addr:street": "Rua Principal",
        "addr:suburb": "Patrão Mor",
        "alt_name": "Escola Municipal de Ensino Infantil e Fundamental",
        "amenity": "school",
        "contact:phone": "(27) 3724-1105",
        "name": "EMEIEF Padre Luiz da Grã",
        "source": "IJSN",
        "id": "node/4024905919"
      },
      "geometry": {
        "type": "Point",
        "coordinates": [
          -40.463344,
          -19.4747259
        ]
      }
    },
    {
      "type": "Feature",
      "id": "node/4024905952",
      "properties": {
        "timestamp": "2016-02-25T02:01:20Z",
        "version": 1,
        "changeset": 37426154,
        "IJSN:administra": "Municipal",
        "IJSN:classeCnae": "Infantil e Fundamental",
        "addr:city": "Marilândia",
        "addr:postcode": "29725-000",
        "addr:suburb": "Comunidade Monte Sinai",
        "alt_name": "Escola Municipal de Ensino Infantil e Fundamental",
        "amenity": "school",
        "name": "EMEIEF São Judas Tadeu",
        "source": "IJSN",
        "id": "node/4024905952"
      },
      "geometry": {
        "type": "Point",
        "coordinates": [
          -40.6150721,
          -19.3928435
        ]
      }
    },
    {
      "type": "Feature",
      "id": "node/4024905983",
      "properties": {
        "timestamp": "2021-06-24T10:59:50Z",
        "version": 2,
        "changeset": 106894445,
        "IJSN:administra": "Municipal",
        "IJSN:classeCnae": "Infantil e Fundamental",
        "addr:city": "Marilândia",
        "addr:postcode": "29725-000",
        "addr:street": "Avenida Angelo Drago",
        "addr:suburb": "Comunidade de Liberdade",
        "alt_name": "Escola Municipal Pluridocente de Ensino Fundamental",
        "amenity": "school",
        "name": "EMPEF Alto Liberdade",
        "source": "IJSN",
        "id": "node/4024905983"
      },
      "geometry": {
        "type": "Point",
        "coordinates": [
          -40.5398063,
          -19.3648716
        ]
      }
    },
    {
      "type": "Feature",
      "id": "node/4024906166",
      "properties": {
        "timestamp": "2016-02-25T02:01:38Z",
        "version": 1,
        "changeset": 37426154,
        "IJSN:administra": "Municipal",
        "IJSN:classeCnae": "Fundamental",
        "addr:city": "Marilândia",
        "addr:postcode": "29725-000",
        "addr:suburb": "Comunidade São Pedro de Marilândia",
        "alt_name": "Escola Municipal Pluridocente de Ensino Fundamental",
        "amenity": "school",
        "name": "EMPEF São Pedro de Marilândia",
        "source": "IJSN",
        "id": "node/4024906166"
      },
      "geometry": {
        "type": "Point",
        "coordinates": [
          -40.5026265,
          -19.4052212
        ]
      }
    },
    {
      "type": "Feature",
      "id": "node/4024906208",
      "properties": {
        "timestamp": "2016-02-25T02:01:45Z",
        "version": 1,
        "changeset": 37426154,
        "IJSN:administra": "Municipal",
        "IJSN:classeCnae": "Fundamental",
        "addr:city": "Marilândia",
        "addr:postcode": "29725-000",
        "addr:suburb": "Comunidade de Santana",
        "alt_name": "Escola Municipal Unidocente de Ensino Fundamental",
        "amenity": "school",
        "name": "EMUEF Abraão de Souza",
        "source": "IJSN",
        "id": "node/4024906208"
      },
      "geometry": {
        "type": "Point",
        "coordinates": [
          -40.5847028,
          -19.3759222
        ]
      }
    },
    {
      "type": "Feature",
      "id": "node/4024906215",
      "properties": {
        "timestamp": "2016-02-25T02:01:46Z",
        "version": 1,
        "changeset": 37426154,
        "IJSN:administra": "Municipal",
        "IJSN:classeCnae": "Fundamental",
        "addr:city": "Marilândia",
        "addr:postcode": "29725-000",
        "addr:suburb": "Comunidade Alto Patrão Mor",
        "alt_name": "Escola Municipal Unidocente de Ensino Fundamental",
        "amenity": "school",
        "name": "EMUEF Alto Patrão Mor",
        "source": "IJSN",
        "id": "node/4024906215"
      },
      "geometry": {
        "type": "Point",
        "coordinates": [
          -40.4694729,
          -19.4421497
        ]
      }
    },
    {
      "type": "Feature",
      "id": "node/4024906226",
      "properties": {
        "timestamp": "2016-02-25T02:01:47Z",
        "version": 1,
        "changeset": 37426154,
        "IJSN:administra": "Municipal",
        "IJSN:classeCnae": "Fundamental",
        "addr:city": "Marilândia",
        "addr:postcode": "29725-000",
        "addr:suburb": "Comunidade de Aparecida",
        "alt_name": "Escola Municipal Unidocente de Ensino Fundamental",
        "amenity": "school",
        "name": "EMUEF Barra do Córrego Pavão",
        "source": "IJSN",
        "id": "node/4024906226"
      },
      "geometry": {
        "type": "Point",
        "coordinates": [
          -40.5057984,
          -19.3935878
        ]
      }
    },
    {
      "type": "Feature",
      "id": "node/4024906229",
      "properties": {
        "timestamp": "2016-02-25T02:01:48Z",
        "version": 1,
        "changeset": 37426154,
        "IJSN:administra": "Municipal",
        "IJSN:classeCnae": "Fundamental",
        "addr:city": "Marilândia",
        "addr:postcode": "29725-000",
        "addr:suburb": "Comunidade Alto Patrão Mor",
        "alt_name": "Escola Municipal Unidocente de Ensino Fundamental",
        "amenity": "school",
        "name": "EMUEF Boa Vista de Alto Patrão Mor",
        "source": "IJSN",
        "id": "node/4024906229"
      },
      "geometry": {
        "type": "Point",
        "coordinates": [
          -40.4686505,
          -19.4419018
        ]
      }
    },
    {
      "type": "Feature",
      "id": "node/4024906263",
      "properties": {
        "timestamp": "2016-02-25T02:01:53Z",
        "version": 1,
        "changeset": 37426154,
        "IJSN:administra": "Municipal",
        "IJSN:classeCnae": "Fundamental",
        "addr:city": "Marilândia",
        "addr:postcode": "29725-000",
        "addr:suburb": "Córrego Pastinho",
        "alt_name": "Escola Municipal Unidocente de Ensino Fundamental",
        "amenity": "school",
        "name": "EMUEF Córrego Pastinho",
        "source": "IJSN",
        "id": "node/4024906263"
      },
      "geometry": {
        "type": "Point",
        "coordinates": [
          -40.52441,
          -19.4903854
        ]
      }
    },
    {
      "type": "Feature",
      "id": "node/4024906267",
      "properties": {
        "timestamp": "2016-02-25T02:01:53Z",
        "version": 1,
        "changeset": 37426154,
        "IJSN:administra": "Municipal",
        "IJSN:classeCnae": "Fundamental",
        "addr:city": "Marilândia",
        "addr:postcode": "29725-000",
        "addr:suburb": "Córrego Sumidouro",
        "alt_name": "Escola Municipal Unidocente de Ensino Fundamental",
        "amenity": "school",
        "name": "EMUEF Córrego Sumidouro",
        "source": "IJSN",
        "id": "node/4024906267"
      },
      "geometry": {
        "type": "Point",
        "coordinates": [
          -40.4581746,
          -19.4106036
        ]
      }
    },
    {
      "type": "Feature",
      "id": "node/4024906273",
      "properties": {
        "timestamp": "2016-02-25T02:01:54Z",
        "version": 1,
        "changeset": 37426154,
        "IJSN:administra": "Municipal",
        "IJSN:classeCnae": "Fundamental",
        "addr:city": "Marilândia",
        "addr:postcode": "29725-000",
        "addr:suburb": "Comunidade Taquaruçu",
        "alt_name": "Escola Municipal Unidocente de Ensino Fundamental",
        "amenity": "school",
        "name": "EMUEF Córrego Taquarussu",
        "source": "IJSN",
        "id": "node/4024906273"
      },
      "geometry": {
        "type": "Point",
        "coordinates": [
          -40.4975429,
          -19.4860833
        ]
      }
    },
    {
      "type": "Feature",
      "id": "node/4024906318",
      "properties": {
        "timestamp": "2016-02-25T02:02:01Z",
        "version": 1,
        "changeset": 37426154,
        "IJSN:administra": "Municipal",
        "IJSN:classeCnae": "Fundamental",
        "addr:city": "Marilândia",
        "addr:postcode": "29725-000",
        "addr:suburb": "Gracilândia",
        "alt_name": "Escola Municipal Unidocente de Ensino Fundamental",
        "amenity": "school",
        "name": "EMUEF Gracilândia",
        "source": "IJSN",
        "id": "node/4024906318"
      },
      "geometry": {
        "type": "Point",
        "coordinates": [
          -40.4508282,
          -19.4994699
        ]
      }
    },
    {
      "type": "Feature",
      "id": "node/4024906329",
      "properties": {
        "timestamp": "2016-02-25T02:02:03Z",
        "version": 1,
        "changeset": 37426154,
        "IJSN:administra": "Municipal",
        "IJSN:classeCnae": "Fundamental",
        "addr:city": "Marilândia",
        "addr:postcode": "29725-000",
        "addr:suburb": "Fazenda Bela Vista",
        "alt_name": "Escola Municipal Unidocente de Ensino Fundamental",
        "amenity": "school",
        "name": "EMUEF Lagoa do Óleo",
        "source": "IJSN",
        "id": "node/4024906329"
      },
      "geometry": {
        "type": "Point",
        "coordinates": [
          -40.4412131,
          -19.5312668
        ]
      }
    },
    {
      "type": "Feature",
      "id": "node/4024906330",
      "properties": {
        "timestamp": "2016-02-25T02:02:03Z",
        "version": 1,
        "changeset": 37426154,
        "IJSN:administra": "Municipal",
        "IJSN:classeCnae": "Fundamental",
        "addr:city": "Marilândia",
        "addr:postcode": "29725-000",
        "addr:suburb": "Comunidade de Córrego Seis Horas",
        "alt_name": "Escola Municipal Unidocente de Ensino Fundamental",
        "amenity": "school",
        "name": "EMUEF Mairi Goltara",
        "source": "IJSN",
        "id": "node/4024906330"
      },
      "geometry": {
        "type": "Point",
        "coordinates": [
          -40.5143371,
          -19.443736
        ]
      }
    },
    {
      "type": "Feature",
      "id": "node/4024906331",
      "properties": {
        "timestamp": "2016-02-25T02:02:03Z",
        "version": 1,
        "changeset": 37426154,
        "IJSN:administra": "Municipal",
        "IJSN:classeCnae": "Fundamental",
        "addr:city": "Marilândia",
        "addr:postcode": "29725-000",
        "addr:suburb": "Fazenda Batista",
        "alt_name": "Escola Municipal Unidocente de Ensino Fundamental",
        "amenity": "school",
        "name": "EMUEF Marcellino Baptista",
        "source": "IJSN",
        "id": "node/4024906331"
      },
      "geometry": {
        "type": "Point",
        "coordinates": [
          -40.4231218,
          -19.527858
        ]
      }
    },
    {
      "type": "Feature",
      "id": "node/4024906386",
      "properties": {
        "timestamp": "2016-02-25T02:02:11Z",
        "version": 1,
        "changeset": 37426154,
        "IJSN:administra": "Municipal",
        "IJSN:classeCnae": "Fundamental",
        "addr:city": "Marilândia",
        "addr:postcode": "29725-000",
        "addr:suburb": "Comunidade Santo Hilário",
        "alt_name": "Escola Municipal Unidocente de Ensino Fundamental",
        "amenity": "school",
        "name": "EMUEF Santo Hilário",
        "source": "IJSN",
        "id": "node/4024906386"
      },
      "geometry": {
        "type": "Point",
        "coordinates": [
          -40.5547209,
          -19.3807968
        ]
      }
    },
    {
      "type": "Feature",
      "id": "node/4024906387",
      "properties": {
        "timestamp": "2016-02-25T02:02:11Z",
        "version": 1,
        "changeset": 37426154,
        "IJSN:administra": "Municipal",
        "IJSN:classeCnae": "Fundamental",
        "addr:city": "Marilândia",
        "addr:postcode": "29725-000",
        "addr:suburb": "Comunidade de Limoeiro",
        "alt_name": "Escola Municipal Unidocente de Ensino Fundamental",
        "amenity": "school",
        "name": "EMUEF Santo Isidoro do Limoeiro",
        "source": "IJSN",
        "id": "node/4024906387"
      },
      "geometry": {
        "type": "Point",
        "coordinates": [
          -40.519831,
          -19.4309483
        ]
      }
    },
    {
      "type": "Feature",
      "id": "node/4024906599",
      "properties": {
        "timestamp": "2016-02-25T02:02:13Z",
        "version": 1,
        "changeset": 37426154,
        "IJSN:administra": "Municipal",
        "IJSN:classeCnae": "Fundamental",
        "addr:city": "Marilândia",
        "addr:postcode": "29725-000",
        "addr:suburb": "Comunidade São Marcos",
        "alt_name": "Escola Municipal Unidocente de Ensino Fundamental",
        "amenity": "school",
        "name": "EMUEF São Marcos",
        "source": "IJSN",
        "id": "node/4024906599"
      },
      "geometry": {
        "type": "Point",
        "coordinates": [
          -40.5408617,
          -19.4466517
        ]
      }
    }
  ]
}
