{
  "type": "FeatureCollection",
  "features": [
    {
      "type": "Feature",
      "id": "node/1914499917",
      "properties": {
        "timestamp": "2020-04-27T18:48:36Z",
        "version": 2,
        "changeset": 84215933,
        "addr:city": "Palmas",
        "addr:street": "Quadra 107 Norte Avenida NS 05",
        "addr:suburb": "Plano Diretor Norte",
        "amenity": "cinema",
        "brand": "Cinemark",
        "brand:wikidata": "Q707530",
        "brand:wikipedia": "en:Cinemark Theatres",
        "name": "Cinemark",
        "opening_hours": "Mo-Su 08:00-22:00",
        "payment:credit_cards": "yes",
        "screen": "30",
        "id": "node/1914499917"
      },
      "geometry": {
        "type": "Point",
        "coordinates": [
          -48.3478701,
          -10.1817826
        ]
      }
    },
    {
      "type": "Feature",
      "id": "node/10242108890",
      "properties": {
        "timestamp": "2022-12-06T10:56:51Z",
        "version": 1,
        "changeset": 129777874,
        "amenity": "cinema",
        "name": "Cine Sesc Palmas",
        "screen": "1",
        "id": "node/10242108890"
      },
      "geometry": {
        "type": "Point",
        "coordinates": [
          -48.3213976,
          -10.1610745
        ]
      }
    }
  ]
}
