{
  "type": "FeatureCollection",
  "features": [
    {
      "type": "Feature",
      "id": "way/1119280309",
      "properties": {
        "timestamp": "2023-07-23T21:31:53Z",
        "version": 2,
        "changeset": 138911752,
        "addr:city": "Candiota",
        "addr:housenumber": "134",
        "addr:postcode": "96495-000",
        "addr:street": "Rua Pedro Coromberk",
        "amenity": "hospital",
        "healthcare": "hospital",
        "name": "hospital municipal de Candiota",
        "operator": "Prefeitura municipal de Candiota",
        "ref:CNES": "2261820",
        "ref:vatin": "BR07685994000176",
        "id": "way/1119280309"
      },
      "geometry": {
        "type": "Polygon",
        "coordinates": [
          [
            [
              -53.6745788,
              -31.5621399
            ],
            [
              -53.6745572,
              -31.5622763
            ],
            [
              -53.6740974,
              -31.5622235
            ],
            [
              -53.674119,
              -31.5620871
            ],
            [
              -53.6745788,
              -31.5621399
            ]
          ]
        ]
      }
    }
  ]
}
