{
  "type": "FeatureCollection",
  "features": [
    {
      "type": "Feature",
      "id": "way/477143473",
      "properties": {
        "timestamp": "2017-02-25T16:27:52Z",
        "version": 1,
        "changeset": 46397275,
        "addr:city": "Parelhas",
        "addr:housenumber": "16",
        "addr:postcode": "59360-000",
        "addr:street": "Rua Bernadino Sena",
        "addr:suburb": "Centro",
        "amenity": "pharmacy",
        "building": "yes",
        "name": "Farmácia São Luiz",
        "id": "way/477143473"
      },
      "geometry": {
        "type": "Polygon",
        "coordinates": [
          [
            [
              -36.6571613,
              -6.6874328
            ],
            [
              -36.6570969,
              -6.6873089
            ],
            [
              -36.6571533,
              -6.6872849
            ],
            [
              -36.6572163,
              -6.6874075
            ],
            [
              -36.6571613,
              -6.6874328
            ]
          ]
        ]
      }
    },
    {
      "type": "Feature",
      "id": "way/479882697",
      "properties": {
        "timestamp": "2019-07-29T03:55:39Z",
        "version": 2,
        "changeset": 72752133,
        "addr:city": "Parelhas",
        "addr:housenumber": "98",
        "addr:postcode": "59360-000",
        "addr:street": "Rua Bernadino Sena",
        "addr:suburb": "Centro",
        "amenity": "pharmacy",
        "building": "yes",
        "dispensing": "yes",
        "drive_through": "no",
        "healthcare": "pharmacy",
        "name": "Farmácia MedVida",
        "id": "way/479882697"
      },
      "geometry": {
        "type": "Polygon",
        "coordinates": [
          [
            [
              -36.6579296,
              -6.6870705
            ],
            [
              -36.6578485,
              -6.6871102
            ],
            [
              -36.6577987,
              -6.6870099
            ],
            [
              -36.6578798,
              -6.6869702
            ],
            [
              -36.6579296,
              -6.6870705
            ]
          ]
        ]
      }
    },
    {
      "type": "Feature",
      "id": "way/481051765",
      "properties": {
        "timestamp": "2017-03-29T16:46:30Z",
        "version": 2,
        "changeset": 47265873,
        "addr:city": "Parelhas",
        "addr:housenumber": "10",
        "addr:postcode": "59360-000",
        "addr:street": "Rua Custódio Pereira da Silva",
        "addr:suburb": "Maria Terceira",
        "amenity": "pharmacy",
        "building": "yes",
        "name": "Drogaria Frei Damião - Loja II",
        "id": "way/481051765"
      },
      "geometry": {
        "type": "Polygon",
        "coordinates": [
          [
            [
              -36.6602757,
              -6.6952427
            ],
            [
              -36.6601707,
              -6.6952949
            ],
            [
              -36.6601,
              -6.6951635
            ],
            [
              -36.660207,
              -6.6951052
            ],
            [
              -36.6602757,
              -6.6952427
            ]
          ]
        ]
      }
    },
    {
      "type": "Feature",
      "id": "way/522894356",
      "properties": {
        "timestamp": "2018-01-13T15:21:48Z",
        "version": 2,
        "changeset": 55409040,
        "addr:city": "Parelhas",
        "addr:housenumber": "348",
        "addr:postcode": "59360-000",
        "addr:street": "Rua Doutor Inácio Soares Barbosa",
        "addr:suburb": "Centro",
        "amenity": "pharmacy",
        "building": "yes",
        "name": "Farmácia Nossa Senhora de Fátima",
        "id": "way/522894356"
      },
      "geometry": {
        "type": "Polygon",
        "coordinates": [
          [
            [
              -36.6586807,
              -6.6917611
            ],
            [
              -36.6586382,
              -6.6916817
            ],
            [
              -36.6586905,
              -6.6916541
            ],
            [
              -36.658733,
              -6.6917335
            ],
            [
              -36.6586807,
              -6.6917611
            ]
          ]
        ]
      }
    },
    {
      "type": "Feature",
      "id": "way/615513920",
      "properties": {
        "timestamp": "2018-08-11T13:57:00Z",
        "version": 2,
        "changeset": 61566319,
        "amenity": "pharmacy",
        "building": "yes",
        "dispensing": "yes",
        "healthcare": "pharmacy",
        "name": "Drogaria Frei Damião - Loja I",
        "id": "way/615513920"
      },
      "geometry": {
        "type": "Polygon",
        "coordinates": [
          [
            [
              -36.6574041,
              -6.6879336
            ],
            [
              -36.6574487,
              -6.6880329
            ],
            [
              -36.6574334,
              -6.6880406
            ],
            [
              -36.657521,
              -6.6882132
            ],
            [
              -36.6574418,
              -6.6882498
            ],
            [
              -36.6573121,
              -6.6879792
            ],
            [
              -36.6574041,
              -6.6879336
            ]
          ]
        ]
      }
    },
    {
      "type": "Feature",
      "id": "way/618052598",
      "properties": {
        "timestamp": "2018-08-19T16:39:02Z",
        "version": 1,
        "changeset": 61798239,
        "amenity": "pharmacy",
        "building": "yes",
        "dispensing": "yes",
        "healthcare": "pharmacy",
        "name": "Farmácia São Sebastião",
        "id": "way/618052598"
      },
      "geometry": {
        "type": "Polygon",
        "coordinates": [
          [
            [
              -36.656701,
              -6.6875019
            ],
            [
              -36.6567147,
              -6.6874959
            ],
            [
              -36.6567757,
              -6.6876221
            ],
            [
              -36.6567163,
              -6.6876493
            ],
            [
              -36.6566553,
              -6.6875231
            ],
            [
              -36.656701,
              -6.6875019
            ]
          ]
        ]
      }
    }
  ]
}
