{
  "type": "FeatureCollection",
  "features": [
    {
      "type": "Feature",
      "id": "node/1532032637",
      "properties": {
        "timestamp": "2019-10-01T21:10:21Z",
        "version": 2,
        "changeset": 75171392,
        "name": "Prefeitura Municipal de Parobé: Sub-Prefeitura",
        "office": "government",
        "id": "node/1532032637"
      },
      "geometry": {
        "type": "Point",
        "coordinates": [
          -50.8511645,
          -29.6894012
        ]
      }
    },
    {
      "type": "Feature",
      "id": "node/9470274267",
      "properties": {
        "timestamp": "2022-02-03T01:45:54Z",
        "version": 1,
        "changeset": 116941873,
        "addr:city": "Parobé",
        "addr:postcode": "95630-000",
        "addr:street": "Rua Vera Cruz",
        "addr:suburb": "Centro",
        "government": "administrative",
        "name": "Secretaria Municipal de Desenvolvimento Rural - Parobé",
        "office": "government",
        "phone": "+55 51 3543 8665",
        "id": "node/9470274267"
      },
      "geometry": {
        "type": "Point",
        "coordinates": [
          -50.8349484,
          -29.633721
        ]
      }
    },
    {
      "type": "Feature",
      "id": "node/9470274268",
      "properties": {
        "timestamp": "2022-02-03T01:45:54Z",
        "version": 1,
        "changeset": 116941873,
        "addr:city": "Parobé",
        "addr:housenumber": "701",
        "addr:postcode": "95630-000",
        "addr:street": "Rua Vera Cruz",
        "addr:suburb": "Centro",
        "government": "social_welfare",
        "name": "CRAS - Centro de Referência de Assistência Social - Parobé",
        "office": "government",
        "phone": "+55 51 3543 8661",
        "id": "node/9470274268"
      },
      "geometry": {
        "type": "Point",
        "coordinates": [
          -50.8351058,
          -29.6339216
        ]
      }
    },
    {
      "type": "Feature",
      "id": "node/9470274269",
      "properties": {
        "timestamp": "2022-02-03T01:45:54Z",
        "version": 1,
        "changeset": 116941873,
        "addr:city": "Parobé",
        "addr:postcode": "95630-000",
        "addr:street": "Rua Vera Cruz",
        "addr:suburb": "Centro",
        "government": "administrative",
        "name": "Secretaria de Assistêcia Social - Parobé",
        "office": "government",
        "phone": "+55 51 3543 8660",
        "id": "node/9470274269"
      },
      "geometry": {
        "type": "Point",
        "coordinates": [
          -50.8351586,
          -29.6340373
        ]
      }
    },
    {
      "type": "Feature",
      "id": "node/9470274270",
      "properties": {
        "timestamp": "2022-02-03T01:45:54Z",
        "version": 1,
        "changeset": 116941873,
        "addr:city": "Parobé",
        "addr:housenumber": "701",
        "addr:postcode": "95630-000",
        "addr:street": "Rua Vera Cruz",
        "addr:suburb": "Centro",
        "government": "administrative",
        "name": "Centro Municipal de Direitos Humanos - Parobé",
        "office": "government",
        "opening_hours": "Mo-Fr 07:00-13:00",
        "phone": "+55 51 3953 1037",
        "id": "node/9470274270"
      },
      "geometry": {
        "type": "Point",
        "coordinates": [
          -50.8352424,
          -29.6340493
        ]
      }
    },
    {
      "type": "Feature",
      "id": "node/9470274271",
      "properties": {
        "timestamp": "2022-02-03T01:45:54Z",
        "version": 1,
        "changeset": 116941873,
        "addr:city": "Parobé",
        "addr:housenumber": "701",
        "addr:postcode": "95630-000",
        "addr:street": "Rua Vera Cruz",
        "addr:suburb": "Centro",
        "government": "public_service",
        "name": "PROCON - Parobé",
        "office": "government",
        "id": "node/9470274271"
      },
      "geometry": {
        "type": "Point",
        "coordinates": [
          -50.8352113,
          -29.634038
        ]
      }
    }
  ]
}
