{
  "type": "FeatureCollection",
  "features": [
    {
      "type": "Feature",
      "id": "node/2172095317",
      "properties": {
        "timestamp": "2013-02-24T19:08:27Z",
        "version": 1,
        "changeset": 15152100,
        "amenity": "school",
        "name": "Escola Municipal Garcia",
        "id": "node/2172095317"
      },
      "geometry": {
        "type": "Point",
        "coordinates": [
          -37.3682314,
          -11.4644272
        ]
      }
    },
    {
      "type": "Feature",
      "id": "node/11123519857",
      "properties": {
        "timestamp": "2023-08-17T17:56:27Z",
        "version": 1,
        "changeset": 140025299,
        "addr:city": "Jandaíra",
        "addr:housenumber": "76",
        "addr:postcode": "48310000",
        "addr:street": "Rua Argemiro Gomes",
        "addr:suburb": "Centro",
        "amenity": "school",
        "grades": "11-13",
        "name": "Colégio Estadual Doutor Luiz Viana Filho",
        "operator": "Estado da Bahia",
        "operator:type": "public",
        "id": "node/11123519857"
      },
      "geometry": {
        "type": "Point",
        "coordinates": [
          -37.783759,
          -11.563622
        ]
      }
    }
  ]
}
