{
  "type": "FeatureCollection",
  "features": [
    {
      "type": "Feature",
      "id": "way/303677891",
      "properties": {
        "timestamp": "2020-03-11T04:10:15Z",
        "version": 3,
        "changeset": 82033472,
        "addr:city": "Franca",
        "addr:housenumber": "1603",
        "addr:postcode": "14400-520",
        "addr:street": "Rua General Osório",
        "addr:suburb": "Centro",
        "amenity": "clinic",
        "building": "yes",
        "healthcare": "clinic",
        "healthcare:speciality": "ophthalmology",
        "name": "Instituto de Olhos Dr. Ricardo Infante Ferreira",
        "id": "way/303677891"
      },
      "geometry": {
        "type": "Polygon",
        "coordinates": [
          [
            [
              -47.3991969,
              -20.5350236
            ],
            [
              -47.3992197,
              -20.5351441
            ],
            [
              -47.3991301,
              -20.5351624
            ],
            [
              -47.3991073,
              -20.535045
            ],
            [
              -47.3991969,
              -20.5350236
            ]
          ]
        ]
      }
    },
    {
      "type": "Feature",
      "id": "way/1089732610",
      "properties": {
        "timestamp": "2022-08-27T19:45:14Z",
        "version": 1,
        "changeset": 125455125,
        "amenity": "clinic",
        "building": "yes",
        "healthcare": "clinic",
        "name": "UBS Vila São Sebastião",
        "id": "way/1089732610"
      },
      "geometry": {
        "type": "Polygon",
        "coordinates": [
          [
            [
              -47.4283591,
              -20.5285371
            ],
            [
              -47.4284813,
              -20.5288951
            ],
            [
              -47.428161,
              -20.5289813
            ],
            [
              -47.4280919,
              -20.5289548
            ],
            [
              -47.4280672,
              -20.5289166
            ],
            [
              -47.4280176,
              -20.5287443
            ],
            [
              -47.4280442,
              -20.5286664
            ],
            [
              -47.4282547,
              -20.5285852
            ],
            [
              -47.4283591,
              -20.5285371
            ]
          ]
        ]
      }
    },
    {
      "type": "Feature",
      "id": "way/1360110049",
      "properties": {
        "timestamp": "2025-02-15T16:00:46Z",
        "version": 1,
        "changeset": 162541493,
        "addr:city": "Franca",
        "addr:housenumber": "470",
        "addr:postcode": "14401-283",
        "addr:street": "Rua Paulo César Pacheco",
        "addr:suburb": "São José",
        "amenity": "clinic",
        "building": "yes",
        "healthcare": "clinic",
        "name": "Santa Maria",
        "id": "way/1360110049"
      },
      "geometry": {
        "type": "Polygon",
        "coordinates": [
          [
            [
              -47.3885216,
              -20.5367539
            ],
            [
              -47.3884794,
              -20.5371646
            ],
            [
              -47.3880801,
              -20.5372805
            ],
            [
              -47.3881504,
              -20.5367249
            ],
            [
              -47.3885216,
              -20.5367539
            ]
          ]
        ]
      }
    },
    {
      "type": "Feature",
      "id": "node/5321369723",
      "properties": {
        "timestamp": "2018-01-05T05:28:50Z",
        "version": 1,
        "changeset": 55177266,
        "addr:street": "Avenida José Silva",
        "amenity": "clinic",
        "name": "centro de diagnóstico por imagem",
        "id": "node/5321369723"
      },
      "geometry": {
        "type": "Point",
        "coordinates": [
          -47.4010942,
          -20.50967
        ]
      }
    },
    {
      "type": "Feature",
      "id": "node/5321959923",
      "properties": {
        "timestamp": "2018-01-05T13:10:01Z",
        "version": 1,
        "changeset": 55186452,
        "addr:street": "Rua Aluízio Pacheco Ferreira",
        "amenity": "clinic",
        "name": "NGA",
        "id": "node/5321959923"
      },
      "geometry": {
        "type": "Point",
        "coordinates": [
          -47.3957259,
          -20.5192905
        ]
      }
    },
    {
      "type": "Feature",
      "id": "node/9946569931",
      "properties": {
        "timestamp": "2022-08-11T06:43:54Z",
        "version": 1,
        "changeset": 124759809,
        "addr:city": "Franca",
        "addr:housenumber": "2268",
        "addr:postcode": "14400-500",
        "addr:street": "Rua General Carneiro",
        "addr:suburb": "Centro",
        "amenity": "clinic",
        "healthcare": "clinic",
        "healthcare:speciality": "cardiology;general;osteopathy",
        "name": "Instituto CorPrime",
        "opening_hours": "Mo-Su 08:00-21:00",
        "operator": "Dr Ari Silvio F. dos Santos Filho e Dr Fauzer Cury",
        "operator:type": "private",
        "phone": "+55 16999860111",
        "id": "node/9946569931"
      },
      "geometry": {
        "type": "Point",
        "coordinates": [
          -47.3932797,
          -20.5373229
        ]
      }
    }
  ]
}
