{
  "type": "FeatureCollection",
  "features": [
    {
      "type": "Feature",
      "id": "way/304247481",
      "properties": {
        "timestamp": "2020-03-11T04:10:15Z",
        "version": 3,
        "changeset": 82033472,
        "addr:city": "Franca",
        "addr:housenumber": "2087",
        "addr:postcode": "14400-670",
        "addr:street": "Rua Monsenhor Rosa",
        "addr:suburb": "Centro",
        "amenity": "dentist",
        "building": "yes",
        "healthcare": "dentist",
        "name": "Clínica Odontológia Antoniucci",
        "name:pt": "Clínica Odontológica gou",
        "id": "way/304247481"
      },
      "geometry": {
        "type": "Polygon",
        "coordinates": [
          [
            [
              -47.4009196,
              -20.5350585
            ],
            [
              -47.400955,
              -20.5351975
            ],
            [
              -47.4006745,
              -20.5352527
            ],
            [
              -47.4006426,
              -20.5351186
            ],
            [
              -47.4009196,
              -20.5350585
            ]
          ]
        ]
      }
    },
    {
      "type": "Feature",
      "id": "way/626009460",
      "properties": {
        "timestamp": "2018-09-16T18:12:26Z",
        "version": 1,
        "changeset": 62642775,
        "addr:city": "Franca",
        "addr:postcode": "14405-094",
        "addr:street": "Rua Voluntário Mário Mazini",
        "addr:suburb": "Estação",
        "amenity": "dentist",
        "building": "yes",
        "healthcare": "dentist",
        "id": "way/626009460"
      },
      "geometry": {
        "type": "Polygon",
        "coordinates": [
          [
            [
              -47.4087326,
              -20.5353818
            ],
            [
              -47.408746,
              -20.5354459
            ],
            [
              -47.4087205,
              -20.5354747
            ],
            [
              -47.4085716,
              -20.5355099
            ],
            [
              -47.4085475,
              -20.535422
            ],
            [
              -47.4087326,
              -20.5353818
            ]
          ]
        ]
      }
    },
    {
      "type": "Feature",
      "id": "node/3080792916",
      "properties": {
        "timestamp": "2020-03-13T14:11:54Z",
        "version": 2,
        "changeset": 82167249,
        "addr:city": "Franca",
        "addr:housenumber": "2267",
        "addr:postcode": "14400-520",
        "addr:street": "Rua General Osório",
        "addr:suburb": "Centro",
        "amenity": "dentist",
        "healthcare": "dentist",
        "name": "Erivelton F. Pasti",
        "id": "node/3080792916"
      },
      "geometry": {
        "type": "Point",
        "coordinates": [
          -47.3929264,
          -20.5365077
        ]
      }
    },
    {
      "type": "Feature",
      "id": "node/3081075173",
      "properties": {
        "timestamp": "2014-09-17T00:23:04Z",
        "version": 1,
        "changeset": 25491035,
        "amenity": "dentist",
        "name": "Clínica Dentária Marlon F. Magalhães",
        "id": "node/3081075173"
      },
      "geometry": {
        "type": "Point",
        "coordinates": [
          -47.3999374,
          -20.5359138
        ]
      }
    },
    {
      "type": "Feature",
      "id": "node/5336844221",
      "properties": {
        "timestamp": "2020-03-11T04:10:15Z",
        "version": 2,
        "changeset": 82033472,
        "amenity": "dentist",
        "healthcare": "dentist",
        "name": "GOU",
        "id": "node/5336844221"
      },
      "geometry": {
        "type": "Point",
        "coordinates": [
          -47.4007054,
          -20.5351327
        ]
      }
    }
  ]
}
