{
  "type": "FeatureCollection",
  "features": [
    {
      "type": "Feature",
      "id": "way/295443729",
      "properties": {
        "timestamp": "2014-09-12T00:29:38Z",
        "version": 3,
        "changeset": 25380058,
        "addr:city": "Franca",
        "addr:street": "Avenida Reynaldo Chioca",
        "building": "yes",
        "name": "Confort Hotel",
        "tourism": "hotel",
        "id": "way/295443729"
      },
      "geometry": {
        "type": "Polygon",
        "coordinates": [
          [
            [
              -47.3938829,
              -20.5646916
            ],
            [
              -47.393832,
              -20.5649539
            ],
            [
              -47.3936428,
              -20.5649198
            ],
            [
              -47.3935773,
              -20.5652605
            ],
            [
              -47.3931734,
              -20.5652128
            ],
            [
              -47.3932389,
              -20.5647324
            ],
            [
              -47.3933917,
              -20.5647393
            ],
            [
              -47.393479,
              -20.5646302
            ],
            [
              -47.3938829,
              -20.5646916
            ]
          ]
        ]
      }
    },
    {
      "type": "Feature",
      "id": "way/300729998",
      "properties": {
        "timestamp": "2014-08-29T03:30:15Z",
        "version": 1,
        "changeset": 25086976,
        "building": "yes",
        "name": "Franca Tower Hotel",
        "tourism": "hotel",
        "id": "way/300729998"
      },
      "geometry": {
        "type": "Polygon",
        "coordinates": [
          [
            [
              -47.3979493,
              -20.5344501
            ],
            [
              -47.3980022,
              -20.5346907
            ],
            [
              -47.3976709,
              -20.5347738
            ],
            [
              -47.3975964,
              -20.5345423
            ],
            [
              -47.3979493,
              -20.5344501
            ]
          ]
        ]
      }
    },
    {
      "type": "Feature",
      "id": "node/2965413983",
      "properties": {
        "timestamp": "2014-07-16T02:23:21Z",
        "version": 1,
        "changeset": 24173281,
        "addr:city": "Franca",
        "addr:street": "Avenida Presidente Vargas",
        "addr:suburb": "Cidade Nova",
        "name": "Imperador Palace Hotel",
        "tourism": "hotel",
        "id": "node/2965413983"
      },
      "geometry": {
        "type": "Point",
        "coordinates": [
          -47.3925923,
          -20.5287742
        ]
      }
    },
    {
      "type": "Feature",
      "id": "node/2987680856",
      "properties": {
        "timestamp": "2021-11-09T18:07:00Z",
        "version": 2,
        "changeset": 113577284,
        "addr:city": "Franca",
        "addr:housenumber": "510",
        "addr:postcode": "14403-125",
        "addr:street": "Avenida Francisco Paula Quintanilha Ribeiro",
        "addr:suburb": "Parque Francal",
        "brand": "Ibis",
        "brand:wikidata": "Q920166",
        "brand:wikipedia": "en:Ibis (hotel)",
        "name": "ibis Styles",
        "not:brand:wikidata": "Q3147425",
        "tourism": "hotel",
        "id": "node/2987680856"
      },
      "geometry": {
        "type": "Point",
        "coordinates": [
          -47.4077996,
          -20.5559394
        ]
      }
    },
    {
      "type": "Feature",
      "id": "node/3050920078",
      "properties": {
        "timestamp": "2014-08-30T20:05:04Z",
        "version": 1,
        "changeset": 25125576,
        "name": "Hotel Sol de Ipanema",
        "tourism": "hotel",
        "id": "node/3050920078"
      },
      "geometry": {
        "type": "Point",
        "coordinates": [
          -47.3968477,
          -20.5405384
        ]
      }
    },
    {
      "type": "Feature",
      "id": "node/3078319836",
      "properties": {
        "timestamp": "2014-09-15T13:59:48Z",
        "version": 1,
        "changeset": 25456406,
        "addr:city": "Franca",
        "addr:postcode": "14400-520",
        "addr:street": "Rua General Osório",
        "addr:suburb": "Centro",
        "tourism": "hotel",
        "id": "node/3078319836"
      },
      "geometry": {
        "type": "Point",
        "coordinates": [
          -47.4045322,
          -20.5340375
        ]
      }
    },
    {
      "type": "Feature",
      "id": "node/3080793340",
      "properties": {
        "timestamp": "2014-09-16T20:16:43Z",
        "version": 1,
        "changeset": 25487905,
        "addr:city": "Franca",
        "addr:housenumber": "269",
        "addr:postcode": "14405-106",
        "addr:street": "Rua General Carneiro",
        "addr:suburb": "Estação",
        "name": "Hotel São Sebastião",
        "tourism": "hotel",
        "id": "node/3080793340"
      },
      "geometry": {
        "type": "Point",
        "coordinates": [
          -47.411925,
          -20.5330916
        ]
      }
    }
  ]
}
