{
  "type": "FeatureCollection",
  "features": [
    {
      "type": "Feature",
      "id": "node/4173559363",
      "properties": {
        "timestamp": "2021-06-06T16:50:11Z",
        "version": 2,
        "changeset": 105925440,
        "addr:city": "Alto Garças",
        "addr:postcode": "78770-000",
        "addr:suburb": "Centro",
        "amenity": "pharmacy",
        "drive_through": "no",
        "name": "Drogaria Santa Efigênia",
        "id": "node/4173559363"
      },
      "geometry": {
        "type": "Point",
        "coordinates": [
          -53.5319809,
          -16.9437966
        ]
      }
    },
    {
      "type": "Feature",
      "id": "node/4173559371",
      "properties": {
        "timestamp": "2021-06-06T16:50:11Z",
        "version": 3,
        "changeset": 105925440,
        "addr:city": "Alto Garças",
        "addr:postcode": "78770-000",
        "addr:street": "Avenida 7 de Setembro",
        "addr:suburb": "Centro",
        "amenity": "pharmacy",
        "drive_through": "no",
        "name": "Drogaria Rezende",
        "opening_hours": "07:00-18:00",
        "operator": "Varlúcio",
        "id": "node/4173559371"
      },
      "geometry": {
        "type": "Point",
        "coordinates": [
          -53.5305034,
          -16.9443398
        ]
      }
    },
    {
      "type": "Feature",
      "id": "node/4173662006",
      "properties": {
        "timestamp": "2021-06-06T16:50:11Z",
        "version": 3,
        "changeset": 105925440,
        "addr:city": "Alto Garças",
        "addr:postcode": "78770-000",
        "addr:street": "Avenida 7 de Setembro",
        "addr:suburb": "Centro",
        "amenity": "pharmacy",
        "name": "Drogaria Natália",
        "opening_hours": "07:00-18:00",
        "operator": "Nafis",
        "id": "node/4173662006"
      },
      "geometry": {
        "type": "Point",
        "coordinates": [
          -53.5294849,
          -16.9447926
        ]
      }
    }
  ]
}
