{
  "type": "FeatureCollection",
  "features": [
    {
      "type": "Feature",
      "id": "way/827670963",
      "properties": {
        "timestamp": "2022-04-19T17:40:35Z",
        "version": 4,
        "changeset": 119918212,
        "amenity": "dentist",
        "building": "yes",
        "healthcare": "dentist",
        "name": "Clínica Popular Odontológica",
        "id": "way/827670963"
      },
      "geometry": {
        "type": "Polygon",
        "coordinates": [
          [
            [
              -67.8038862,
              -9.9780977
            ],
            [
              -67.80388,
              -9.9781785
            ],
            [
              -67.8038272,
              -9.9781746
            ],
            [
              -67.8038334,
              -9.9780938
            ],
            [
              -67.8038862,
              -9.9780977
            ]
          ]
        ]
      }
    },
    {
      "type": "Feature",
      "id": "node/5277957922",
      "properties": {
        "timestamp": "2024-12-24T02:32:17Z",
        "version": 3,
        "changeset": 160560464,
        "addr:street": "Estrada Jarbas Passarinho",
        "amenity": "dentist",
        "healthcare": "dentist",
        "name": "Odonto Center",
        "opening_hours": "Mo-Fr 08:00-17:30; Sa 08:00-12:00",
        "id": "node/5277957922"
      },
      "geometry": {
        "type": "Point",
        "coordinates": [
          -67.819423,
          -9.9410179
        ]
      }
    },
    {
      "type": "Feature",
      "id": "node/9826807224",
      "properties": {
        "timestamp": "2022-06-18T02:37:55Z",
        "version": 1,
        "changeset": 122529139,
        "addr:city": "Rio Branco",
        "addr:housenumber": "435",
        "addr:postcode": "69900312",
        "addr:street": "Rua Rio de Janeiro",
        "addr:suburb": "Dom Giocondo",
        "amenity": "dentist",
        "healthcare": "dentist",
        "name": "vittali odontologia",
        "id": "node/9826807224"
      },
      "geometry": {
        "type": "Point",
        "coordinates": [
          -67.8187117,
          -9.9724683
        ]
      }
    }
  ]
}
