{
  "type": "FeatureCollection",
  "features": [
    {
      "type": "Feature",
      "id": "way/238355535",
      "properties": {
        "timestamp": "2023-06-15T14:05:32Z",
        "version": 2,
        "changeset": 137372657,
        "addr:housenumber": "173",
        "addr:postcode": "07600-264",
        "addr:street": "Rua Capitão Cândido Galrão",
        "addr:suburb": "Centro",
        "alt_name": "Casa da Mulher",
        "amenity": "clinic",
        "building": "yes",
        "healthcare": "clinic",
        "healthcare:speciality": "gynaecology",
        "name": "Casa de Atenção à Mulher Maria Dalsatto Braga",
        "opening_hours": "Mo-Fr 07:00-17:00; Sa,Su,PH off",
        "operator": "Secretaria Municipal da Saúde",
        "operator:type": "government",
        "phone": "+55 11 4419 6758",
        "ref:CNES": "3995399",
        "source": "CNES",
        "id": "way/238355535"
      },
      "geometry": {
        "type": "Polygon",
        "coordinates": [
          [
            [
              -46.5901834,
              -23.3196714
            ],
            [
              -46.5902238,
              -23.3197391
            ],
            [
              -46.5902591,
              -23.3197196
            ],
            [
              -46.5902803,
              -23.3197651
            ],
            [
              -46.5903307,
              -23.3197688
            ],
            [
              -46.5903121,
              -23.3198448
            ],
            [
              -46.5903014,
              -23.3198436
            ],
            [
              -46.5902912,
              -23.3198777
            ],
            [
              -46.5901592,
              -23.3198485
            ],
            [
              -46.5901773,
              -23.319803
            ],
            [
              -46.5901319,
              -23.3197929
            ],
            [
              -46.5901592,
              -23.3196844
            ],
            [
              -46.5901834,
              -23.3196714
            ]
          ]
        ]
      }
    },
    {
      "type": "Feature",
      "id": "way/1182139866",
      "properties": {
        "timestamp": "2023-06-15T01:06:09Z",
        "version": 1,
        "changeset": 137349277,
        "addr:housenumber": "119",
        "addr:postcode": "07609-210",
        "addr:street": "Rua Pedro Pereira da Silva",
        "addr:suburb": "Vila Machado",
        "alt_name": "ESF Vila Machado",
        "amenity": "clinic",
        "building": "yes",
        "healthcare": "clinic",
        "healthcare:speciality": "general;paediatrics;ginecologia;vaccination",
        "name": "Unidade Básica de Saúde Malvina Machado Wisniewski",
        "opening_hours": "Mo-Fr 08:00-17:00; Sa,Su,PH off",
        "phone": "+55 11 4482 1129",
        "ref:CNES": "5026105",
        "short_name": "UBS Malvina Machado Wisniewski",
        "id": "way/1182139866"
      },
      "geometry": {
        "type": "Polygon",
        "coordinates": [
          [
            [
              -46.6584055,
              -23.3383403
            ],
            [
              -46.6585011,
              -23.3385273
            ],
            [
              -46.6584241,
              -23.3385687
            ],
            [
              -46.6583194,
              -23.3383719
            ],
            [
              -46.6584055,
              -23.3383403
            ]
          ]
        ]
      }
    },
    {
      "type": "Feature",
      "id": "way/1182785068",
      "properties": {
        "timestamp": "2023-06-17T22:08:43Z",
        "version": 1,
        "changeset": 137462422,
        "addr:housenumber": "Km 13",
        "addr:postcode": "07638-010",
        "addr:street": "Estrada Vereador Mario Romeiro",
        "addr:suburb": "Piriucaia",
        "amenity": "clinic",
        "building": "yes",
        "healthcare": "clinic",
        "healthcare:speciality": "general;paediatrics;ginecologia",
        "name": "Unidade Básica de Saúde Piriucaia",
        "opening_hours": "Mo-Fr 08:00-17:00; Sa,Su,PH off",
        "operator": "Secretaria Municipal da Saúde",
        "operator:type": "government",
        "phone": "+55 11 4486 4080",
        "ref:CNES": "2086409",
        "short_name": "UBS Piriucaia",
        "source": "CNES",
        "wheelchair": "no",
        "id": "way/1182785068"
      },
      "geometry": {
        "type": "Polygon",
        "coordinates": [
          [
            [
              -46.4936083,
              -23.3050704
            ],
            [
              -46.493546,
              -23.3051981
            ],
            [
              -46.4934815,
              -23.3051661
            ],
            [
              -46.4935197,
              -23.3050642
            ],
            [
              -46.493548,
              -23.3050725
            ],
            [
              -46.4935706,
              -23.3050112
            ],
            [
              -46.4935982,
              -23.3050225
            ],
            [
              -46.4935843,
              -23.3050556
            ],
            [
              -46.4936083,
              -23.3050704
            ]
          ]
        ]
      }
    },
    {
      "type": "Feature",
      "id": "way/1182789375",
      "properties": {
        "timestamp": "2023-06-17T22:50:37Z",
        "version": 1,
        "changeset": 137462971,
        "addr:housenumber": "60",
        "addr:postcode": "07631-315",
        "addr:street": "Estrada Santo Antônio",
        "addr:suburb": "Jardim Sandra",
        "amenity": "clinic",
        "building": "yes",
        "healthcare": "clinic",
        "healthcare:speciality": "general;paediatrics;ginecologia",
        "mobile": "+55 11 97529 7224",
        "name": "Unidade Básica de Saúde Rio Acima",
        "opening_hours": "Mo-Fr 08:00-17:00; Sa,Su,PH off",
        "operator": "Secretaria Municipal da Saúde",
        "operator:type": "government",
        "ref:CNES": "5099528",
        "source": "CNES;streetlevel imagery",
        "id": "way/1182789375"
      },
      "geometry": {
        "type": "Polygon",
        "coordinates": [
          [
            [
              -46.5325107,
              -23.2665278
            ],
            [
              -46.5325179,
              -23.2666116
            ],
            [
              -46.5324531,
              -23.2666204
            ],
            [
              -46.5323979,
              -23.2666226
            ],
            [
              -46.5323883,
              -23.2665344
            ],
            [
              -46.5325107,
              -23.2665278
            ]
          ]
        ]
      }
    }
  ]
}
