{
  "type": "FeatureCollection",
  "features": [
    {
      "type": "Feature",
      "id": "way/183357948",
      "properties": {
        "timestamp": "2018-05-20T00:54:35Z",
        "version": 4,
        "changeset": 59113808,
        "addr:city": "Mairiporã",
        "addr:housenumber": "8",
        "addr:postcode": "07600-000",
        "addr:street": "Rua Motomo Maeda",
        "addr:suburb": "Centro",
        "amenity": "pharmacy",
        "building": "yes",
        "dispensing": "yes",
        "healthcare": "pharmacy",
        "name": "Droga Sol",
        "id": "way/183357948"
      },
      "geometry": {
        "type": "Polygon",
        "coordinates": [
          [
            [
              -46.5837243,
              -23.3189773
            ],
            [
              -46.5836738,
              -23.3191396
            ],
            [
              -46.5835397,
              -23.3190977
            ],
            [
              -46.5835919,
              -23.3189369
            ],
            [
              -46.5836584,
              -23.3189529
            ],
            [
              -46.5837243,
              -23.3189773
            ]
          ]
        ]
      }
    },
    {
      "type": "Feature",
      "id": "way/183357949",
      "properties": {
        "timestamp": "2021-01-02T01:27:43Z",
        "version": 6,
        "changeset": 96792392,
        "addr:housename": "Bifarma",
        "addr:housenumber": "160",
        "addr:street": "Rua Quinze de Novembro",
        "amenity": "pharmacy",
        "building": "commercial",
        "healthcare": "pharmacy",
        "id": "way/183357949"
      },
      "geometry": {
        "type": "Polygon",
        "coordinates": [
          [
            [
              -46.5859229,
              -23.3194674
            ],
            [
              -46.5858117,
              -23.3194312
            ],
            [
              -46.5858815,
              -23.3192858
            ],
            [
              -46.58597,
              -23.3193326
            ],
            [
              -46.5859229,
              -23.3194674
            ]
          ]
        ]
      }
    },
    {
      "type": "Feature",
      "id": "way/183357953",
      "properties": {
        "timestamp": "2019-10-26T20:11:39Z",
        "version": 6,
        "changeset": 76251912,
        "addr:city": "Mairiporã",
        "addr:housenumber": "85",
        "addr:postcode": "07600-000",
        "addr:street": "Rua Nicolau Antônio Brilha",
        "addr:suburb": "Centro",
        "amenity": "pharmacy",
        "building": "yes",
        "dispensing": "yes",
        "drive_through": "no",
        "healthcare": "pharmacy",
        "name": "Farma Fácil",
        "id": "way/183357953"
      },
      "geometry": {
        "type": "Polygon",
        "coordinates": [
          [
            [
              -46.5847749,
              -23.3181436
            ],
            [
              -46.5847547,
              -23.318385
            ],
            [
              -46.584626,
              -23.3183542
            ],
            [
              -46.5846723,
              -23.3182287
            ],
            [
              -46.5847119,
              -23.3181288
            ],
            [
              -46.5847749,
              -23.3181436
            ]
          ]
        ]
      }
    },
    {
      "type": "Feature",
      "id": "way/234721908",
      "properties": {
        "timestamp": "2018-05-20T00:54:36Z",
        "version": 5,
        "changeset": 59113808,
        "addr:city": "Mairiporã",
        "addr:housenumber": "07",
        "addr:postcode": "07600-000",
        "addr:street": "Rua Padre Vairo",
        "addr:suburb": "Centro",
        "amenity": "pharmacy",
        "building": "yes",
        "dispensing": "yes",
        "drive_through": "no",
        "healthcare": "pharmacy",
        "name": "Farmanossa",
        "id": "way/234721908"
      },
      "geometry": {
        "type": "Polygon",
        "coordinates": [
          [
            [
              -46.584366,
              -23.3186369
            ],
            [
              -46.5843399,
              -23.3186788
            ],
            [
              -46.5843127,
              -23.3186911
            ],
            [
              -46.5842768,
              -23.3186678
            ],
            [
              -46.5843144,
              -23.3186055
            ],
            [
              -46.584366,
              -23.3186369
            ]
          ]
        ]
      }
    },
    {
      "type": "Feature",
      "id": "way/1182261741",
      "properties": {
        "timestamp": "2023-06-15T14:05:32Z",
        "version": 1,
        "changeset": 137372657,
        "addr:postcode": "07600-231",
        "addr:street": "Avenida Leonor de Oliveira",
        "addr:suburb": "Centro",
        "amenity": "pharmacy",
        "building": "yes",
        "dispensing": "yes",
        "drive_through": "no",
        "healthcare": "pharmacy",
        "name": "FarMais",
        "opening_hours": "Mo-Su,PH 07:00-24:00",
        "id": "way/1182261741"
      },
      "geometry": {
        "type": "Polygon",
        "coordinates": [
          [
            [
              -46.5907394,
              -23.3197627
            ],
            [
              -46.59067,
              -23.319881
            ],
            [
              -46.5905659,
              -23.3198296
            ],
            [
              -46.5906666,
              -23.3197236
            ],
            [
              -46.5907394,
              -23.3197627
            ]
          ]
        ]
      }
    },
    {
      "type": "Feature",
      "id": "way/1182292456",
      "properties": {
        "timestamp": "2023-06-15T16:47:21Z",
        "version": 2,
        "changeset": 137381302,
        "addr:street": "Avenida Tabelião Passarela",
        "amenity": "pharmacy",
        "brand": "Drogasil",
        "brand:wikidata": "Q5308185",
        "building": "yes",
        "dispensing": "yes",
        "drive_through": "no",
        "healthcare": "pharmacy",
        "mobile": "+55 11 99207 4740",
        "name": "Drogasil",
        "opening_hours": "24/7",
        "website": "https://www.drogasil.com.br/",
        "wheelchair": "yes",
        "id": "way/1182292456"
      },
      "geometry": {
        "type": "Polygon",
        "coordinates": [
          [
            [
              -46.5898066,
              -23.3194015
            ],
            [
              -46.5897778,
              -23.3195823
            ],
            [
              -46.5896714,
              -23.3195678
            ],
            [
              -46.5897103,
              -23.3193593
            ],
            [
              -46.5898066,
              -23.3194015
            ]
          ]
        ]
      }
    },
    {
      "type": "Feature",
      "id": "node/2472886599",
      "properties": {
        "timestamp": "2013-09-26T23:01:18Z",
        "version": 1,
        "changeset": 18053834,
        "amenity": "pharmacy",
        "dispensing": "no",
        "name": "Farmácia Popular",
        "id": "node/2472886599"
      },
      "geometry": {
        "type": "Point",
        "coordinates": [
          -46.5864776,
          -23.3196389
        ]
      }
    },
    {
      "type": "Feature",
      "id": "node/6407576376",
      "properties": {
        "timestamp": "2019-04-15T19:48:35Z",
        "version": 1,
        "changeset": 69248083,
        "amenity": "pharmacy",
        "dispensing": "yes",
        "healthcare": "pharmacy",
        "name": "Droga Sol",
        "id": "node/6407576376"
      },
      "geometry": {
        "type": "Point",
        "coordinates": [
          -46.5855778,
          -23.3189761
        ]
      }
    }
  ]
}
