{
  "type": "FeatureCollection",
  "features": [
    {
      "type": "Feature",
      "id": "way/583377863",
      "properties": {
        "timestamp": "2019-07-31T17:16:16Z",
        "version": 2,
        "changeset": 72866263,
        "addr:city": "Cascavel",
        "addr:street": "Rua Andréa Galafassi",
        "addr:suburb": "Nova Cidade",
        "amenity": "clinic",
        "building": "yes",
        "healthcare": "clinic",
        "name": "Unidade básica de saúde Jardim União",
        "id": "way/583377863"
      },
      "geometry": {
        "type": "Polygon",
        "coordinates": [
          [
            [
              -53.4554805,
              -24.9872923
            ],
            [
              -53.4554972,
              -24.9873848
            ],
            [
              -53.4554633,
              -24.9873898
            ],
            [
              -53.4554888,
              -24.9875313
            ],
            [
              -53.4552486,
              -24.9875668
            ],
            [
              -53.4552065,
              -24.9873328
            ],
            [
              -53.4553979,
              -24.9873049
            ],
            [
              -53.4554805,
              -24.9872923
            ]
          ]
        ]
      }
    },
    {
      "type": "Feature",
      "id": "way/583377866",
      "properties": {
        "timestamp": "2022-12-21T16:23:09Z",
        "version": 4,
        "changeset": 130340607,
        "addr:city": "Cascavel",
        "addr:postcode": "85810-020",
        "addr:street": "Rua Celso Esperança",
        "addr:suburb": "Parque São Paulo",
        "amenity": "clinic",
        "building": "public",
        "healthcare": "clinic",
        "healthcare:speciality": "vaccination;general",
        "name": "Unidade Básica de Saúde Parque São Paulo",
        "opening_hours": "Mo-Fr 08:00-16:00",
        "operator": "Prefeitura de Cascavel",
        "operator:type": "government",
        "id": "way/583377866"
      },
      "geometry": {
        "type": "Polygon",
        "coordinates": [
          [
            [
              -53.4573797,
              -24.9785894
            ],
            [
              -53.4572619,
              -24.9787742
            ],
            [
              -53.4570998,
              -24.9786893
            ],
            [
              -53.4572176,
              -24.9785045
            ],
            [
              -53.4573797,
              -24.9785894
            ]
          ]
        ]
      }
    },
    {
      "type": "Feature",
      "id": "way/843927871",
      "properties": {
        "timestamp": "2023-01-04T14:24:05Z",
        "version": 2,
        "changeset": 130869630,
        "addr:city": "Cascavel",
        "addr:housenumber": "732",
        "addr:postcode": "85806-080",
        "addr:street": "Avenida Tito Muffato",
        "addr:suburb": "Santo Onofre",
        "amenity": "clinic",
        "building": "yes",
        "healthcare": "clinic",
        "name": "UBS Santo Onofre",
        "opening_hours": "Mo-Fr 08:00-16:00",
        "id": "way/843927871"
      },
      "geometry": {
        "type": "Polygon",
        "coordinates": [
          [
            [
              -53.5020635,
              -24.9775052
            ],
            [
              -53.5019403,
              -24.9777001
            ],
            [
              -53.5017518,
              -24.9776023
            ],
            [
              -53.5018749,
              -24.9774074
            ],
            [
              -53.5020635,
              -24.9775052
            ]
          ]
        ]
      }
    },
    {
      "type": "Feature",
      "id": "way/1041298827",
      "properties": {
        "timestamp": "2023-02-22T03:53:28Z",
        "version": 2,
        "changeset": 132860753,
        "addr:city": "Cascavel",
        "addr:housenumber": "561",
        "addr:postcode": "85803-290",
        "addr:street": "Rua Capitão Benedicto Lopes Bragança",
        "addr:suburb": "Santa Felicidade",
        "amenity": "clinic",
        "building": "yes",
        "healthcare": "clinic",
        "name": "USB Santa Felicidade",
        "phone": "+55 45 3902-2622",
        "id": "way/1041298827"
      },
      "geometry": {
        "type": "Polygon",
        "coordinates": [
          [
            [
              -53.4626906,
              -24.9943624
            ],
            [
              -53.4626274,
              -24.9944986
            ],
            [
              -53.4625256,
              -24.9944598
            ],
            [
              -53.4625346,
              -24.9944406
            ],
            [
              -53.4624493,
              -24.9944081
            ],
            [
              -53.4624428,
              -24.9944221
            ],
            [
              -53.4623784,
              -24.9943975
            ],
            [
              -53.4624473,
              -24.9942491
            ],
            [
              -53.4625369,
              -24.9942833
            ],
            [
              -53.4625288,
              -24.9943007
            ],
            [
              -53.4626906,
              -24.9943624
            ]
          ]
        ]
      }
    },
    {
      "type": "Feature",
      "id": "way/1149572270",
      "properties": {
        "timestamp": "2023-02-26T06:53:16Z",
        "version": 1,
        "changeset": 133030616,
        "amenity": "clinic",
        "building": "yes",
        "healthcare": "clinic",
        "name": "USF Colméia",
        "phone": "+55 45 3902-1436",
        "id": "way/1149572270"
      },
      "geometry": {
        "type": "Polygon",
        "coordinates": [
          [
            [
              -53.4087207,
              -24.9524864
            ],
            [
              -53.4088666,
              -24.9526081
            ],
            [
              -53.4086645,
              -24.9528072
            ],
            [
              -53.4085449,
              -24.9527074
            ],
            [
              -53.4086487,
              -24.9526051
            ],
            [
              -53.4086225,
              -24.9525832
            ],
            [
              -53.4087207,
              -24.9524864
            ]
          ]
        ]
      }
    },
    {
      "type": "Feature",
      "id": "node/4767142121",
      "properties": {
        "timestamp": "2020-08-12T03:57:39Z",
        "version": 2,
        "changeset": 89276609,
        "addr:housenumber": "94",
        "addr:street": "Rua Chopinzinho",
        "amenity": "clinic",
        "healthcare": "clinic",
        "name": "Eletrificador",
        "name:en": "Elétrica",
        "name:pt": "Eletrificador",
        "id": "node/4767142121"
      },
      "geometry": {
        "type": "Point",
        "coordinates": [
          -53.5140458,
          -24.9634603
        ]
      }
    },
    {
      "type": "Feature",
      "id": "node/7071906685",
      "properties": {
        "timestamp": "2020-08-11T18:53:41Z",
        "version": 2,
        "changeset": 89266208,
        "addr:housenumber": "2370",
        "addr:street": "Rua Cuiabá",
        "amenity": "clinic",
        "healthcare": "clinic",
        "name": "Laboratório Central de Cascavel",
        "id": "node/7071906685"
      },
      "geometry": {
        "type": "Point",
        "coordinates": [
          -53.4597181,
          -24.9665322
        ]
      }
    },
    {
      "type": "Feature",
      "id": "node/7967679197",
      "properties": {
        "timestamp": "2020-10-03T01:09:09Z",
        "version": 1,
        "changeset": 91888072,
        "addr:housenumber": "3212",
        "addr:street": "Rua General Osório",
        "amenity": "clinic",
        "name": "Biovel",
        "id": "node/7967679197"
      },
      "geometry": {
        "type": "Point",
        "coordinates": [
          -53.4567026,
          -24.9606366
        ]
      }
    },
    {
      "type": "Feature",
      "id": "node/7967683389",
      "properties": {
        "timestamp": "2020-10-03T01:09:11Z",
        "version": 1,
        "changeset": 91888072,
        "addr:housenumber": "3232",
        "addr:street": "Rua General Osório",
        "amenity": "clinic",
        "name": "Laboratório Alvaro",
        "id": "node/7967683389"
      },
      "geometry": {
        "type": "Point",
        "coordinates": [
          -53.4566845,
          -24.9604251
        ]
      }
    },
    {
      "type": "Feature",
      "id": "node/8158853818",
      "properties": {
        "timestamp": "2020-11-24T17:57:13Z",
        "version": 1,
        "changeset": 94721989,
        "addr:street": "Rua Maranhão",
        "amenity": "clinic",
        "name": "Eco Diagnose",
        "opening_hours": "Mo-Fr 08:00-12:00, 13:30-18:00",
        "id": "node/8158853818"
      },
      "geometry": {
        "type": "Point",
        "coordinates": [
          -53.4589733,
          -24.9615446
        ]
      }
    },
    {
      "type": "Feature",
      "id": "node/9914429319",
      "properties": {
        "timestamp": "2022-09-19T00:19:37Z",
        "version": 3,
        "changeset": 126348821,
        "addr:city": "Cascavel",
        "addr:housenumber": "3290",
        "addr:street": "Rua Carlos de Carvalho",
        "amenity": "clinic",
        "healthcare": "clinic",
        "name": "Dr. Rafael Reston Cirurgia Plástica",
        "source": "Dr. Rafael Reston Cirurgia Plástica;local knowledge;survey",
        "id": "node/9914429319"
      },
      "geometry": {
        "type": "Point",
        "coordinates": [
          -53.4592083,
          -24.9603246
        ]
      }
    }
  ]
}
