{
  "type": "FeatureCollection",
  "features": [
    {
      "type": "Feature",
      "id": "way/460948683",
      "properties": {
        "timestamp": "2020-08-11T06:12:34Z",
        "version": 2,
        "changeset": 89230213,
        "addr:city": "Cascavel",
        "addr:housenumber": "2642",
        "addr:postcode": "85819-351",
        "addr:street": "Rua Carlos Gomes",
        "addr:suburb": "Maria Luiza",
        "amenity": "dentist",
        "building": "yes",
        "healthcare": "dentist",
        "name": "Odontologia Dr. Fábio Augusto Deitos",
        "phone": "+55 45 3225-1368",
        "id": "way/460948683"
      },
      "geometry": {
        "type": "Polygon",
        "coordinates": [
          [
            [
              -53.4544114,
              -24.9689445
            ],
            [
              -53.4544143,
              -24.9690462
            ],
            [
              -53.4543034,
              -24.9690488
            ],
            [
              -53.4543006,
              -24.9689458
            ],
            [
              -53.4544114,
              -24.9689445
            ]
          ]
        ]
      }
    },
    {
      "type": "Feature",
      "id": "way/1041298831",
      "properties": {
        "timestamp": "2022-03-18T00:02:07Z",
        "version": 1,
        "changeset": 118614615,
        "addr:city": "Cascavel",
        "addr:housenumber": "1282",
        "addr:postcode": "85803-450",
        "addr:street": "Rua Clodoaldo Ursulano",
        "addr:suburb": "Santa Felicidade",
        "amenity": "dentist",
        "building": "yes",
        "healthcare": "dentist",
        "name": "Odontologia Dr. Jorny de Mattia Ribeiro",
        "operator": "Dr. Jorny de Mattia Ribeiro",
        "phone": "+55 45 3035-1618",
        "id": "way/1041298831"
      },
      "geometry": {
        "type": "Polygon",
        "coordinates": [
          [
            [
              -53.4623312,
              -24.995915
            ],
            [
              -53.4622806,
              -24.9958946
            ],
            [
              -53.462293,
              -24.9958695
            ],
            [
              -53.4622323,
              -24.995845
            ],
            [
              -53.4622688,
              -24.9957709
            ],
            [
              -53.46238,
              -24.9958159
            ],
            [
              -53.4623312,
              -24.995915
            ]
          ]
        ]
      }
    },
    {
      "type": "Feature",
      "id": "way/1095518271",
      "properties": {
        "timestamp": "2022-09-18T01:40:17Z",
        "version": 1,
        "changeset": 126316037,
        "amenity": "dentist",
        "building": "yes",
        "healthcare": "dentist",
        "name": "Auros Odontologia e Estética",
        "id": "way/1095518271"
      },
      "geometry": {
        "type": "Polygon",
        "coordinates": [
          [
            [
              -53.470397,
              -24.9654779
            ],
            [
              -53.4704043,
              -24.9655801
            ],
            [
              -53.4701812,
              -24.9655932
            ],
            [
              -53.4701739,
              -24.965491
            ],
            [
              -53.4701828,
              -24.9654904
            ],
            [
              -53.4703606,
              -24.96548
            ],
            [
              -53.470397,
              -24.9654779
            ]
          ]
        ]
      }
    },
    {
      "type": "Feature",
      "id": "node/5264222621",
      "properties": {
        "timestamp": "2020-08-14T04:00:53Z",
        "version": 3,
        "changeset": 89382954,
        "addr:street": "Rua Alvaro Palma",
        "amenity": "dentist",
        "healthcare": "dentist",
        "name": "Dr Marcio Camargo",
        "phone": "+55 45 4101-1606",
        "id": "node/5264222621"
      },
      "geometry": {
        "type": "Point",
        "coordinates": [
          -53.5087584,
          -24.9585103
        ]
      }
    },
    {
      "type": "Feature",
      "id": "node/6564205985",
      "properties": {
        "timestamp": "2020-08-11T06:12:34Z",
        "version": 2,
        "changeset": 89230213,
        "addr:street": "Avenida Brasil",
        "amenity": "dentist",
        "healthcare": "dentist",
        "name": "Centro Odontológico Sorriso",
        "id": "node/6564205985"
      },
      "geometry": {
        "type": "Point",
        "coordinates": [
          -53.4612241,
          -24.9550024
        ]
      }
    }
  ]
}
