{
  "type": "FeatureCollection",
  "features": [
    {
      "type": "Feature",
      "id": "way/220523004",
      "properties": {
        "timestamp": "2017-12-12T20:16:45Z",
        "version": 3,
        "changeset": 54576161,
        "building": "hotel",
        "tourism": "hotel",
        "id": "way/220523004"
      },
      "geometry": {
        "type": "Polygon",
        "coordinates": [
          [
            [
              -53.5591553,
              -24.8803895
            ],
            [
              -53.5589882,
              -24.8802992
            ],
            [
              -53.5593638,
              -24.8797271
            ],
            [
              -53.559531,
              -24.8798174
            ],
            [
              -53.5591553,
              -24.8803895
            ]
          ]
        ]
      }
    },
    {
      "type": "Feature",
      "id": "way/398705475",
      "properties": {
        "timestamp": "2024-10-05T13:35:49Z",
        "version": 4,
        "changeset": 157501552,
        "addr:city": "Cascavel",
        "addr:housenumber": "km 588",
        "addr:postcode": "85803-650",
        "addr:street": "BR-277",
        "addr:suburb": "Região do Lago",
        "name": "Hotel Deville Express",
        "tourism": "hotel",
        "id": "way/398705475"
      },
      "geometry": {
        "type": "Polygon",
        "coordinates": [
          [
            [
              -53.4276363,
              -24.9665834
            ],
            [
              -53.4274661,
              -24.9676636
            ],
            [
              -53.4269005,
              -24.9674986
            ],
            [
              -53.426869,
              -24.9674891
            ],
            [
              -53.4268661,
              -24.9674742
            ],
            [
              -53.4268586,
              -24.9674403
            ],
            [
              -53.4268421,
              -24.9674159
            ],
            [
              -53.4268152,
              -24.9673983
            ],
            [
              -53.4267838,
              -24.9673861
            ],
            [
              -53.4267439,
              -24.9673869
            ],
            [
              -53.4266923,
              -24.9673993
            ],
            [
              -53.4265102,
              -24.9673682
            ],
            [
              -53.4266754,
              -24.9664411
            ],
            [
              -53.4276363,
              -24.9665834
            ]
          ]
        ]
      }
    },
    {
      "type": "Feature",
      "id": "way/472619961",
      "properties": {
        "timestamp": "2023-02-06T00:05:36Z",
        "version": 2,
        "changeset": 132132302,
        "addr:city": "Cascavel",
        "addr:housenumber": "2899",
        "addr:postcode": "85812-011",
        "addr:street": "Rua Paraná",
        "addr:suburb": "Centro",
        "building": "yes",
        "building:levels": "23",
        "name": "Bourbon Cascavel Hotel Express",
        "tourism": "hotel",
        "id": "way/472619961"
      },
      "geometry": {
        "type": "Polygon",
        "coordinates": [
          [
            [
              -53.4583651,
              -24.9545874
            ],
            [
              -53.4581917,
              -24.9545987
            ],
            [
              -53.4581846,
              -24.9544382
            ],
            [
              -53.458358,
              -24.9544302
            ],
            [
              -53.4583651,
              -24.9545874
            ]
          ]
        ]
      }
    },
    {
      "type": "Feature",
      "id": "way/472619969",
      "properties": {
        "timestamp": "2019-11-24T01:28:48Z",
        "version": 3,
        "changeset": 77472526,
        "addr:city": "Cascavel",
        "addr:housenumber": "6319",
        "addr:postcode": "85801-000",
        "addr:street": "Avenida Brasil",
        "addr:suburb": "Centro",
        "building": "hotel",
        "internet_access": "yes",
        "internet_access:fee": "no",
        "level": "3",
        "name": "Hotel Lord",
        "phone": "+55 45 3225-3311",
        "tourism": "hotel",
        "id": "way/472619969"
      },
      "geometry": {
        "type": "Polygon",
        "coordinates": [
          [
            [
              -53.4588378,
              -24.955718
            ],
            [
              -53.4588473,
              -24.9559226
            ],
            [
              -53.4586142,
              -24.9559354
            ],
            [
              -53.458602,
              -24.9557309
            ],
            [
              -53.4588378,
              -24.955718
            ]
          ]
        ]
      }
    },
    {
      "type": "Feature",
      "id": "way/1138578366",
      "properties": {
        "timestamp": "2023-02-07T05:54:05Z",
        "version": 1,
        "changeset": 132187871,
        "addr:city": "Cascavel",
        "addr:housenumber": "S/N",
        "addr:postcode": "85812-101",
        "addr:street": "Rua Afonso Pena",
        "addr:suburb": "Centro",
        "brand": "Exército Brasileiro",
        "building": "yes",
        "email": "hto.cascavel@gmail.com",
        "name": "Hotel de Trânsito de Cascavel",
        "phone": "+55 45 3099-3203",
        "rooms": "6",
        "tourism": "hotel",
        "website": "https://5rm.eb.mil.br/index.php/ultimas-noticias/60-escalao-de-pessoal/secao-de-assistencia-social/536-hotel-de-transito-de-cascavel-2",
        "id": "way/1138578366"
      },
      "geometry": {
        "type": "Polygon",
        "coordinates": [
          [
            [
              -53.4478427,
              -24.9589189
            ],
            [
              -53.4477189,
              -24.9590605
            ],
            [
              -53.4476071,
              -24.9589801
            ],
            [
              -53.4477308,
              -24.9588385
            ],
            [
              -53.4478427,
              -24.9589189
            ]
          ]
        ]
      }
    },
    {
      "type": "Feature",
      "id": "way/1148274937",
      "properties": {
        "timestamp": "2023-02-21T16:40:33Z",
        "version": 1,
        "changeset": 132844216,
        "building": "yes",
        "name": "Hotel Copas Verdes",
        "tourism": "hotel",
        "id": "way/1148274937"
      },
      "geometry": {
        "type": "Polygon",
        "coordinates": [
          [
            [
              -53.4549819,
              -24.9554541
            ],
            [
              -53.4549709,
              -24.9557312
            ],
            [
              -53.4547283,
              -24.9557232
            ],
            [
              -53.4547318,
              -24.955636
            ],
            [
              -53.4547394,
              -24.9554461
            ],
            [
              -53.4549819,
              -24.9554541
            ]
          ]
        ]
      }
    },
    {
      "type": "Feature",
      "id": "way/1241734683",
      "properties": {
        "timestamp": "2024-01-21T19:27:55Z",
        "version": 1,
        "changeset": 146525346,
        "addr:city": "Cascavel",
        "addr:housenumber": "1243",
        "addr:postcode": "85803-000",
        "addr:street": "Rua Carlos Gomes",
        "addr:suburb": "Universitário",
        "brand": "Days Inn",
        "building": "yes",
        "internet_access": "wlan",
        "internet_access:fee": "no",
        "name": "Days Inn By Wyndham Cascavel",
        "phone": "+5545-1979344",
        "tourism": "hotel",
        "website": "https://www.wyndhamhotels.com/pt-br/days-inn/cascavel-brazil/days-inn-cascavel/overview?cid=PS:on5x75dmo8ab619&gad_source=1",
        "id": "way/1241734683"
      },
      "geometry": {
        "type": "Polygon",
        "coordinates": [
          [
            [
              -53.4543025,
              -24.9796514
            ],
            [
              -53.4540862,
              -24.9799999
            ],
            [
              -53.453953,
              -24.9799267
            ],
            [
              -53.4541736,
              -24.9795861
            ],
            [
              -53.4543025,
              -24.9796514
            ]
          ]
        ]
      }
    },
    {
      "type": "Feature",
      "id": "node/5229173634",
      "properties": {
        "timestamp": "2017-11-14T23:35:12Z",
        "version": 1,
        "changeset": 53786603,
        "name": "Hotel Castelo",
        "tourism": "hotel",
        "id": "node/5229173634"
      },
      "geometry": {
        "type": "Point",
        "coordinates": [
          -53.4804696,
          -24.9555304
        ]
      }
    },
    {
      "type": "Feature",
      "id": "node/6363430492",
      "properties": {
        "timestamp": "2019-03-26T20:10:35Z",
        "version": 1,
        "changeset": 68561952,
        "addr:city": "Cascavel",
        "addr:housenumber": "248",
        "addr:postcode": "85810-020",
        "addr:street": "Rua Pernambuco",
        "addr:suburb": "Centro",
        "internet_access": "yes",
        "name": "Hotel Niterói",
        "tourism": "hotel",
        "id": "node/6363430492"
      },
      "geometry": {
        "type": "Point",
        "coordinates": [
          -53.4624896,
          -24.9530297
        ]
      }
    },
    {
      "type": "Feature",
      "id": "node/6443129026",
      "properties": {
        "timestamp": "2019-05-02T14:20:59Z",
        "version": 1,
        "changeset": 69806658,
        "name": "Hotel Real",
        "tourism": "hotel",
        "id": "node/6443129026"
      },
      "geometry": {
        "type": "Point",
        "coordinates": [
          -53.4421214,
          -24.9478388
        ]
      }
    },
    {
      "type": "Feature",
      "id": "node/11537825201",
      "properties": {
        "timestamp": "2024-01-21T19:27:55Z",
        "version": 1,
        "changeset": 146525346,
        "addr:city": "Cascavel",
        "addr:housenumber": "1243",
        "addr:postcode": "85803-000",
        "addr:street": "Rua Carlos Gomes",
        "addr:suburb": "Universitário",
        "brand": "Days Inn",
        "internet_access": "wlan",
        "internet_access:fee": "no",
        "name": "Days Inn By Wyndham Cascavel",
        "phone": "+554531979344",
        "tourism": "hotel",
        "website": "https://www.wyndhamhotels.com/pt-br/days-inn/cascavel-brazil/days-inn-cascavel/overview?cid=PS:on5x75dmo8ab619&gad_source=1",
        "id": "node/11537825201"
      },
      "geometry": {
        "type": "Point",
        "coordinates": [
          -53.4538896,
          -24.9795841
        ]
      }
    }
  ]
}
