{
  "type": "FeatureCollection",
  "features": [
    {
      "type": "Feature",
      "id": "way/553322193",
      "properties": {
        "timestamp": "2022-03-27T18:02:46Z",
        "version": 2,
        "changeset": 118990888,
        "addr:city": "Cascavel",
        "addr:housenumber": "1211",
        "addr:postcode": "85803-040",
        "addr:street": "Rua Israel da Vigo Silveira",
        "addr:suburb": "Santa Felicidade",
        "amenity": "kindergarten",
        "name": "CMEI Valerio Barater",
        "preschool": "yes",
        "id": "way/553322193"
      },
      "geometry": {
        "type": "Polygon",
        "coordinates": [
          [
            [
              -53.4646274,
              -24.9872927
            ],
            [
              -53.4645669,
              -24.9874311
            ],
            [
              -53.4643891,
              -24.9873672
            ],
            [
              -53.4643654,
              -24.9874214
            ],
            [
              -53.4642904,
              -24.9873945
            ],
            [
              -53.4643746,
              -24.9872019
            ],
            [
              -53.4646274,
              -24.9872927
            ]
          ]
        ]
      }
    },
    {
      "type": "Feature",
      "id": "way/751641812",
      "properties": {
        "timestamp": "2022-12-17T23:37:59Z",
        "version": 2,
        "changeset": 130199272,
        "addr:city": "Cascavel",
        "addr:country": "BR",
        "addr:housenumber": "705",
        "addr:postcode": "85802-190",
        "addr:state": "PR",
        "addr:street": "Rua Visconde Do Rio Branco",
        "amenity": "kindergarten",
        "email": "mundoencantado@cascavel.pr.gov.br",
        "name": "Centro Municipal de Educação Infantil Mundo Encantado",
        "operator": "Fernanda Bernardes de Souza",
        "operator:type": "public",
        "phone": "+55 45 3902-1452",
        "short_name": "CMEI Mundo Encantado",
        "id": "way/751641812"
      },
      "geometry": {
        "type": "Polygon",
        "coordinates": [
          [
            [
              -53.4739213,
              -24.9734129
            ],
            [
              -53.4737516,
              -24.9734292
            ],
            [
              -53.4730563,
              -24.9731066
            ],
            [
              -53.4730519,
              -24.9730312
            ],
            [
              -53.4727904,
              -24.9730383
            ],
            [
              -53.4727647,
              -24.9724957
            ],
            [
              -53.4738441,
              -24.972436
            ],
            [
              -53.4739213,
              -24.9734129
            ]
          ]
        ]
      }
    },
    {
      "type": "Feature",
      "id": "way/751641813",
      "properties": {
        "timestamp": "2022-12-17T23:37:59Z",
        "version": 2,
        "changeset": 130199272,
        "addr:city": "Cascavel",
        "addr:country": "BR",
        "addr:housenumber": "1489",
        "addr:postcode": "85803-770",
        "addr:state": "PR",
        "addr:street": "Rua Souza Naves",
        "addr:suburb": "Parque São Paulo",
        "amenity": "kindergarten",
        "building": "kindergarten",
        "email": "padreluizluisi@cascavel.pr.gov.br",
        "name": "Centro Municipal de Educação Infantil Padre Luiz Luise",
        "operator": "Lucimara Marques Cardoso Oliveira",
        "operator:type": "public",
        "phone": "+55 45 3902-1419",
        "preschool": "yes",
        "short_name": "CMEI Padre Luiz Luise",
        "id": "way/751641813"
      },
      "geometry": {
        "type": "Polygon",
        "coordinates": [
          [
            [
              -53.4619208,
              -24.9754499
            ],
            [
              -53.4618168,
              -24.9753973
            ],
            [
              -53.4619779,
              -24.975136
            ],
            [
              -53.4620818,
              -24.9751886
            ],
            [
              -53.4619208,
              -24.9754499
            ]
          ]
        ]
      }
    },
    {
      "type": "Feature",
      "id": "way/752857099",
      "properties": {
        "timestamp": "2019-12-04T23:51:00Z",
        "version": 1,
        "changeset": 77963710,
        "addr:city": "Cascavel",
        "addr:country": "BR",
        "addr:housenumber": "1178",
        "addr:postcode": "85802-120",
        "addr:state": "PR",
        "addr:street": "Rua Visconde de Guarapuava",
        "amenity": "kindergarten",
        "email": "aprisco@cascavel.pr.gov.br",
        "name": "Centro Municipal de Educação Infantil Aprisco",
        "operator": "Rosani Galesky Tomas",
        "phone": "+55 45 3902-1886",
        "id": "way/752857099"
      },
      "geometry": {
        "type": "Polygon",
        "coordinates": [
          [
            [
              -53.4633467,
              -24.9619271
            ],
            [
              -53.4625971,
              -24.9619703
            ],
            [
              -53.4625885,
              -24.9618475
            ],
            [
              -53.4633381,
              -24.9618042
            ],
            [
              -53.4633467,
              -24.9619271
            ]
          ]
        ]
      }
    }
  ]
}
