{
  "type": "FeatureCollection",
  "features": [
    {
      "type": "Feature",
      "id": "way/422549389",
      "properties": {
        "timestamp": "2022-02-03T18:25:40Z",
        "version": 3,
        "changeset": 116975811,
        "addr:city": "São Félix do Piauí",
        "addr:housenumber": "616",
        "addr:postcode": "64375-000",
        "addr:street": "Avenida Vinte e Nove de Julho",
        "addr:suburb": "Centro",
        "amenity": "school",
        "name": "U E Saturnino Moura",
        "id": "way/422549389"
      },
      "geometry": {
        "type": "Polygon",
        "coordinates": [
          [
            [
              -42.1136068,
              -5.9340158
            ],
            [
              -42.113162,
              -5.9342383
            ],
            [
              -42.1129174,
              -5.9337723
            ],
            [
              -42.1131515,
              -5.9336523
            ],
            [
              -42.1131732,
              -5.9336409
            ],
            [
              -42.1132691,
              -5.9338221
            ],
            [
              -42.1134532,
              -5.9337256
            ],
            [
              -42.1136068,
              -5.9340158
            ]
          ]
        ]
      }
    },
    {
      "type": "Feature",
      "id": "node/9472274184",
      "properties": {
        "timestamp": "2022-02-03T18:24:25Z",
        "version": 1,
        "changeset": 116975782,
        "amenity": "school",
        "name": "Escola Publica Municipal Sao Francisco",
        "phone": "+55 86 3295 1222",
        "id": "node/9472274184"
      },
      "geometry": {
        "type": "Point",
        "coordinates": [
          -42.0674939,
          -5.9114917
        ]
      }
    },
    {
      "type": "Feature",
      "id": "node/9472283316",
      "properties": {
        "timestamp": "2022-02-03T18:26:44Z",
        "version": 2,
        "changeset": 116975844,
        "addr:city": "São Félix do Piauí",
        "addr:housenumber": "90",
        "addr:postcode": "64375-000",
        "addr:street": "Avenida Brasil",
        "amenity": "school",
        "name": "Escola Publica Municipal Jardim De Infancia Nossa Senhora De Fatima",
        "id": "node/9472283316"
      },
      "geometry": {
        "type": "Point",
        "coordinates": [
          -42.1971492,
          -5.9556017
        ]
      }
    }
  ]
}
