{
  "type": "FeatureCollection",
  "features": [
    {
      "type": "Feature",
      "id": "node/4286192692",
      "properties": {
        "timestamp": "2016-12-13T11:18:22Z",
        "version": 2,
        "changeset": 44369146,
        "amenity": "hospital",
        "name": "Atra",
        "id": "node/4286192692"
      },
      "geometry": {
        "type": "Point",
        "coordinates": [
          -52.8042793,
          -27.7843418
        ]
      }
    },
    {
      "type": "Feature",
      "id": "node/4826292431",
      "properties": {
        "timestamp": "2023-05-02T20:47:32Z",
        "version": 2,
        "changeset": 135633156,
        "addr:city": "Ronda Alta",
        "addr:housenumber": "38",
        "addr:postcode": "99670-000",
        "addr:street": "Travessa São Jorge",
        "addr:suburb": "Centro",
        "amenity": "hospital",
        "healthcare": "hospital",
        "name": "Associação Hospitalar de Ronda Alta",
        "phone": "+55 54 364 1077",
        "ref:CNES": "2235420",
        "ref:vatin": "BR97319487000101",
        "source": "IEDE/RS",
        "id": "node/4826292431"
      },
      "geometry": {
        "type": "Point",
        "coordinates": [
          -52.8018002,
          -27.7829317
        ]
      }
    }
  ]
}
