{
  "type": "FeatureCollection",
  "features": [
    {
      "type": "Feature",
      "id": "way/894341719",
      "properties": {
        "timestamp": "2022-06-07T00:11:30Z",
        "version": 2,
        "changeset": 122046644,
        "addr:city": "Cocal do Sul",
        "addr:housenumber": "126",
        "addr:postcode": "88845-000",
        "addr:street": "Rua Ângelo Peruchi",
        "addr:suburb": "Centro",
        "building": "yes",
        "email": "cmcocaldosul@terra.com.br",
        "government": "legislative",
        "name": "Câmara de Vereadores de Cocal do Sul",
        "office": "government",
        "phone": "+55 48 3447-1216;+55 48 3447-6142",
        "website": "https://www.camaracocaldosul.sc.gov.br",
        "id": "way/894341719"
      },
      "geometry": {
        "type": "Polygon",
        "coordinates": [
          [
            [
              -49.3268077,
              -28.6049835
            ],
            [
              -49.3266661,
              -28.6049866
            ],
            [
              -49.3266626,
              -28.6048002
            ],
            [
              -49.3268041,
              -28.6047971
            ],
            [
              -49.3268077,
              -28.6049835
            ]
          ]
        ]
      }
    },
    {
      "type": "Feature",
      "id": "node/10012283283",
      "properties": {
        "timestamp": "2022-09-22T14:46:08Z",
        "version": 2,
        "changeset": 126508635,
        "addr:housenumber": "12",
        "addr:street": "Rua Paulino Búrigo",
        "alt_name": "4ºBBM/2ªCBM/2ºPBM/1ºGBM;SAT;Seção de Atividades Técnicas",
        "contact:email": "4221sat@cbm.sc.gov.br",
        "contact:phone": "+55 48 3403-1554",
        "contact:website": "https://www.cbm.sc.gov.br/",
        "contact:whatsapp": "+55 48 99142-9431",
        "government": "fire_service",
        "name": "Serviço de Segurança Contra Incêndio",
        "office": "government",
        "operator": "Corpo de Bombeiros Militar de Santa Catarina",
        "operator:short": "CBMSC",
        "operator:type": "public",
        "operator:wikidata": "Q768967",
        "owner": "Governo do Estado de Santa Catarina",
        "ownership": "state",
        "short_name": "SSCI Cocal do Sul",
        "id": "node/10012283283"
      },
      "geometry": {
        "type": "Point",
        "coordinates": [
          -49.3259308,
          -28.6010469
        ]
      }
    }
  ]
}
